latitude,longitude,altitude,geometry,uuid,name,lon,lat
37.4919951,126.9906421,,Point,0,중앙보습학원,126.9906421,37.4919951
37.4884541,127.0087483,,Point,1,동신보습학원,127.0087483,37.4884541
37.5057261,127.0021861,,Point,2,엘브라운의대관학원,127.0021861,37.5057261
37.5026721,126.9874334,,Point,3,광지독서실,126.9874334,37.5026721
37.4770714,127.0009618,,Point,4,예신음악학원,127.0009618,37.4770714
37.486105,126.9962507,,Point,5,잔디음악학원,126.9962507,37.486105
37.5144095,127.0115158,,Point,6,스터디하우스잠원독서실,127.0115158,37.5144095
37.4910332,126.9845826,,Point,7,피앤피아카데미(P&P Academy)학원,126.9845826,37.4910332
37.4741606,127.0478397,,Point,8,하수꽃꽂이학원,127.0478397,37.4741606
37.5020257,127.0241085,,Point,9,국제컴퓨터학원,127.0241085,37.5020257
37.5144095,127.0115158,,Point,10,잠원수도컴퓨터학원,127.0115158,37.5144095
37.5067454,127.0055318,,Point,11,가나어학학원,127.0055318,37.5067454
37.4826442,126.9972242,,Point,12,서초그린섬미술학원,126.9972242,37.4826442
37.4999252,127.0174633,,Point,13,리즈음악학원,127.0174633,37.4999252
37.5010511,127.0087853,,Point,14,서원음악학원,127.0087853,37.5010511
37.4951846,126.9874554,,Point,15,아이캔보습학원,126.9874554,37.4951846
37.5178575,127.0154635,,Point,16,수이지수학전문학원,127.0154635,37.5178575
37.4811843,127.0014497,,Point,17,신동아학원,127.0014497,37.4811843
37.490124,127.0198985,,Point,18,예일보습학원,127.0198985,37.490124
37.4894273,127.009821,,Point,19,박컴학원,127.009821,37.4894273
37.488928,126.993386,,Point,20,준암보습학원,126.993386,37.488928
37.4728564,127.0447812,,Point,21,제일진성보습학원,127.0447812,37.4728564
37.4977845,126.9975306,,Point,22,란음악학원,126.9975306,37.4977845
37.4924479,127.0154692,,Point,23,박정어학원,127.0154692,37.4924479
37.4749978,127.0322158,,Point,24,이든음악학원,127.0322158,37.4749978
37.4824039,127.0071774,,Point,25,시온음악학원,127.0071774,37.4824039
37.4801806,126.9989078,,Point,26,녹지미술학원,126.9989078,37.4801806
37.5197943,127.0143407,,Point,27,탑클래스독서실,127.0143407,37.5197943
37.4923927,127.0142486,,Point,28,한국회계학원,127.0142486,37.4923927
37.4848224,127.0381159,,Point,29,서울애완동물관리학원,127.0381159,37.4848224
37.4756788,126.9897876,,Point,30,행원독서실,126.9897876,37.4756788
37.4708599,127.0253957,,Point,31,양재왕수학보습학원,127.0253957,37.4708599
37.4710827,127.0250988,,Point,32,연세아카데미학원,127.0250988,37.4710827
37.4799612,126.9996005,,Point,33,방배학원,126.9996005,37.4799612
37.5010265,127.0112172,,Point,34,리드유(Leadu)영어학원,127.0112172,37.5010265
37.4875372,127.0263437,,Point,35,피에스에이서초어학학원,127.0263437,37.4875372
37.4846349,127.0218698,,Point,36,서초제일보습학원,127.0218698,37.4846349
37.5065508,127.0048897,,Point,37,헨리영어아이(i)학원,127.0048897,37.5065508
37.4861583,126.9866613,,Point,38,개념폴리아방배관학원,126.9866613,37.4861583
37.4938081,126.9929699,,Point,39,이소키즈클럽어학원,126.9929699,37.4938081
37.4753638,127.0306961,,Point,40,경인학원,127.0306961,37.4753638
37.4708599,127.0253957,,Point,41,서초뉴이화음악학원,127.0253957,37.4708599
37.518531,127.0130338,,Point,43,경희무용학원,127.0130338,37.518531
37.5021689,127.012073,,Point,44,103미술학원,127.012073,37.5021689
37.4844376,127.0219742,,Point,45,셈프레뮤직아트센터서초학원,127.0219742,37.4844376
37.4866417,127.023732,,Point,46,강남용문보습학원,127.023732,37.4866417
37.5021689,127.012073,,Point,47,피엠지보습학원,127.012073,37.5021689
37.5054735,126.9947134,,Point,48,반포한신보습학원,126.9947134,37.5054735
37.4999431,127.0109714,,Point,49,에스오티어학원,127.0109714,37.4999431
37.5042866,127.0229255,,Point,50,에스엠에스(SMS)서울실용음악학원,127.0229255,37.5042866
37.5037644,127.020806,,Point,51,영재과학보습학원,127.020806,37.5037644
37.4998086,127.0262296,,Point,52,파고다원강남학원,127.0262296,37.4998086
37.4933593,126.9889501,,Point,53,멘토(Mentor)독서실,126.9889501,37.4933593
37.4933092,126.9831156,,Point,54,윤영숙수학전문학원,126.9831156,37.4933092
37.5010848,127.010651,,Point,55,현재어학원,127.010651,37.5010848
37.5162716,127.0100772,,Point,56,메디치보습학원,127.0100772,37.5162716
37.5021689,127.012073,,Point,57,퍼스널학원,127.012073,37.5021689
37.4933593,126.9889501,,Point,59,폴리아수학학원,126.9889501,37.4933593
37.4788267,127.0007575,,Point,60,오예스영어학원,127.0007575,37.4788267
37.494536,127.0282432,,Point,61,새롬공인중개사학원,127.0282432,37.494536
37.5018941,127.0104593,,Point,62,진선생어학원,127.0104593,37.5018941
37.4922553,127.0259319,,Point,63,서초무용학원,127.0259319,37.4922553
37.4847087,126.996292,,Point,64,샘밭미술학원,126.996292,37.4847087
37.5015015,127.0217403,,Point,65,참좋은음악학원,127.0217403,37.5015015
37.5057261,127.0021861,,Point,66,으뜸창조미술학원,127.0021861,37.5057261
37.5049236,127.0021176,,Point,67,하선정요리학원,127.0021176,37.5049236
37.5074515,127.008056,,Point,68,잠원씨앤에이논술보습학원,127.008056,37.5074515
37.465071,127.0447446,,Point,69,코트라아카데미경영학원,127.0447446,37.465071
37.4928176,127.0285595,,Point,70,장수경어학원,127.0285595,37.4928176
37.5065508,127.0048897,,Point,71,선재보습학원,127.0048897,37.5065508
37.4981942,126.9864195,,Point,72,브릭앤멘사영재학원,126.9864195,37.4981942
37.4870539,127.0072402,,Point,73,모든이피아노교습소,127.0072402,37.4870539
37.487971,127.0091504,,Point,74,중앙법률사무교육학원,127.0091504,37.487971
37.5157146,127.0178219,,Point,75,코몽드피부미용학원,127.0178219,37.5157146
37.4939335,127.0185822,,Point,76,유진벨어학학원,127.0185822,37.4939335
37.5017651,127.0111962,,Point,77,파워플러스영어학원,127.0111962,37.5017651
37.5019467,127.0102777,,Point,78,반포탐구와은유학원,127.0102777,37.5019467
37.4846187,127.0396562,,Point,79,포스트공연영상학원,127.0396562,37.4846187
37.4747975,126.9910431,,Point,80,하윤미술교습소,126.9910431,37.4747975
37.4945865,127.0190938,,Point,81,아이파경영학원,127.0190938,37.4945865
37.5168409,127.0189044,,Point,82,유로센터독어교습소,127.0189044,37.5168409
37.5082166,127.0036799,,Point,83,어셔어학원,127.0036799,37.5082166
37.5103525,127.0177225,,Point,84,더블유에스에이피디피와인아카데미학원,127.0177225,37.5103525
37.5065508,127.0048897,,Point,85,문클라리넷교습소,127.0048897,37.5065508
37.5012004,127.0104685,,Point,86,더오름수학학원,127.0104685,37.5012004
37.498479,127.0190881,,Point,87,그림재미미술교습소,127.0190881,37.498479
37.4936848,127.0168439,,Point,88,이찬이대학편입학원,127.0168439,37.4936848
37.4985349,127.024742,,Point,89,박문각강남고시학원,127.024742,37.4985349
37.5035783,127.0092948,,Point,90,한우리서초독서논술학원,127.0092948,37.5035783
37.4910332,126.9845826,,Point,91,오승은과학전문과학교습소,126.9845826,37.4910332
37.4930845,126.9915887,,Point,92,시그마수학학원,126.9915887,37.4930845
37.5011109,126.9871492,,Point,93,최고수학학원,126.9871492,37.5011109
37.5197943,127.0143407,,Point,94,잼앤클래식음악교습소,127.0143407,37.5197943
37.5049688,127.0000133,,Point,95,피아노포르테피아노교습소,127.0000133,37.5049688
37.4999252,127.0174633,,Point,96,서초이화바이올린교습소,127.0174633,37.4999252
37.4999252,127.0174633,,Point,97,아이비수학교습소,127.0174633,37.4999252
37.5054735,126.9947134,,Point,98,반포향상피아노교습소,126.9947134,37.5054735
37.5057261,127.0021861,,Point,99,이엔아이피아노교습소,127.0021861,37.5057261
37.5087922,127.0035592,,Point,100,팝스터디학원,127.0035592,37.5087922
37.4791972,126.9850255,,Point,101,파머스영어교습소,126.9850255,37.4791972
37.5015015,127.0217403,,Point,102,클래식피아노교습소,127.0217403,37.5015015
37.4985529,127.0095874,,Point,103,소르본보습학원,127.0095874,37.4985529
37.4738937,126.9949443,,Point,104,와이즈만영재교육방배본원학원,126.9949443,37.4738937
37.4911468,127.0248042,,Point,105,거성영어학원,127.0248042,37.4911468
37.4910536,127.0277116,,Point,106,째즈탑아카데미실용음악학원,127.0277116,37.4910536
37.5057261,127.0021861,,Point,107,반포세정3관학원,127.0021861,37.5057261
37.4781302,126.9887935,,Point,108,아벨수학영어전문학원,126.9887935,37.4781302
37.5070327,127.006478,,Point,109,잠원바이올린교습소,127.006478,37.5070327
37.5065508,127.0048897,,Point,110,헨리영어전문학원,127.0048897,37.5065508
37.4819233,127.0046736,,Point,111,네오과학학원,127.0046736,37.4819233
37.5037543,127.009858,,Point,112,기파랑문해원서초학원,127.009858,37.5037543
37.5130323,127.0127556,,Point,113,해바라기미술교습소,127.0127556,37.5130323
37.4717637,127.0455977,,Point,114,은빛보습학원,127.0455977,37.4717637
37.4911996,126.9892846,,Point,115,웅지학당시즌투학원,126.9892846,37.4911996
37.4840337,127.0210749,,Point,116,지이에스성인고시학원,127.0210749,37.4840337
37.4922553,127.0259319,,Point,117,채림미술교습소,127.0259319,37.4922553
37.492516,127.0160676,,Point,118,케이디에스부동산학원,127.0160676,37.492516
37.5021819,127.0103877,,Point,119,이엠피뮤직슐레음악학원,127.0103877,37.5021819
37.4821274,127.0042978,,Point,120,서초탑클래스학원,127.0042978,37.4821274
37.4980628,127.0265011,,Point,121,에스비에스(SBS)아카데미컴퓨터아트학원,127.0265011,37.4980628
37.4753638,127.0306961,,Point,122,석사음악원피아노교습소,127.0306961,37.4753638
37.4743587,127.0311952,,Point,123,리딩키즈리딩클럽영어전문교습소,127.0311952,37.4743587
37.5197943,127.0143407,,Point,124,제이앤피영어전문학원,127.0143407,37.5197943
37.4910598,126.9918986,,Point,125,진체크패스영어보습학원,126.9918986,37.4910598
37.497529,127.0132085,,Point,126,엘리트리에스비어학원,127.0132085,37.497529
37.4992716,127.0007679,,Point,127,아트앤빛미술교습소,127.0007679,37.4992716
37.484506,127.0357793,,Point,128,패스트레인정보통신학원,127.0357793,37.484506
37.5004794,127.0104441,,Point,129,요미요미미술학원,127.0104441,37.5004794
37.4780508,126.9995807,,Point,130,프라임음악교습소,126.9995807,37.4780508
37.4872299,127.0262233,,Point,131,아카데미라운지서초독서실,127.0262233,37.4872299
37.4901263,127.0212667,,Point,132,애플트리서초어학학원,127.0212667,37.4901263
37.4961119,127.0194018,,Point,133,서초한나피아노교습소,127.0194018,37.4961119
37.4922553,127.0259319,,Point,134,서이플룻교습소,127.0259319,37.4922553
37.496656,126.9877635,,Point,135,방배삼호해법수학교습소,126.9877635,37.496656
37.5023965,127.0101926,,Point,136,손광균학원,127.0101926,37.5023965
37.5007046,127.0104411,,Point,137,반포파인만학원,127.0104411,37.5007046
37.5023088,127.0104765,,Point,138,스파르탄보습학원,127.0104765,37.5023088
37.4893588,126.993188,,Point,139,EMI영어교습소,126.993188,37.4893588
37.480903,127.0001532,,Point,140,세라아트도예학원,127.0001532,37.480903
37.4869473,126.9861984,,Point,141,사랑이넘치는피아노학원,126.9861984,37.4869473
37.485164,126.9841985,,Point,142,아름다운음악교습소,126.9841985,37.485164
37.4922442,127.0158903,,Point,143,현재스토리학원,127.0158903,37.4922442
37.4831474,127.0077216,,Point,144,대치에프엠(FM)수학학원,127.0077216,37.4831474
37.4731232,127.0465753,,Point,145,황후연국제교육학원,127.0465753,37.4731232
37.496656,126.9877635,,Point,146,수목미술교습소,126.9877635,37.496656
37.4961099,127.0137474,,Point,147,서초실용음악학원,127.0137474,37.4961099
37.4933593,126.9889501,,Point,148,생각하는그린나무미술교습소,126.9889501,37.4933593
37.5162716,127.0100772,,Point,149,대림이엔아이피아노교습소,127.0100772,37.5162716
37.4831008,127.0075413,,Point,150,비티비(BTB)아카데미학원,127.0075413,37.4831008
37.5096033,127.0014445,,Point,151,조민정피아노교습소,127.0014445,37.5096033
37.4963742,126.9832776,,Point,152,반포아너스영어학원,126.9832776,37.4963742
37.4888887,127.0100655,,Point,153,다플교육센터통역학원,127.0100655,37.4888887
37.4848696,126.99508,,Point,154,김&김학원,126.99508,37.4848696
37.5021689,127.012073,,Point,155,엠에이에스수학교습소,127.012073,37.5021689
37.483339,127.0090872,,Point,156,이수형수학학원,127.0090872,37.483339
37.4624667,127.0369441,,Point,157,비더블유에스강남와인학원,127.0369441,37.4624667
37.48517,127.0321412,,Point,158,문현선플로리스트학원,127.0321412,37.48517
37.4684233,127.0425653,,Point,159,멜라뷰티학원,127.0425653,37.4684233
37.4904108,127.0207994,,Point,160,서초수학교습소,127.0207994,37.4904108
37.4869602,127.0317788,,Point,161,씨존만화학원,127.0317788,37.4869602
37.5096033,127.0014445,,Point,162,빛과공간미술교습소,127.0014445,37.5096033
37.4922553,127.0259319,,Point,163,최상위하다학원,127.0259319,37.4922553
37.4984044,127.0242235,,Point,164,해커스어학원,127.0242235,37.4984044
37.49463,127.02762,,Point,165,비트교육센터별관학원,127.02762,37.49463
37.4957393,126.9880473,,Point,166,수연미술교습소,126.9880473,37.4957393
37.51503,127.0167676,,Point,167,이스프릿어학학원,127.0167676,37.51503
37.4991414,126.9981571,,Point,168,프렌즈음악학원,126.9981571,37.4991414
37.4731877,127.042301,,Point,169,글로벌수학전문학원,127.042301,37.4731877
37.5017651,127.0111962,,Point,170,서초에이프릴어학원,127.0111962,37.5017651
37.4904901,127.0249371,,Point,171,엘리제음악교습소,127.0249371,37.4904901
32.5220203,123.7417741,,Point,172,맹자희교습소,123.7417741,32.5220203
37.4811843,127.0014497,,Point,173,황미숙교습소,127.0014497,37.4811843
32.5220203,123.7417741,,Point,174,나순천교습소,123.7417741,32.5220203
37.5068525,126.9968778,,Point,175,박진우교습소,126.9968778,37.5068525
37.5068525,126.9968778,,Point,176,강정옥교습소,126.9968778,37.5068525
37.51004,127.0115847,,Point,177,전희정교습소,127.0115847,37.51004
37.51004,127.0115847,,Point,178,임은순교습소,127.0115847,37.51004
37.51004,127.0115847,,Point,179,박스란교습소,127.0115847,37.51004
37.51004,127.0115847,,Point,180,김경자교습소,127.0115847,37.51004
37.4836506,126.9937168,,Point,181,강정자피아노,126.9937168,37.4836506
37.5197943,127.0143407,,Point,182,한국속성한문교습소,127.0143407,37.5197943
37.506106,127.0034252,,Point,183,아이캔스피치&리더십센터교습소,127.0034252,37.506106
37.4749978,127.0322158,,Point,184,덕암한문교습소,127.0322158,37.4749978
37.4780193,127.0065231,,Point,185,방배발레아카데미무용교습소,127.0065231,37.4780193
37.4787254,126.9856989,,Point,186,피아노친구피아노교습소,126.9856989,37.4787254
37.4869473,126.9861984,,Point,187,두란노서예교습소,126.9861984,37.4869473
37.4862484,126.9961583,,Point,188,명진피아노,126.9961583,37.4862484
37.4961119,127.0194018,,Point,189,강남알프레드피아노교습소,127.0194018,37.4961119
32.5220203,123.7417741,,Point,190,방배피아노,123.7417741,32.5220203
37.478619,126.9838009,,Point,191,클라비어피아노교습소,126.9838009,37.478619
37.4922553,127.0259319,,Point,192,연세영어교습소,127.0259319,37.4922553
37.5021451,126.9869203,,Point,193,비하우스바이올린교습,126.9869203,37.5021451
37.5021451,126.9869203,,Point,194,비하우스첼로교습소,126.9869203,37.5021451
37.4694662,127.0445078,,Point,195,새세잔미술교습소,127.0445078,37.4694662
37.5178575,127.0154635,,Point,196,설악피아노교습소,127.0154635,37.5178575
37.4895974,126.9831773,,Point,197,아마빌레플러스음악교습소,126.9831773,37.4895974
37.4793641,127.0417021,,Point,198,신나는이화미술교습소,127.0417021,37.4793641
37.4832905,126.9863721,,Point,199,신영피아노교습소,126.9863721,37.4832905
37.5019783,127.0227407,,Point,200,피아노쥬이르음악교습소,127.0227407,37.5019783
37.473499,127.0440268,,Point,201,바로크음악교습소,127.0440268,37.473499
37.492248,126.9854482,,Point,202,하이러브음악교습소,126.9854482,37.492248
37.5162716,127.0100772,,Point,203,피아노스토리음악교습소,127.0100772,37.5162716
37.4807444,127.0091328,,Point,204,우수피아노교습소,127.0091328,37.4807444
37.4709444,127.0247163,,Point,205,우암바이올린교습소,127.0247163,37.4709444
37.4792074,126.9851723,,Point,206,조이풀음악교습소,126.9851723,37.4792074
37.4999252,127.0174633,,Point,208,이화음악교습소,127.0174633,37.4999252
37.4992716,127.0007679,,Point,209,비바체피아노교습소,127.0007679,37.4992716
37.5049688,127.0000133,,Point,210,전민숙피아노,127.0000133,37.5049688
37.4710827,127.0250988,,Point,211,창봉서예교습소,127.0250988,37.4710827
37.483339,127.0090872,,Point,212,글고운서예교습소,127.0090872,37.483339
37.5197943,127.0143407,,Point,213,파가니니바이올린교습소,127.0143407,37.5197943
37.4904901,127.0249371,,Point,214,푸른미술과외교습소,127.0249371,37.4904901
37.4869243,127.0263178,,Point,215,하늘피아노교습소,127.0263178,37.4869243
37.5162349,127.0175436,,Point,216,한겨례서예,127.0175436,37.5162349
37.5021689,127.012073,,Point,217,국악누리교습소,127.012073,37.5021689
37.4957393,126.9880473,,Point,218,향촌서예교습소,126.9880473,37.4957393
37.4823244,126.992457,,Point,219,뮤직앤스토리음악교습소,126.992457,37.4823244
37.4930845,126.9915887,,Point,220,반디과학전문학원,126.9915887,37.4930845
37.4910536,127.0277116,,Point,221,도레미아카데미음악교습소,127.0277116,37.4910536
37.4910536,127.0277116,,Point,222,도레미음악교습소,127.0277116,37.4910536
37.5011109,126.9871492,,Point,223,멘토2관학원,126.9871492,37.5011109
37.4985349,127.024742,,Point,224,해커스어학원강남제1별관학원,127.024742,37.4985349
37.4780119,126.987608,,Point,225,방배지앤비영어전문학원,126.987608,37.4780119
37.5002071,127.0102102,,Point,226,엘리트서초어학원,127.0102102,37.5002071
37.5021451,126.9869203,,Point,227,세명학원,126.9869203,37.5021451
37.5004886,127.0137011,,Point,228,그림마을미술교습소,127.0137011,37.5004886
37.4913556,126.9948913,,Point,229,방배에이프릴어학원,126.9948913,37.4913556
37.4913556,126.9948913,,Point,230,(주)방배청담어학원,126.9948913,37.4913556
37.496656,126.9877635,,Point,231,서래나무스즈키음악교습소,126.9877635,37.496656
37.4780508,126.9995807,,Point,232,웰라잉글리쉬영어교습소,126.9995807,37.4780508
37.5066358,127.0139482,,Point,233,반포친우음악교습소,127.0139482,37.5066358
37.4869699,127.0307723,,Point,234,근육학아카데미학원,127.0307723,37.4869699
37.4811214,126.9982734,,Point,235,이지스아카데미학원,126.9982734,37.4811214
37.5049688,127.0000133,,Point,236,한자365한문교습소,127.0000133,37.5049688
37.506106,127.0034252,,Point,237,양재우사회교습소,127.0034252,37.506106
37.4876674,127.0116421,,Point,238,호스코아카데미학원,127.0116421,37.4876674
37.4718519,127.0265924,,Point,239,신애음악학원,127.0265924,37.4718519
37.4865225,126.9870974,,Point,240,예음피아노교습소,126.9870974,37.4865225
37.5067454,127.0055318,,Point,241,와룡국어교습소,127.0055318,37.5067454
37.5155464,127.0171001,,Point,242,본스타트레이닝센터학원,127.0171001,37.5155464
37.4917141,126.991494,,Point,243,하이츠방배캠퍼스학원,126.991494,37.4917141
37.5010544,127.0243361,,Point,244,해커스어학원강남제6별관학원,127.0243361,37.5010544
37.4826442,126.9972242,,Point,245,심앤김국수시대학원,126.9972242,37.4826442
37.4922553,127.0259319,,Point,246,청어람국어교습소,127.0259319,37.4922553
37.4870263,126.9828163,,Point,247,베블렌수학학원,126.9828163,37.4870263
37.4840446,127.0126509,,Point,248,한국공급관리교육학원,127.0126509,37.4840446
37.4922553,127.0259319,,Point,249,동암한문교습소,127.0259319,37.4922553
37.4877162,126.9928708,,Point,250,시그마2수학학원,126.9928708,37.4877162
37.4911468,127.0248042,,Point,252,지니클리닉영어교습소,127.0248042,37.4911468
37.5000631,127.0113091,,Point,253,비아이에스어학원,127.0113091,37.5000631
37.5087922,127.0035592,,Point,254,잠원예랑미술학원,127.0035592,37.5087922
37.4831008,127.0075413,,Point,255,시매쓰학원,127.0075413,37.4831008
37.5039297,126.9901309,,Point,256,반포연세피아노교습소,126.9901309,37.5039297
37.4947733,126.9888745,,Point,257,역사사고력논술교습소,126.9888745,37.4947733
37.5033426,127.0101914,,Point,258,서초소마학원,127.0101914,37.5033426
37.5072738,127.0072892,,Point,259,이룸수학교습소,127.0072892,37.5072738
37.4733764,127.044458,,Point,260,클라라슈만음악학원,127.044458,37.4733764
37.4997174,127.0109178,,Point,261,가인학원,127.0109178,37.4997174
37.4942678,127.0186909,,Point,263,씨지앤아이(CGNI)게임그래픽학원,127.0186909,37.4942678
37.4907625,126.9835007,,Point,264,비와이피(BYP)보습학원,126.9835007,37.4907625
37.4898162,127.0121453,,Point,265,아름재즈피아노교습소,127.0121453,37.4898162
37.5036657,127.0100401,,Point,266,플래뮤서초미술학원,127.0100401,37.5036657
37.4975317,126.9911218,,Point,267,지브이씨에스랭귀지프렙어학원,126.9911218,37.4975317
37.4708599,127.0253957,,Point,268,엠케이영어교습소,127.0253957,37.4708599
37.4901263,127.0212667,,Point,269,게이트서초어학학원,127.0212667,37.4901263
37.4866365,127.0285717,,Point,270,토브국어교습소,127.0285717,37.4866365
37.4997737,126.9983523,,Point,271,김수희과학보습학원,126.9983523,37.4997737
37.4963742,126.9832776,,Point,272,강신백국어보습학원,126.9832776,37.4963742
37.5004794,127.0104441,,Point,273,프리셀영어학원,127.0104441,37.5004794
37.4943854,127.0198315,,Point,274,아이파재경교육학원,127.0198315,37.4943854
37.5035548,127.0097136,,Point,275,메이저수학학원,127.0097136,37.5035548
37.5000631,127.0113091,,Point,276,피아이서초어학원,127.0113091,37.5000631
37.5021819,127.0103877,,Point,278,탐구와은유학원,127.0103877,37.5021819
37.4917331,127.024887,,Point,279,뜰아트미술교습소,127.024887,37.4917331
37.4929899,127.028693,,Point,280,이튼교육강남독학재수학원,127.028693,37.4929899
37.5057261,127.0021861,,Point,281,반포해냄학원,127.0021861,37.5057261
37.4769361,126.9871929,,Point,282,앙상블음악교습소,126.9871929,37.4769361
37.4695497,127.0448006,,Point,283,이루트학원,127.0448006,37.4695497
37.5096033,127.0014445,,Point,284,클라라피아노스튜디오교습소,127.0014445,37.5096033
37.5021689,127.012073,,Point,285,고트수학교습소,127.012073,37.5021689
37.4932608,126.9921857,,Point,286,킹스타운서초어학원,126.9921857,37.4932608
37.5010511,127.0087853,,Point,287,사비나아트미술교습소,127.0087853,37.5010511
37.4985613,127.0257595,,Point,288,해커스어학원강남제3별관학원,127.0257595,37.4985613
37.4999252,127.0174633,,Point,289,아트피디어미술교습소,127.0174633,37.4999252
37.4865225,126.9870974,,Point,290,방배해법영어교습소,126.9870974,37.4865225
37.5008109,127.0102248,,Point,291,알앤디잉글리쉬(R&D English)학원,127.0102248,37.5008109
37.4828591,126.997063,,Point,292,아세아실용음악학원,126.997063,37.4828591
37.5027778,127.0105381,,Point,293,노정현수학반포본원학원,127.0105381,37.5027778
37.4840877,126.9963681,,Point,294,제이플로리스트학원,126.9963681,37.4840877
37.518531,127.0130338,,Point,295,튜티음악교습소,127.0130338,37.518531
37.506106,127.0034252,,Point,296,와일본어교육원일본어교습소,127.0034252,37.506106
37.5087922,127.0035592,,Point,297,리드101잠원반원학원,127.0035592,37.5087922
37.498479,127.0190881,,Point,298,허은주국어교습소,127.0190881,37.498479
37.4876108,126.9858162,,Point,299,엠플러스수학학원,126.9858162,37.4876108
37.5010571,127.0116466,,Point,300,서초1관정상어학원,127.0116466,37.5010571
37.4999252,127.0174633,,Point,301,서초심슨학원,127.0174633,37.4999252
37.4831661,126.9823825,,Point,302,서순영국어논술학원,126.9823825,37.4831661
37.5071155,127.0098927,,Point,303,블루북스리딩학원,127.0098927,37.5071155
37.4932005,126.9882964,,Point,304,노리터(Noriter)잉글리시영어교습소,126.9882964,37.4932005
37.4851764,126.996184,,Point,306,성음피아노교습소,126.996184,37.4851764
37.48312,127.0098364,,Point,307,열린생각서초수학교습소,127.0098364,37.48312
37.4903009,126.99166,,Point,308,세린(S.E.C)어학원,126.99166,37.4903009
37.479156,126.9854783,,Point,309,에이치씨엠에스학원,126.9854783,37.479156
37.4886996,126.9940788,,Point,310,아레네스(R&S)수학전문학원,126.9940788,37.4886996
37.5072738,127.0072892,,Point,311,에프엑스(f(x))수학학원,127.0072892,37.5072738
37.4922553,127.0259319,,Point,312,선바이올린교습소,127.0259319,37.4922553
37.4713223,127.0235582,,Point,313,예랑미술학원,127.0235582,37.4713223
37.4841804,126.9956206,,Point,314,대한논리방배학원,126.9956206,37.4841804
37.4925979,126.9894806,,Point,315,멘토수학전문교습소,126.9894806,37.4925979
37.4906957,126.9830606,,Point,316,지승학원,126.9830606,37.4906957
37.4721856,127.0454002,,Point,317,에이플영어학원,127.0454002,37.4721856
37.4875713,127.0087712,,Point,318,튼튼영어서초3동마스터클럽영어교습소,127.0087712,37.4875713
37.4831246,126.9954312,,Point,319,솔기타교습소,126.9954312,37.4831246
37.5010005,127.0102675,,Point,320,잉글리쉬부띠끄어학원,127.0102675,37.5010005
37.4963732,127.0150671,,Point,321,문사탐학원,127.0150671,37.4963732
37.4823517,127.0052559,,Point,322,이지솔루션학원,127.0052559,37.4823517
37.4772981,127.0000656,,Point,323,선과색미술교습소,127.0000656,37.4772981
37.4953816,126.9894204,,Point,324,아이엘음악학원,126.9894204,37.4953816
37.4823546,127.0393573,,Point,325,예향피아노교습소,127.0393573,37.4823546
37.4835579,126.9965901,,Point,326,수아체학원,126.9965901,37.4835579
37.4832519,127.0083647,,Point,327,케이디(KD)영어전문학원,127.0083647,37.4832519
37.5057261,127.0021861,,Point,328,펜타스과학전문학원,127.0021861,37.5057261
37.4801896,126.9851703,,Point,329,뮤직스트리트음악교습소,126.9851703,37.4801896
37.5003622,127.0104456,,Point,330,뮤니크피아노교습소,127.0104456,37.5003622
37.5032751,127.009672,,Point,331,이이엘씨(eelc)킨더어학원,127.009672,37.5032751
37.4999252,127.0174633,,Point,332,피아노사랑음악교습소,127.0174633,37.4999252
37.4999252,127.0174633,,Point,333,선생님따라잡기학원,127.0174633,37.4999252
37.5021451,126.9869203,,Point,334,훈수학교습소,126.9869203,37.5021451
37.5041184,126.9921868,,Point,335,제네시스수학학원,126.9921868,37.5041184
37.4999252,127.0174633,,Point,336,서초연세피아노교습소,127.0174633,37.4999252
37.501196,127.020749,,Point,337,서초삼호해법수학교습소,127.020749,37.501196
37.5161808,127.0186302,,Point,338,티아이연기학원,127.0186302,37.5161808
37.4818384,126.9978229,,Point,339,천년의미소미술학원,126.9978229,37.4818384
37.5015015,127.0217403,,Point,340,튼튼영어마스터클럽이상수학학원,127.0217403,37.5015015
37.4851435,127.0333061,,Point,341,비너세움아카데미학원,127.0333061,37.4851435
37.51503,127.0167676,,Point,342,존앤섹션아카데미코리아학원,127.0167676,37.51503
37.5072738,127.0072892,,Point,343,반포비전매쓰학원,127.0072892,37.5072738
37.5144095,127.0115158,,Point,344,이탑수학교습소,127.0115158,37.5144095
37.4795933,126.999775,,Point,345,빅토리아잉글리쉬영어교습소,126.999775,37.4795933
37.4877641,127.026533,,Point,346,이에스엘(E.S.L)영어학원,127.026533,37.4877641
37.5059333,127.0011202,,Point,347,권박사학원,127.0011202,37.5059333
37.491726,126.9834198,,Point,348,김쌤최강영어교습소,126.9834198,37.491726
37.4922553,127.0259319,,Point,349,아렌디독서논술교습소,127.0259319,37.4922553
37.5043898,127.0008014,,Point,350,전원주니어미술학원,127.0008014,37.5043898
37.4932828,127.0172563,,Point,351,알타이탈리아어학원,127.0172563,37.4932828
37.473499,127.0440268,,Point,352,스카이엠(SKYM)수학학원,127.0440268,37.473499
37.4829188,127.0041177,,Point,353,서연고학원,127.0041177,37.4829188
37.4861931,126.9949492,,Point,354,가람하지혜언어전문학원,126.9949492,37.4861931
37.4920473,127.0149656,,Point,355,사파사진학원,127.0149656,37.4920473
37.5144095,127.0115158,,Point,356,엘림영어교습소,127.0115158,37.5144095
37.4750098,126.9821765,,Point,357,잼실용음악학원,126.9821765,37.4750098
37.4999252,127.0174633,,Point,358,맨투스명성학원,127.0174633,37.4999252
37.4803025,126.993106,,Point,359,한국발레하우스무용학원,126.993106,37.4803025
37.4886653,127.0276521,,Point,360,놀이공작실미술교습소,127.0276521,37.4886653
37.49216,127.0252999,,Point,361,미술로생각하기학원,127.0252999,37.49216
37.4850938,126.9949526,,Point,362,눈높이러닝센터방배제1보습학원,126.9949526,37.4850938
37.4724454,127.0474431,,Point,363,이지엠학원,127.0474431,37.4724454
37.4890743,127.0139417,,Point,364,엔조이씨지(Enjoy CG)학원,127.0139417,37.4890743
37.4999252,127.0174633,,Point,365,생각하는힘수학교습소,127.0174633,37.4999252
37.4720857,127.0464189,,Point,366,루이독서논술교습소,127.0464189,37.4720857
37.4698325,127.0441187,,Point,367,능률주니어랩학원,127.0441187,37.4698325
37.4772981,127.0000656,,Point,368,이강토혁신수학교습소,127.0000656,37.4772981
37.4942918,126.9831702,,Point,369,한올국어논술학원,126.9831702,37.4942918
37.4473228,127.0562945,,Point,370,미소꽃예술학원,127.0562945,37.4473228
37.5002071,127.0102102,,Point,371,토토빌놀이학원,127.0102102,37.5002071
37.4850884,126.9943195,,Point,372,뮤직필리아음악학원,126.9943195,37.4850884
37.5154139,127.0141834,,Point,373,수해법수학교습소,127.0141834,37.5154139
37.4970845,127.0236865,,Point,374,윈첼영어교습소,127.0236865,37.4970845
37.4843233,127.0398975,,Point,375,케이원건축학원,127.0398975,37.4843233
37.4915966,126.9830484,,Point,376,뮤직시티실용음악학원,126.9830484,37.4915966
37.4863198,127.029503,,Point,377,정수학교습소,127.029503,37.4863198
37.498479,127.0190881,,Point,378,엠지수학교습소,127.0190881,37.498479
37.4985529,127.0095874,,Point,379,쎄컨투넌영어교습소,127.0095874,37.4985529
37.4812574,126.9994362,,Point,380,한국전통주교육학원,126.9994362,37.4812574
37.4935367,127.0174565,,Point,381,(주)누리마루학원,127.0174565,37.4935367
37.4852649,127.030523,,Point,382,양재어썸기타학원,127.030523,37.4852649
37.5067454,127.0055318,,Point,383,시대인재반포센터수학스쿨별관학원,127.0055318,37.5067454
37.4925979,126.9894806,,Point,384,브리꼴라주미술교습소,126.9894806,37.4925979
37.506106,127.0034252,,Point,385,홍소랑영어교습소,127.0034252,37.506106
37.5097621,127.0214968,,Point,386,한국예술뷰티아카데미학원,127.0214968,37.5097621
37.5067454,127.0055318,,Point,387,반포새움학원,127.0055318,37.5067454
37.4951394,127.0140655,,Point,388,윤선생영어숲반포학원,127.0140655,37.4951394
37.4953816,126.9894204,,Point,389,애너하임영어교습소,126.9894204,37.4953816
37.4946785,127.0128276,,Point,390,엔알부동산아카데미학원,127.0128276,37.4946785
37.4819463,127.0160253,,Point,391,비씨컬리지잇서초어학원,127.0160253,37.4819463
37.4972794,126.983763,,Point,392,씨엠에스서초제2본원학원,126.983763,37.4972794
37.4831874,127.008196,,Point,393,피아이에프(PIF)서초관영어학원,127.008196,37.4831874
37.4830412,126.9962238,,Point,394,위즈무용학원,126.9962238,37.4830412
37.500014,127.0260121,,Point,395,에이스요리학원,127.0260121,37.500014
37.479225,126.984064,,Point,396,알파수학교습소,126.984064,37.479225
37.4933964,127.0168364,,Point,397,미키어학원,127.0168364,37.4933964
37.5029711,127.0120964,,Point,398,페디아플러스서초학원,127.0120964,37.5029711
37.4997174,127.0109178,,Point,399,바른입시가인학원,127.0109178,37.4997174
37.5029711,127.0120964,,Point,400,서울리체피아노교습소,127.0120964,37.5029711
37.4936329,127.0214472,,Point,401,정앤정잉글리쉬클럽영어교습소,127.0214472,37.4936329
37.4747623,127.0320719,,Point,402,이해법양재우성점수학교습소,127.0320719,37.4747623
37.5025316,127.0101908,,Point,403,제이비잉글리쉬영어교습소,127.0101908,37.5025316
37.4984294,127.0239744,,Point,404,아이비(IVY)독서실,127.0239744,37.4984294
37.5059333,127.0011202,,Point,405,반포지니엠국어학원,127.0011202,37.5059333
37.4880017,127.012825,,Point,406,경사모경매학원,127.012825,37.4880017
37.5100761,127.0202372,,Point,407,실버베리토탈악세서리학원,127.0202372,37.5100761
37.4886653,127.0276521,,Point,408,이주미영어교습소,127.0276521,37.4886653
37.496656,126.9877635,,Point,409,기타빌리지기타교습소,126.9877635,37.496656
37.4801296,127.0416584,,Point,410,유디간호학원,127.0416584,37.4801296
37.4781302,126.9887935,,Point,411,로고스영수전문학원,126.9887935,37.4781302
37.4865803,126.9885892,,Point,412,에스비에스(SBS)방송아카데미문화예술원 서초캠퍼스학원,126.9885892,37.4865803
37.4786679,126.9821608,,Point,413,모던케이실용음악학원,126.9821608,37.4786679
37.4772981,127.0000656,,Point,414,와이제이클라식(YJKlassik)피아노교습소,127.0000656,37.4772981
37.4715837,127.0500995,,Point,415,아트앤디자인미술교습소,127.0500995,37.4715837
37.5010265,127.0112172,,Point,416,리얼수학학원,127.0112172,37.5010265
37.4855181,126.9855618,,Point,417,오드실용음악아카데미학원,126.9855618,37.4855181
37.480482,127.0384429,,Point,418,노노스창업교육학원,127.0384429,37.480482
37.4804075,126.9822277,,Point,419,아트피아연기학원,126.9822277,37.4804075
37.5030941,126.9956953,,Point,420,빛미술교습소,126.9956953,37.5030941
37.4922553,127.0259319,,Point,421,아트포마인드미술교습소,127.0259319,37.4922553
37.4860355,126.9965569,,Point,422,아트슈에뜨화실(artchouette)미술교습소,126.9965569,37.4860355
37.5096033,127.0014445,,Point,423,서초잠원이(e)해법수학교습소,127.0014445,37.5096033
37.4824689,127.0041915,,Point,424,투탑과학수학전문학원,127.0041915,37.4824689
37.4797321,126.9991399,,Point,425,박상준영어교습소,126.9991399,37.4797321
37.4957393,126.9880473,,Point,426,뮤즈음악학원,126.9880473,37.4957393
37.4823071,127.0042389,,Point,427,수아체2관학원,127.0042389,37.4823071
37.5029711,127.0120964,,Point,428,천지수학교습소,127.0120964,37.5029711
37.5004858,127.011213,,Point,429,서초덕스어학원,127.011213,37.5004858
37.5096033,127.0014445,,Point,430,첼로이야기음악교습소,127.0014445,37.5096033
37.5071155,127.0098927,,Point,431,코렉트영어학원,127.0098927,37.5071155
37.5030941,126.9956953,,Point,432,리드101영어학원,126.9956953,37.5030941
37.4942041,126.9865979,,Point,433,하모니음악학원,126.9865979,37.4942041
37.500014,127.0260121,,Point,434,드림보컬실용음악학원,127.0260121,37.500014
37.4987763,127.0267067,,Point,435,우지은더블유(W)스피치학원,127.0267067,37.4987763
37.4922553,127.0259319,,Point,436,참수학교습소,127.0259319,37.4922553
37.5029817,127.0101396,,Point,437,엘에스에이에듀어학원,127.0101396,37.5029817
37.5017651,127.0111962,,Point,438,배쓰그만창의미술학원,127.0111962,37.5017651
37.496656,126.9877635,,Point,439,샵(#)음악교습소,126.9877635,37.496656
37.4981942,126.9864195,,Point,440,빅토리입시LAB진학상담지도학원,126.9864195,37.4981942
37.4938518,126.9854378,,Point,441,조엘피아노음악학원,126.9854378,37.4938518
37.4746702,127.0329323,,Point,442,최상위해법영어수학의달인학원,127.0329323,37.4746702
37.4931021,127.0150422,,Point,443,논변과소통논술교습소,127.0150422,37.4931021
37.4808583,126.9822555,,Point,444,오라클자바교육학원,126.9822555,37.4808583
37.4977069,126.9979501,,Point,445,서래에꼴드뮤직학원,126.9979501,37.4977069
37.5021181,127.0113838,,Point,446,수학에미친사람들반포관학원,127.0113838,37.5021181
37.5004858,127.011213,,Point,447,서율학원,127.011213,37.5004858
37.473499,127.0440268,,Point,448,더베스트영어교습소,127.0440268,37.473499
37.5152647,127.0146492,,Point,449,조은수학학원,127.0146492,37.5152647
37.4865911,126.987741,,Point,450,자라나는미술교습소,126.987741,37.4865911
37.5071155,127.0098927,,Point,451,연세자이음악교습소,127.0098927,37.5071155
37.506106,127.0034252,,Point,452,이화성악교습소,127.0034252,37.506106
37.4966695,127.0138644,,Point,453,플랜팅아트(planting Art)학원,127.0138644,37.4966695
37.4939546,126.990073,,Point,454,웅진씽크빅학습센터방배학원,126.990073,37.4939546
37.5133984,127.0091311,,Point,455,에이치엠에이(HMA)수학전문학원,127.0091311,37.5133984
37.5021451,126.9869203,,Point,456,디엑스수학시즌투학원,126.9869203,37.5021451
37.4708599,127.0253957,,Point,457,임현미술교습소,127.0253957,37.4708599
37.5161808,127.0186302,,Point,458,그룹티아이연기학원,127.0186302,37.5161808
37.4747623,127.0320719,,Point,459,바니아트미술교습소,127.0320719,37.4747623
37.5072738,127.0072892,,Point,460,샤크에듀학원,127.0072892,37.5072738
37.4964367,127.0140371,,Point,461,국어신국어교습소,127.0140371,37.4964367
37.4843337,126.991401,,Point,462,멘토수학학원,126.991401,37.4843337
37.489535,127.0194991,,Point,463,(사)공동체사회포럼러닝컴학원,127.0194991,37.489535
37.4922553,127.0259319,,Point,464,리만영재수학교습소,127.0259319,37.4922553
37.5074515,127.008056,,Point,465,네오스터디학원,127.008056,37.5074515
37.4956234,126.9892362,,Point,466,서초이엠영어교습소,126.9892362,37.4956234
37.4743587,127.0311952,,Point,467,마음그림미술교습소,127.0311952,37.4743587
37.4948867,126.989495,,Point,468,제이에이치에스(JHS)영재교육학원,126.989495,37.4948867
37.498893,127.025563,,Point,469,해커스어학원강남제2별관학원,127.025563,37.498893
37.4910005,126.9849788,,Point,470,생각의힘수학학원,126.9849788,37.4910005
37.498479,127.0190881,,Point,471,서초이화성악교습소,127.0190881,37.498479
37.4802963,127.0433184,,Point,472,오영주프랑스발레바오솔학원,127.0433184,37.4802963
37.5012907,127.0115643,,Point,473,바른영어교습소,127.0115643,37.5012907
37.4951846,126.9874554,,Point,474,윤선생우리집앞영어교실서래영어교습소,126.9874554,37.4951846
37.4881903,127.0159887,,Point,475,클랩어학원,127.0159887,37.4881903
37.4856871,127.0216186,,Point,476,루키업스마트해법학원,127.0216186,37.4856871
37.5011109,126.9871492,,Point,477,이룸(e)학원,126.9871492,37.5011109
37.4951286,126.9893334,,Point,478,삼성영어방배직영학원,126.9893334,37.4951286
37.4801712,126.9946115,,Point,479,한국광속독교습소,126.9946115,37.4801712
37.5071155,127.0098927,,Point,480,자이키즈창작미술교습소,127.0098927,37.5071155
37.4788328,126.9845668,,Point,481,크레용미술교습소,126.9845668,37.4788328
37.4948006,127.0144997,,Point,482,인투(in2)학원,127.0144997,37.4948006
37.4858021,127.0126956,,Point,483,유스발레컨서바토리학원,127.0126956,37.4858021
37.4865384,126.9889629,,Point,484,토커스학원,126.9889629,37.4865384
37.5072738,127.0072892,,Point,485,해신수학교습소,127.0072892,37.5072738
37.4922553,127.0259319,,Point,486,민석사영어교습소,127.0259319,37.4922553
37.4922553,127.0259319,,Point,487,더블유매쓰(W-math)수학교습소,127.0259319,37.4922553
37.4716092,127.0398792,,Point,488,지메스학원,127.0398792,37.4716092
37.4843395,126.9963195,,Point,489,삼성영어방배제2직영학원,126.9963195,37.4843395
37.4827436,127.0057821,,Point,490,이메스터어학원,127.0057821,37.4827436
37.4860992,127.0191596,,Point,491,메가스터디원격학원,127.0191596,37.4860992
37.4860992,127.0191596,,Point,492,엠베스트원격학원,127.0191596,37.4860992
37.4943926,127.0131141,,Point,493,강남부동산아카데미학원,127.0131141,37.4943926
37.506106,127.0034252,,Point,494,정성배국어교습소,127.0034252,37.506106
37.4903721,127.0139811,,Point,495,달에서온토끼학원,127.0139811,37.4903721
37.5057261,127.0021861,,Point,497,피피에스(PPS)수학교습소,127.0021861,37.5057261
37.5012004,127.0104685,,Point,498,에듀플렉스에듀코치개별지도서초학원,127.0104685,37.5012004
37.479225,126.984064,,Point,499,유카리일본어교습소,126.984064,37.479225
37.4911857,127.0089157,,Point,500,서초커피엠비에이아카데미학원,127.0089157,37.4911857
37.506106,127.0034252,,Point,501,은성영어교습소,127.0034252,37.506106
37.4999252,127.0174633,,Point,502,샤갈의꿈미술교습소,127.0174633,37.4999252
37.5057261,127.0021861,,Point,503,창창중국어교습소,127.0021861,37.5057261
37.5040914,127.0222042,,Point,504,데브기어교육학원,127.0222042,37.5040914
37.5146059,127.0188545,,Point,505,애플공인교육센터MFK학원,127.0188545,37.5146059
37.4977479,126.9858601,,Point,506,애프엘씨(FLC)영어교습소,126.9858601,37.4977479
37.4864095,127.0077576,,Point,507,넘버원헤어아카데미학원,127.0077576,37.4864095
37.4895644,126.9919413,,Point,508,디지털대성원격학원,126.9919413,37.4895644
37.4961119,127.0194018,,Point,509,이튼하우스수학교습소,127.0194018,37.4961119
37.4836721,127.0220294,,Point,510,펀액터스화술학원,127.0220294,37.4836721
37.4639903,127.0249649,,Point,511,로뎀나무음악학원,127.0249649,37.4639903
37.4617505,127.0232419,,Point,512,우면한우리독서토론논술교습소,127.0232419,37.4617505
37.4770473,126.9843988,,Point,513,아트인게임아트(Art in GameArt)학원,126.9843988,37.4770473
37.4868974,127.0154629,,Point,514,경선식에듀원격학원,127.0154629,37.4868974
37.4985613,127.0257595,,Point,515,해커스공인중개사주택관리사학원,127.0257595,37.4985613
37.4793736,127.0057703,,Point,517,일월안전교육학원,127.0057703,37.4793736
37.5096033,127.0014445,,Point,518,백현우과학전문학원,127.0014445,37.5096033
37.5115605,127.0188717,,Point,519,(주)씨에이치비학원,127.0188717,37.5115605
37.4933092,126.9831156,,Point,520,윤영숙수학전문3관학원,126.9831156,37.4933092
37.5021451,126.9869203,,Point,521,아이엠수학학원,126.9869203,37.5021451
37.5004773,127.0101953,,Point,522,반포스피커스(Banpospeakers)학원,127.0101953,37.5004773
37.5074515,127.008056,,Point,523,반포대학나무학원,127.008056,37.5074515
37.5162716,127.0100772,,Point,524,해법한신영어교습소,127.0100772,37.5162716
37.4932005,126.9882964,,Point,525,엠앤에스(M&S)수학교습소,126.9882964,37.4932005
37.4823343,127.0368701,,Point,526,수학의정석원격학원,127.0368701,37.4823343
37.4922553,127.0259319,,Point,527,윤선생우리집앞서이?서초영어교습소,127.0259319,37.4922553
37.4636048,127.0262924,,Point,529,네이처힐음악학원,127.0262924,37.4636048
37.5030941,126.9956953,,Point,530,관인뮤직트리음악학원,126.9956953,37.5030941
37.5082166,127.0036799,,Point,531,블루스카이수학학원,127.0036799,37.5082166
37.5154139,127.0141834,,Point,532,송은희클라리넷교습소,127.0141834,37.5154139
37.4930614,127.0090945,,Point,533,한국스마트속기학원,127.0090945,37.4930614
37.464536,127.0255795,,Point,534,한양플러스음악학원,127.0255795,37.464536
37.4874986,126.9832509,,Point,535,아이리스(IRIS)영어전문학원,126.9832509,37.4874986
37.4838516,127.0208511,,Point,536,스터디코드원격학원,127.0208511,37.4838516
37.4655132,127.0217007,,Point,537,도무스링구아학원,127.0217007,37.4655132
37.496656,126.9877635,,Point,538,숲을보는수학교습소,126.9877635,37.496656
37.4864366,126.9970943,,Point,539,스케치북미술교습소,126.9970943,37.4864366
37.4798539,127.0061031,,Point,540,알탐과학교습소,127.0061031,37.4798539
37.4636048,127.0262924,,Point,541,에이치비아카데미학원,127.0262924,37.4636048
37.4978056,126.9947144,,Point,542,리틀러너스어학원,126.9947144,37.4978056
37.5066358,127.0139482,,Point,543,에스피(SP)수학학원,127.0139482,37.5066358
37.5018138,127.0246315,,Point,544,올댓뷰티아카데미미용학원,127.0246315,37.5018138
37.4913667,126.9919623,,Point,545,아트리미술교습소,126.9919623,37.4913667
37.4811214,126.9982734,,Point,546,서초예일영어교습소,126.9982734,37.4811214
37.5043898,127.0008014,,Point,547,반포해오름수학교습소,127.0008014,37.5043898
37.4941843,127.0282025,,Point,548,렉시스코리아학원,127.0282025,37.4941843
37.4796886,127.0057322,,Point,549,한우리서초남독서논술학원,127.0057322,37.4796886
37.4685705,127.0462827,,Point,550,서울국제크리스천아카데미(SICA)학원,127.0462827,37.4685705
37.4835512,127.0402466,,Point,551,매지클학원,127.0402466,37.4835512
37.4877192,126.9848084,,Point,552,뮤직아카데미물댄동산음악학원,126.9848084,37.4877192
37.4782404,126.993258,,Point,553,이젠오즈수학교습소,126.993258,37.4782404
37.5012907,127.0115643,,Point,554,생각나무로봇교습소,127.0115643,37.5012907
37.4935605,126.989298,,Point,555,맑은숲국어논술전문학원,126.989298,37.4935605
37.5013137,127.011089,,Point,556,움뮤직센터음악학원,127.011089,37.5013137
37.4871813,127.0290848,,Point,557,천사아틀리에미술학원,127.0290848,37.4871813
37.5074515,127.008056,,Point,558,필리아사회탐구학원,127.008056,37.5074515
37.4964367,127.0140371,,Point,559,최상위영수학원,127.0140371,37.4964367
37.4714695,127.0448779,,Point,560,윤선생우리집앞영어ENI영어교습소,127.0448779,37.4714695
37.4972794,126.983763,,Point,561,씨엠에스반포학원,126.983763,37.4972794
37.4857736,127.0310252,,Point,562,와이케이수리논술교습소,127.0310252,37.4857736
37.5014589,126.9888522,,Point,563,마쌤영어보습학원,126.9888522,37.5014589
37.4897081,127.019723,,Point,564,지지경매교육학원,127.019723,37.4897081
37.5018941,127.0104593,,Point,565,키즈닥터창의성영재학원,127.0104593,37.5018941
37.5019467,127.0102777,,Point,566,피엔케이수학원,127.0102777,37.5019467
37.5088592,127.0180135,,Point,567,아트비미술교습소,127.0180135,37.5088592
37.4941843,127.0282025,,Point,568,리더스경공매학원,127.0282025,37.4941843
37.4945167,127.0204518,,Point,569,인바스켓학원,127.0204518,37.4945167
37.5057261,127.0021861,,Point,570,하연영재과학교습소,127.0021861,37.5057261
37.5023088,127.0104765,,Point,571,케이앤(KN)영어학원,127.0104765,37.5023088
37.4951846,126.9874554,,Point,572,맨해튼랩프라임영어교습소,126.9874554,37.4951846
37.4989324,127.0097068,,Point,573,파츠앤팬스학원,127.0097068,37.4989324
37.4961094,126.9997583,,Point,574,꼭시넬그림책학원,126.9997583,37.4961094
37.5012907,127.0115643,,Point,575,서초이안어학원,127.0115643,37.5012907
37.4953698,127.0277348,,Point,576,코리아승무원학원,127.0277348,37.4953698
37.4953698,127.0277348,,Point,577,코리아항공운항과학원,127.0277348,37.4953698
37.482197,127.0040029,,Point,578,서준학원미래관학원,127.0040029,37.482197
37.5098504,127.0180232,,Point,579,프랜차이즈아카데미학원,127.0180232,37.5098504
37.4843932,127.0144668,,Point,581,르씨(R.se)무용전문센터학원,127.0144668,37.4843932
37.4843932,127.0144668,,Point,582,르씨(R.se)무용전문학원,127.0144668,37.4843932
37.4801365,127.0391709,,Point,583,아이코어이앤씨학원,127.0391709,37.4801365
37.4845518,127.0303626,,Point,584,픽스웨이브컨셉아트아카데미학원,127.0303626,37.4845518
37.5023513,127.0112563,,Point,585,줄리아발레아카데미학원,127.0112563,37.5023513
37.5094482,127.0205847,,Point,586,배우앤배움아트센터학원,127.0205847,37.5094482
37.4826995,127.0385614,,Point,587,피에스학원,127.0385614,37.4826995
37.501994,127.0246405,,Point,588,이디엠아트미술학원,127.0246405,37.501994
37.5010265,127.0112172,,Point,589,절대수학교습소,127.0112172,37.5010265
37.4584969,127.0220521,,Point,590,뉴칸타빌레음악교습소,127.0220521,37.4584969
37.4584969,127.0220521,,Point,591,우솔해법영어교습소,127.0220521,37.4584969
37.4839844,127.0173102,,Point,592,이루다스피치학원,127.0173102,37.4839844
37.4831726,126.9947183,,Point,593,하이웨이어학원,126.9947183,37.4831726
37.4797808,126.9826884,,Point,594,방배아벨수학전문학원,126.9826884,37.4797808
37.5006883,127.0117193,,Point,595,와이즈만서초학원,127.0117193,37.5006883
37.5162716,127.0100772,,Point,596,제비울학원,127.0100772,37.5162716
37.4942467,127.0139868,,Point,597,수학일치학원,127.0139868,37.4942467
37.4818145,127.0131891,,Point,598,레코드팩토리학원,127.0131891,37.4818145
37.4916746,127.0167345,,Point,599,고도문예창작학원,127.0167345,37.4916746
37.4923319,127.0286675,,Point,600,강남캠벨아카데미어학원,127.0286675,37.4923319
37.4823574,126.9973976,,Point,601,서초씨앤씨미술학원,126.9973976,37.4823574
37.5088017,127.0219391,,Point,602,그리다(Gree.Da)미술교습소,127.0219391,37.5088017
37.4950486,127.0150619,,Point,603,선맹수의튜터링영어교습소,127.0150619,37.4950486
37.4761049,127.0431344,,Point,604,에이브이에이(AVA)사진학원,127.0431344,37.4761049
37.4996417,127.0104777,,Point,605,반포스마트러닝센터학원,127.0104777,37.4996417
37.4836929,126.9955141,,Point,606,오즈액팅연기학원,126.9955141,37.4836929
37.5015015,127.0217403,,Point,607,에이플수학교습소,127.0217403,37.5015015
37.4823517,127.0052559,,Point,608,이티씨(ETC)영어교습소,127.0052559,37.4823517
37.5197943,127.0143407,,Point,609,썬(sun)영어교습소,127.0143407,37.5197943
37.4834076,126.9842675,,Point,610,피아니스트김민정아카데미방배이화음악교습소,126.9842675,37.4834076
37.5037962,127.0105586,,Point,611,창조적소수미술학원,127.0105586,37.5037962
37.5030941,126.9956953,,Point,612,홍익명문미술학원,126.9956953,37.5030941
37.5012004,127.0104685,,Point,613,상상논술교습소,127.0104685,37.5012004
37.5024309,127.0121487,,Point,614,가람과학교습소,127.0121487,37.5024309
37.5030941,126.9956953,,Point,615,수학캠프수학전문학원,126.9956953,37.5030941
37.5002071,127.0102102,,Point,616,청담아이가르텐학원,127.0102102,37.5002071
37.5059333,127.0011202,,Point,617,반포세정2관학원,127.0011202,37.5059333
37.5006883,127.0117193,,Point,618,와이즈만영재입시센터중등학원,127.0117193,37.5006883
37.5072738,127.0072892,,Point,619,프라임수학교습소,127.0072892,37.5072738
37.5096033,127.0014445,,Point,620,민정아트미술교습소,127.0014445,37.5096033
37.496656,126.9877635,,Point,621,서래한우리독서논술교습소,126.9877635,37.496656
37.5057261,127.0021861,,Point,622,에스엔케이영어교습소,127.0021861,37.5057261
37.4999252,127.0174633,,Point,623,도르레아트창작소미술학원,127.0174633,37.4999252
37.464536,127.0255795,,Point,624,다비오학원,127.0255795,37.464536
37.4887458,127.0102144,,Point,625,플로아트 플로리스트 아카데미학원,127.0102144,37.4887458
37.4787698,127.0406356,,Point,626,디쿨그레이학원,127.0406356,37.4787698
37.4833353,126.9968983,,Point,628,라임매쓰(Lime Math)학원,126.9968983,37.4833353
37.511363,127.0189648,,Point,629,씨오엘아카데미학원,127.0189648,37.511363
37.4922553,127.0259319,,Point,630,매쓰101수학교습소,127.0259319,37.4922553
37.5049688,127.0000133,,Point,631,수학쟁이들학원,127.0000133,37.5049688
37.4995082,126.9999844,,Point,632,매쓰홀릭학원,126.9999844,37.4995082
37.4564778,127.0154549,,Point,633,올림피아드함수학원,127.0154549,37.4564778
37.4797321,126.9991399,,Point,634,방배스즈키음악학원,126.9991399,37.4797321
37.5043898,127.0008014,,Point,635,영재음악교습소,127.0008014,37.5043898
37.4599828,127.0176131,,Point,636,대한민국명장김영모아카데미학원,127.0176131,37.4599828
37.5010005,127.0102675,,Point,637,아우다키아보습학원,127.0102675,37.5010005
37.4928176,127.0285595,,Point,639,커리어칼리지학원,127.0285595,37.4928176
37.4845564,127.0386507,,Point,640,리세움댄스스포츠학원,127.0386507,37.4845564
37.4719754,127.046149,,Point,641,제이엠(JM)영수전문학원,127.046149,37.4719754
37.4890957,126.9877072,,Point,642,다솔음악학원,126.9877072,37.4890957
37.4837652,127.02239,,Point,643,유나이티드영재음악학원,127.02239,37.4837652
37.4832803,126.996786,,Point,644,원탑잉글리쉬(ONETOPENGLISH)영어교습소,126.996786,37.4832803
37.4951846,126.9874554,,Point,645,맨해튼랩에이스영어교습소,126.9874554,37.4951846
37.4979583,126.9862305,,Point,646,하다수학교습소,126.9862305,37.4979583
37.4919238,126.9886189,,Point,648,문준영&커넥트영어학원,126.9886189,37.4919238
37.4959662,127.0138058,,Point,649,서초우리들학원,127.0138058,37.4959662
37.4885218,126.9838364,,Point,650,그레잇에듀학원,126.9838364,37.4885218
37.5043898,127.0008014,,Point,651,현진피아노교습소,127.0008014,37.5043898
37.5066358,127.0139482,,Point,652,코어아카데미영어교습소,127.0139482,37.5066358
37.4543375,127.0636548,,Point,653,내곡프린스턴영어교습소,127.0636548,37.4543375
37.4543375,127.0636548,,Point,655,아트뮤지엄미술교습소,127.0636548,37.4543375
37.5033426,127.0101914,,Point,656,수학몬스터서초학원,127.0101914,37.5033426
37.4960189,127.0201381,,Point,657,수학과학의미학원,127.0201381,37.4960189
37.5168409,127.0189044,,Point,658,더큐브아카데미학원,127.0189044,37.5168409
37.5162716,127.0100772,,Point,659,탑에듀영어교습소,127.0100772,37.5162716
37.4861877,126.9964418,,Point,660,윤선생우리집앞영어교실방일새라영어교습소,126.9964418,37.4861877
37.4950086,127.015673,,Point,661,토즈스터디센터교대역독서실,127.015673,37.4950086
37.5043898,127.0008014,,Point,662,코어원에듀학원,127.0008014,37.5043898
37.4964637,126.985312,,Point,663,토즈스터디센터방배독서실,126.985312,37.4964637
37.4954113,127.0164141,,Point,664,주한영국문화원영러너서초어학원,127.0164141,37.4954113
37.5152647,127.0146492,,Point,665,버밍엄영어전문학원,127.0146492,37.5152647
37.5071155,127.0098927,,Point,666,마루국어논술학원,127.0098927,37.5071155
37.5071155,127.0098927,,Point,667,한뮤직컴퍼니뮤지컬교습소,127.0098927,37.5071155
37.4866365,127.0285717,,Point,668,류지연음악교습소,127.0285717,37.4866365
37.4922553,127.0259319,,Point,669,퍼펙트영어교습소,127.0259319,37.4922553
37.5017651,127.0111962,,Point,670,케이매쓰(K MATH)수학교습소,127.0111962,37.5017651
37.5054735,126.9947134,,Point,671,킹스수학교습소,126.9947134,37.5054735
37.4819418,126.9962046,,Point,672,서초경매아카데미학원,126.9962046,37.4819418
37.494932,127.0151312,,Point,673,제이발레스튜디오학원,127.0151312,37.494932
37.5033568,127.0108133,,Point,674,집단지성학원,127.0108133,37.5033568
37.49535,127.0144698,,Point,675,용문학원,127.0144698,37.49535
37.4985613,127.0257595,,Point,676,해커스해외대학입시전문학원,127.0257595,37.4985613
37.5018104,127.0101438,,Point,677,하우투스터디과학학원,127.0101438,37.5018104
37.4753191,127.0462422,,Point,679,솔루니양재논술교습소,127.0462422,37.4753191
37.4828718,127.0038922,,Point,680,지니어스입시미술교습소,127.0038922,37.4828718
37.5169777,127.0180203,,Point,681,황액터스학원,127.0180203,37.5169777
37.5030941,126.9956953,,Point,682,아르코아트미술교습소,126.9956953,37.5030941
37.4787238,126.985518,,Point,683,해법영어서초이수아카데미영어교습소,126.985518,37.4787238
37.4931729,127.0170428,,Point,684,람아트스쿨학원,127.0170428,37.4931729
37.5021181,127.0113838,,Point,685,고수학학원,127.0113838,37.5021181
37.5074515,127.008056,,Point,686,인바이올린교습소,127.008056,37.5074515
37.4686504,127.0416806,,Point,687,숙명킨더아카데미학원,127.0416806,37.4686504
37.4979739,126.9975507,,Point,688,씨이티(CET)영어학원,126.9975507,37.4979739
37.4906957,126.9830606,,Point,689,스페라학원,126.9830606,37.4906957
37.4824689,127.0041915,,Point,690,신대산영어전문학원,127.0041915,37.4824689
37.4564778,127.0154549,,Point,691,더엠브릿지영어학원,127.0154549,37.4564778
37.5065508,127.0048897,,Point,692,윤정영어학원,127.0048897,37.5065508
37.4566871,127.0599746,,Point,693,제니스아카데미학원,127.0599746,37.4566871
37.491671,127.0130707,,Point,694,소도스카이학원,127.0130707,37.491671
37.4566871,127.0599746,,Point,695,포레스타음악학원,127.0599746,37.4566871
37.4687142,127.0406624,,Point,696,이지에듀학원,127.0406624,37.4687142
37.5017944,126.9901596,,Point,697,신대찬학원,126.9901596,37.5017944
37.4566871,127.0599746,,Point,698,바오밥나무미술교습소,127.0599746,37.4566871
37.4909649,126.9860762,,Point,699,안스스피치학원,126.9860762,37.4909649
37.5074515,127.008056,,Point,700,오은정국어논술전문학원,127.008056,37.5074515
37.4925206,127.0144618,,Point,701,강남대성별관학원,127.0144618,37.4925206
37.4824883,127.0043609,,Point,702,서준학원지혜관학원,127.0043609,37.4824883
37.5025816,127.0107782,,Point,703,그린램프라이브러리반포캠퍼스독서실,127.0107782,37.5025816
37.491671,127.0130707,,Point,704,소도스카이원격학원,127.0130707,37.491671
37.483339,127.0090872,,Point,705,자유의날개국어논술학원,127.0090872,37.483339
37.4882625,127.012765,,Point,706,소다뮤직아카데미학원,127.012765,37.4882625
37.4863972,126.9861493,,Point,707,최신고등수학교습소,126.9861493,37.4863972
37.4985349,127.024742,,Point,708,박문각강남고시1별관학원,127.024742,37.4985349
37.4798539,127.0061031,,Point,709,윤쌤수학교습소,127.0061031,37.4798539
37.5057261,127.0021861,,Point,710,논술및올댓역사논술교습소,127.0021861,37.5057261
37.5154139,127.0141834,,Point,711,서초신동한우리독서토론논술교습소,127.0141834,37.5154139
37.4803537,127.0076794,,Point,712,소리나무음악교습소,127.0076794,37.4803537
37.5021451,126.9869203,,Point,713,젠(ZEN)수학교습소,126.9869203,37.5021451
37.4715611,127.0450577,,Point,714,한탑언남1관학원,127.0450577,37.4715611
37.4922213,127.0207192,,Point,715,인더페이퍼학원,127.0207192,37.4922213
37.5004858,127.011213,,Point,716,작은별음악학원,127.011213,37.5004858
37.4923319,127.0286675,,Point,717,핸섬아트(Handsome Art)학원,127.0286675,37.4923319
37.5033426,127.0101914,,Point,718,스파크어학원,127.0101914,37.5033426
37.4823071,127.0042389,,Point,719,넥서스학원,127.0042389,37.4823071
37.4830734,126.996834,,Point,720,뷰미술학원,126.996834,37.4830734
37.5033568,127.0108133,,Point,721,다온수학학원,127.0108133,37.5033568
37.4932153,127.0287126,,Point,722,올검정고시원격학원,127.0287126,37.4932153
37.5018664,127.011455,,Point,723,오르다샘앤클래스반포학원,127.011455,37.5018664
37.5073925,127.0226022,,Point,724,오투학원,127.0226022,37.5073925
37.498583,127.0262116,,Point,725,드림댄스학원,127.0262116,37.498583
37.4788328,126.9845668,,Point,726,에이스수학교습소,126.9845668,37.4788328
37.4999252,127.0174633,,Point,727,비전매쓰수학교습소,127.0174633,37.4999252
37.4803537,127.0076794,,Point,728,러빈아트(Lovin' art)미술교습소,127.0076794,37.4803537
37.4639903,127.0249649,,Point,730,두형호영어교습소,127.0249649,37.4639903
37.4938754,126.98399,,Point,731,소통과공감미술교습소,126.98399,37.4938754
37.5022519,127.0101379,,Point,732,스카이국어논술학원,127.0101379,37.5022519
37.5043898,127.0008014,,Point,733,시대인재반포센터학원,127.0008014,37.5043898
37.4646512,127.0275223,,Point,734,뮤엠스카이엠영어교습소,127.0275223,37.4646512
37.4818304,126.9842323,,Point,735,라온수학교습소,126.9842323,37.4818304
37.4865225,126.9870974,,Point,736,방배해법수학교습소,126.9870974,37.4865225
37.4932185,126.9893478,,Point,737,수학시간학원,126.9893478,37.4932185
37.4856299,127.0114993,,Point,738,뮤직라이브러리원격학원,127.0114993,37.4856299
37.5000631,127.0113091,,Point,739,키즈스피치예소스학원,127.0113091,37.5000631
37.5162716,127.0100772,,Point,740,안녕국어교습소,127.0100772,37.5162716
37.4911468,127.0248042,,Point,741,핫클레이스(hotclays)도예교습소,127.0248042,37.4911468
37.4790059,127.0006421,,Point,742,아르스피아노교습소,127.0006421,37.4790059
37.4790059,127.0006421,,Point,743,돌체플루트교습소,127.0006421,37.4790059
37.4875878,127.0259247,,Point,744,아람플러스학원,127.0259247,37.4875878
37.4718102,127.045778,,Point,745,폴고갱미술교습소,127.045778,37.4718102
37.4691578,127.0409167,,Point,746,한국꽃예술학원,127.0409167,37.4691578
37.4840337,127.0210749,,Point,747,한국전통발효아카데미학원,127.0210749,37.4840337
37.4859497,127.0163573,,Point,748,더블유(W)방송연기학원,127.0163573,37.4859497
37.5001591,127.0109346,,Point,749,세인트폴서울학원,127.0109346,37.5001591
37.5001591,127.0109346,,Point,750,세인트폴프리페라토리서울(Saint Paul Preparatory Seoul)학원,127.0109346,37.5001591
37.511875,127.0176912,,Point,751,힘멜학원,127.0176912,37.511875
37.4951193,127.0279529,,Point,752,누나영아카데미어학원,127.0279529,37.4951193
37.4823132,127.0398101,,Point,753,한미술교습소,127.0398101,37.4823132
37.5071155,127.0098927,,Point,755,상위권수학자이학원,127.0098927,37.5071155
37.5043898,127.0008014,,Point,756,웨스턴영어학원,127.0008014,37.5043898
37.5058083,127.0012576,,Point,757,그린램프라이브러리반포2캠퍼스독서실,127.0012576,37.5058083
37.5015015,127.0217403,,Point,758,장지윤바이올린교습소,127.0217403,37.5015015
37.4834499,127.0094136,,Point,759,서초국어논술교습소,127.0094136,37.4834499
37.4720874,127.0455145,,Point,760,스타에듀학원,127.0455145,37.4720874
37.5034862,127.0101216,,Point,761,꽃피다국어교습소,127.0101216,37.5034862
37.4473228,127.0562945,,Point,762,김쌤수학교습소,127.0562945,37.4473228
37.4724811,127.0274887,,Point,763,코오롱피아노교습소,127.0274887,37.4724811
37.5012004,127.0104685,,Point,764,이루다수학학원,127.0104685,37.5012004
37.5026721,126.9874334,,Point,765,아카데미라운지구반포독서실,126.9874334,37.5026721
37.4699942,127.0253052,,Point,766,잉글리쉬101영어학원,127.0253052,37.4699942
37.5000631,127.0113091,,Point,767,엠아이서초어학원,127.0113091,37.5000631
37.5023513,127.0112563,,Point,768,엘아이엘(LIL)영어교습소,127.0112563,37.5023513
37.4866073,126.9864856,,Point,769,아롱다롱음악교습소,126.9864856,37.4866073
37.506106,127.0034252,,Point,770,공감국어교습소,127.0034252,37.506106
37.5029711,127.0120964,,Point,771,서앤박수학학원,127.0120964,37.5029711
37.5003199,127.0118486,,Point,772,서초크라센어학원,127.0118486,37.5003199
37.5052982,127.023229,,Point,773,발레플러스발레학원,127.023229,37.5052982
37.4908821,126.9858738,,Point,774,수자담수학전문학원,126.9858738,37.4908821
37.4823445,127.0054708,,Point,775,서리풀랩독서실,127.0054708,37.4823445
37.4885096,127.0142996,,Point,776,이영준아카데미학원,127.0142996,37.4885096
37.5067454,127.0055318,,Point,777,공간수학교습소,127.0055318,37.5067454
37.4922553,127.0259319,,Point,778,서초애플과학교습소,127.0259319,37.4922553
37.4635353,127.0200648,,Point,779,엘앤케이(LNK)영어교습소,127.0200648,37.4635353
37.4834499,127.0094136,,Point,780,길찬국어교습소,127.0094136,37.4834499
37.5030941,126.9956953,,Point,781,산김영준국어논술전문학원,126.9956953,37.5030941
37.4938697,127.0174069,,Point,782,이투스투포세븐학원,127.0174069,37.4938697
37.5072738,127.0072892,,Point,783,전수진과학교습소,127.0072892,37.5072738
37.4819206,126.9842424,,Point,784,종이에서꿈꾸는미술교습소,126.9842424,37.4819206
37.4977192,126.9856682,,Point,785,제이매쓰수학학원,126.9856682,37.4977192
37.5037962,127.0105586,,Point,786,입시창조적소수미술학원,127.0105586,37.5037962
37.5065508,127.0048897,,Point,787,매쓰매티카(Mathematica)수학교습소,127.0048897,37.5065508
37.4965902,127.0140803,,Point,788,맘스(moms)수학학원,127.0140803,37.4965902
37.5152647,127.0146492,,Point,789,플라이매쓰(FLY MATH)학원,127.0146492,37.5152647
37.5096033,127.0014445,,Point,790,내담논술교습소,127.0014445,37.5096033
37.487214,126.9910457,,Point,791,코어과학수학학원,126.9910457,37.487214
37.5129626,127.0173716,,Point,792,더블에이트연기학원,127.0173716,37.5129626
37.4749978,127.0322158,,Point,793,서초청담클루빌어학원,127.0322158,37.4749978
37.4999252,127.0174633,,Point,794,어썸팩토리서초플레이스독서실,127.0174633,37.4999252
37.5162716,127.0100772,,Point,795,링구아프랑카영어교습소,127.0100772,37.5162716
37.5065508,127.0048897,,Point,796,온수학교습소,127.0048897,37.5065508
37.4932951,127.0165776,,Point,797,교대그로티학원,127.0165776,37.4932951
37.5021451,126.9869203,,Point,798,한율학원,126.9869203,37.5021451
37.4970845,127.0236865,,Point,799,서초진흥한우리독서토론논술교습소,127.0236865,37.4970845
37.5061397,127.0010156,,Point,800,반포이엠서초해법수학학원,127.0010156,37.5061397
37.492506,126.9892669,,Point,801,김정에듀학원,126.9892669,37.492506
37.5035783,127.0092948,,Point,802,로앤장수학학원,127.0092948,37.5035783
37.5043898,127.0008014,,Point,803,아트멘토미술학원,127.0008014,37.5043898
37.4831008,127.0075413,,Point,804,수학에미친사람들서초학원,127.0075413,37.4831008
37.4922553,127.0259319,,Point,805,생각하는두꺼비수학5관학원,127.0259319,37.4922553
37.5010005,127.0102675,,Point,806,생각의탄생학원,127.0102675,37.5010005
37.5096033,127.0014445,,Point,807,제니아트미술교습소,127.0014445,37.5096033
37.4987245,126.9989431,,Point,808,서정음악학원,126.9989431,37.4987245
37.4716261,127.0452942,,Point,809,이안학원,127.0452942,37.4716261
37.4951846,126.9874554,,Point,810,한수연과학교습소,126.9874554,37.4951846
37.4821384,127.0045351,,Point,811,자몽미술학원,127.0045351,37.4821384
37.4904108,127.0207994,,Point,812,강남스즈키음악학원,127.0207994,37.4904108
37.4999252,127.0174633,,Point,813,곽선생중국어교습소,127.0174633,37.4999252
37.464536,127.0255795,,Point,814,서초우면소마학원,127.0255795,37.464536
37.4861733,127.0053862,,Point,815,아이크리스마스어학원,127.0053862,37.4861733
37.4922553,127.0259319,,Point,816,미술관그림미술교습소,127.0259319,37.4922553
37.4846796,126.985494,,Point,817,에꼴드아미(ecole de ami)미술교습소,126.985494,37.4846796
37.4915115,127.0144637,,Point,818,조건반사영어원격학원,127.0144637,37.4915115
37.4517274,127.0572224,,Point,819,뮤직슐레음악교습소,127.0572224,37.4517274
37.5148039,127.0166687,,Point,820,위첼아카데미학원,127.0166687,37.5148039
37.4931648,126.9862387,,Point,821,홀리프레이즈음악학원,126.9862387,37.4931648
37.506106,127.0034252,,Point,822,과학의진수학원,127.0034252,37.506106
37.5074515,127.008056,,Point,823,생각하는두꺼비수학8관학원,127.008056,37.5074515
37.4946895,126.9896107,,Point,824,어썸팩토리방배독서실,126.9896107,37.4946895
37.4924766,126.9900476,,Point,825,브라가밸리잉글리쉬학원,126.9900476,37.4924766
37.5096033,127.0014445,,Point,826,잠원스타스즈키바이올린교습소,127.0014445,37.5096033
37.4999252,127.0174633,,Point,827,세움(seum)학원,127.0174633,37.4999252
37.5043898,127.0008014,,Point,828,아이들미술교습소,127.0008014,37.5043898
37.4872747,126.9834123,,Point,829,문재호국어논술교습소,126.9834123,37.4872747
37.4824677,126.9829008,,Point,830,더리얼학원,126.9829008,37.4824677
37.506106,127.0034252,,Point,831,윤쎈과학교습소,127.0034252,37.506106
37.4922553,127.0259319,,Point,832,한선생중국어교습소,127.0259319,37.4922553
37.4823574,126.9973976,,Point,833,서초애니스타만화학원,126.9973976,37.4823574
37.4917331,127.024887,,Point,834,생각이룸독서논술국어학원,127.024887,37.4917331
37.5058083,127.0012576,,Point,835,세빛관학원,127.0012576,37.5058083
37.4941843,127.0282025,,Point,836,렉시스어학원,127.0282025,37.4941843
37.4850523,127.0397977,,Point,837,숲컴퍼니연기학원,127.0397977,37.4850523
37.490246,127.0139828,,Point,838,케이알(KR)부동산아카데미학원,127.0139828,37.490246
37.4931021,127.0150422,,Point,839,논통아카데미학원,127.0150422,37.4931021
37.4809149,126.9983666,,Point,840,수퍼(super)매쓰(math)학원,126.9983666,37.4809149
37.4710829,127.0438654,,Point,841,서울중앙음악학원,127.0438654,37.4710829
37.5096033,127.0014445,,Point,842,연세포레피아노교습소,127.0014445,37.5096033
37.485099,126.9902826,,Point,843,공감영재아카데미학원,126.9902826,37.485099
37.4834499,127.0094136,,Point,844,이엠수학교습소,127.0094136,37.4834499
37.494933,126.9896414,,Point,845,서초키마학원,126.9896414,37.494933
37.4885218,126.9838364,,Point,846,예손음악교습소,126.9838364,37.4885218
37.4708599,127.0253957,,Point,847,테스(TES)영어교습소,127.0253957,37.4708599
37.506106,127.0034252,,Point,848,공자중국어교습소,127.0034252,37.506106
37.4571345,127.0153219,,Point,849,더매쓰(THE MATH)수학전문학원,127.0153219,37.4571345
37.4910288,126.9840738,,Point,851,탑클래스학원,126.9840738,37.4910288
37.5209668,127.0155471,,Point,852,한강수학교습소,127.0155471,37.5209668
37.4981339,127.0252901,,Point,853,극한스피킹학원,127.0252901,37.4981339
37.5098315,127.020082,,Point,854,두쏭음악교습소,127.020082,37.5098315
37.5000631,127.0113091,,Point,855,해법수학교실반포학원,127.0113091,37.5000631
37.4934938,127.0286073,,Point,856,강남완전학습관학원,127.0286073,37.4934938
37.5087922,127.0035592,,Point,857,한우리독서토론논술교습소,127.0035592,37.5087922
37.4719754,127.046149,,Point,858,엔디에이취(NDH)발성교정아카데미학원,127.046149,37.4719754
37.486097,126.9858141,,Point,859,방배캠퍼스현재어학원,126.9858141,37.486097
37.5059333,127.0011202,,Point,860,진선생구반포관영어학원,127.0011202,37.5059333
37.4922182,127.0290761,,Point,861,러셀강남독서실,127.0290761,37.4922182
37.5034862,127.0101216,,Point,862,서초소마2관학원,127.0101216,37.5034862
37.4826839,127.0029788,,Point,863,서준학원,127.0029788,37.4826839
37.4906957,126.9830606,,Point,864,수학을삼키다학원,126.9830606,37.4906957
37.4922182,127.0290761,,Point,865,러셀강남학원,127.0290761,37.4922182
37.5039668,127.0104885,,Point,866,세계로에듀반포학원,127.0104885,37.5039668
37.5017944,126.9901596,,Point,867,수학스쿨(SCHOOL)학원,126.9901596,37.5017944
37.4701279,127.0240373,,Point,868,우암방과후공부방수학교습소,127.0240373,37.4701279
37.4654114,127.0213742,,Point,869,엘앤케이(LNK)스터디브릭스보습학원,127.0213742,37.4654114
37.506106,127.0034252,,Point,870,으뜸수학교습소,127.0034252,37.506106
37.5070327,127.006478,,Point,871,919수학학원,127.006478,37.5070327
37.5016692,127.0115707,,Point,872,개념폴리아서초관학원,127.0115707,37.5016692
37.5043898,127.0008014,,Point,873,수학의상상력학원,127.0008014,37.5043898
37.4963524,127.0136537,,Point,874,와이국어논술학원,127.0136537,37.4963524
37.5021451,126.9869203,,Point,875,엘브라운(El.Brown)학원,126.9869203,37.5021451
37.4965902,127.0140803,,Point,876,새미준영어교습소,127.0140803,37.4965902
37.4948761,127.0279561,,Point,877,코리아요리학원,127.0279561,37.4948761
37.4916282,127.0111828,,Point,878,일공이제이유(EJU)학원,127.0111828,37.4916282
37.5022519,127.0101379,,Point,879,생각하는두꺼비수학3관학원,127.0101379,37.5022519
37.5021451,126.9869203,,Point,880,구반포진선생어학원,126.9869203,37.5021451
37.4571345,127.0153219,,Point,881,라라음악학원,127.0153219,37.4571345
37.4980166,126.9962157,,Point,884,토토미술교습소,126.9962157,37.4980166
37.4823445,127.0054708,,Point,885,평정수학학원,127.0054708,37.4823445
37.5161566,127.0146374,,Point,886,해피아트프로젝트미술교습소,127.0146374,37.5161566
37.5071155,127.0098927,,Point,887,바움아트클래스미술교습소,127.0098927,37.5071155
37.5074515,127.008056,,Point,888,해법중국어북경대중국어교습소,127.008056,37.5074515
37.4543375,127.0636548,,Point,889,내곡프린스턴수학교습소,127.0636548,37.4543375
37.4687142,127.0406624,,Point,890,이지에듀원격학원,127.0406624,37.4687142
37.5067454,127.0055318,,Point,891,하오펑유(HaoPengYou)중국어교습소,127.0055318,37.5067454
37.5021451,126.9869203,,Point,892,스터디코트수학교습소,126.9869203,37.5021451
37.498512,126.999387,,Point,893,레보자르아뜰리에교습소,126.999387,37.498512
37.5029817,127.0101396,,Point,894,크레버스영재관서초제1지점학원,127.0101396,37.5029817
37.4931501,126.9897785,,Point,895,페디아플러스방배학원,126.9897785,37.4931501
37.4960433,127.0144042,,Point,896,키즈스피치스카이화술교습소,127.0144042,37.4960433
37.4821784,126.997547,,Point,897,천년의미소베이스캠프미술학원,126.997547,37.4821784
37.4734172,126.9834869,,Point,898,알로와경매학원,126.9834869,37.4734172
37.506106,127.0034252,,Point,899,네이처탐구전문학원,127.0034252,37.506106
37.4856283,126.9921186,,Point,900,조이투리드영어교습소,126.9921186,37.4856283
37.5148773,127.012505,,Point,901,리드101잠원영어학원,127.012505,37.5148773
37.4917141,126.991494,,Point,903,서초토피아어학원,126.991494,37.4917141
37.5015015,127.0217403,,Point,904,말하는영어교습소,127.0217403,37.5015015
37.4790059,127.0006421,,Point,905,피바디음악교습소,127.0006421,37.4790059
37.5021451,126.9869203,,Point,906,허쌤수학교습소,126.9869203,37.5021451
37.5037543,127.009858,,Point,907,디알(DR)수학교습소,127.009858,37.5037543
37.4961221,127.0141317,,Point,908,디토랩미술교습소,127.0141317,37.4961221
37.4911048,126.9834848,,Point,909,서울서초내공독서실,126.9834848,37.4911048
37.5015015,127.0217403,,Point,910,안경쓴고양이미술교습소,127.0217403,37.5015015
37.5054735,126.9947134,,Point,911,제이뮤직아카데미음악교습소,126.9947134,37.5054735
37.4994255,126.9997932,,Point,912,에이치이씨(HEC)영어교습소,126.9997932,37.4994255
37.4786532,127.0395969,,Point,913,칸미디어학원,127.0395969,37.4786532
37.5134076,127.0177842,,Point,914,톤연기학원,127.0177842,37.5134076
37.5043898,127.0008014,,Point,915,그레이트에이미술학원,127.0008014,37.5043898
37.4873726,127.0315247,,Point,916,포커스영화학원,127.0315247,37.4873726
37.4919398,126.9831342,,Point,917,두드림보습학원,126.9831342,37.4919398
37.5154139,127.0141834,,Point,918,더피아노교습소,127.0141834,37.5154139
37.5154139,127.0141834,,Point,919,필영어교습소,127.0141834,37.5154139
37.5115001,127.0192005,,Point,920,카타르시스연기학원,127.0192005,37.5115001
37.5027093,127.0217811,,Point,921,서초어반트리독서실,127.0217811,37.5027093
37.5072738,127.0072892,,Point,922,키(KEY)과학학원,127.0072892,37.5072738
37.5021689,127.012073,,Point,923,예음바이올린교습소,127.012073,37.5021689
37.5070327,127.006478,,Point,924,빛이룸영어교습소,127.006478,37.5070327
37.5160841,127.0178284,,Point,925,아임프롬보컬학원,127.0178284,37.5160841
37.4884212,127.0155899,,Point,927,스토리에듀케이션학원,127.0155899,37.4884212
37.4910288,126.9840738,,Point,928,코듀크리에이티브반포센터학원,126.9840738,37.4910288
37.5017651,127.0111962,,Point,929,개념폴리아서초2관학원,127.0111962,37.5017651
37.4950818,127.0277725,,Point,930,코리아제2캠퍼스학원,127.0277725,37.4950818
37.4915617,126.9915865,,Point,931,발레앤코강남서초학원,126.9915865,37.4915617
37.4999252,127.0174633,,Point,932,리드인서초원명점독서논술교습소,127.0174633,37.4999252
37.4947295,127.0156993,,Point,933,플랜에이프리미엄독서실,127.0156993,37.4947295
37.4831008,127.0075413,,Point,934,에듀코치개별지도서초2학원,127.0075413,37.4831008
37.5007046,127.0104411,,Point,935,반포파인만중등관학원,127.0104411,37.5007046
37.4882307,126.9982803,,Point,936,아이원이앤엠학원,126.9982803,37.4882307
37.5197943,127.0143407,,Point,937,선우수학교습소,127.0143407,37.5197943
37.4922553,127.0259319,,Point,938,코치클래스영어교습소,127.0259319,37.4922553
37.4828935,127.0075327,,Point,939,엠원학원,127.0075327,37.4828935
37.5010848,127.010651,,Point,940,북스토리학원,127.010651,37.5010848
37.498479,127.0190881,,Point,941,뮤엠서초원명점영어교습소,127.0190881,37.498479
37.4822767,126.9837401,,Point,942,레히연기로드학원,126.9837401,37.4822767
37.5061397,127.0010156,,Point,943,반포파인만고등2관학원,127.0010156,37.5061397
37.5144676,127.018483,,Point,944,레슨포케이아트연극영화학원,127.018483,37.5144676
37.5021819,127.0103877,,Point,945,뮤직플러싱(Music+ing)음악학원,127.0103877,37.5021819
37.4999252,127.0174633,,Point,946,이케이티(EKT)이론영어교습소,127.0174633,37.4999252
37.4957393,126.9880473,,Point,947,뮤엠영어서래미쉘영어교습소,126.9880473,37.4957393
37.5021819,127.0103877,,Point,948,진리수학영어학원,127.0103877,37.5021819
37.5065508,127.0048897,,Point,949,리디아(Lydia)영어교습소,127.0048897,37.5065508
37.5003622,127.0104456,,Point,950,링구아엠영어전문학원,127.0104456,37.5003622
37.5024787,127.0103272,,Point,951,이음수학교습소,127.0103272,37.5024787
37.4563941,127.0162246,,Point,952,비끄아트서초우면점미술교습소,127.0162246,37.4563941
37.5023513,127.0112563,,Point,953,크레버스씨큐브코딩서초제1지점학원,127.0112563,37.5023513
37.5010848,127.010651,,Point,954,소미아트서초센터학원,127.010651,37.5010848
37.4886091,126.9982752,,Point,955,이김이호석국어교습소,126.9982752,37.4886091
37.4886091,126.9982752,,Point,956,이김김소연영어교습소,126.9982752,37.4886091
37.5054735,126.9947134,,Point,957,아르코음악교습소,126.9947134,37.5054735
37.472063,127.0391725,,Point,958,코프디자인플로리스트학원,127.0391725,37.472063
37.5029711,127.0120964,,Point,959,연세리체음악교습소,127.0120964,37.5029711
37.4972486,127.0184822,,Point,960,카머(kammer)기타교습소,127.0184822,37.4972486
37.5066358,127.0139482,,Point,961,연세루첸음악교습소,127.0139482,37.5066358
37.4867168,126.9950778,,Point,962,릴드당스발레학원,126.9950778,37.4867168
37.5007158,127.0096267,,Point,963,생각하는황소서초2관학원,127.0096267,37.5007158
37.5074515,127.008056,,Point,964,광태수학학원,127.008056,37.5074515
37.5059333,127.0011202,,Point,965,에스(S)학원,127.0011202,37.5059333
37.5074515,127.008056,,Point,966,생각하는두꺼비수학2관학원,127.008056,37.5074515
37.5012004,127.0104685,,Point,967,퍼스트수학교습소,127.0104685,37.5012004
37.4934938,127.0286073,,Point,968,김영편입연고대전문관학원,127.0286073,37.4934938
37.5021451,126.9869203,,Point,969,최우식과학전문학원,126.9869203,37.5021451
37.4825304,127.0050726,,Point,970,그린램프라이브러리서초캠퍼스독서실,127.0050726,37.4825304
37.5057261,127.0021861,,Point,971,정경희수학교습소,127.0021861,37.5057261
37.4999252,127.0174633,,Point,972,원명최상위해법수학교습소,127.0174633,37.4999252
37.4838799,127.009114,,Point,973,방배맑은숲국어논술전문학원,127.009114,37.4838799
37.4914768,127.0081655,,Point,974,메티스수학교습소,127.0081655,37.4914768
37.49103,126.9842208,,Point,975,수학에미친사람들방배관학원,126.9842208,37.49103
37.4980628,127.0265011,,Point,976,에스비에스(SBS)아카데미컴퓨터아트강남2캠퍼스학원,127.0265011,37.4980628
37.5043898,127.0008014,,Point,977,제이디엠영어학원,127.0008014,37.5043898
37.4646512,127.0275223,,Point,978,서초네이처학원,127.0275223,37.4646512
37.491083,126.983044,,Point,979,수학을삼키다2관학원,126.983044,37.491083
37.5065508,127.0048897,,Point,980,마하수학교습소,127.0048897,37.5065508
37.4869308,127.0086779,,Point,981,시작독서실,127.0086779,37.4869308
37.506106,127.0034252,,Point,982,반포뉴딜수학교습소,127.0034252,37.506106
37.4917678,127.0171065,,Point,983,골든캠퍼스학원,127.0171065,37.4917678
37.5057261,127.0021861,,Point,984,퀀텀점프수학교습소,127.0021861,37.5057261
37.5067454,127.0055318,,Point,985,최영주독서토론논술교습소,127.0055318,37.5067454
37.4716993,127.045429,,Point,986,제니영어학원,127.045429,37.4716993
37.498499,126.9989121,,Point,987,반포서래보습학원,126.9989121,37.498499
37.4916208,126.9890188,,Point,988,파머스영어학원웰라캠퍼스학원,126.9890188,37.4916208
37.4858303,127.0204182,,Point,989,혜윰건축학원,127.0204182,37.4858303
37.4984294,127.0239744,,Point,990,서울일러스트아트학원,127.0239744,37.4984294
37.5065508,127.0048897,,Point,991,썬수학교습소,127.0048897,37.5065508
37.4999252,127.0174633,,Point,992,한길수학교습소,127.0174633,37.4999252
37.5003199,127.0118486,,Point,993,서초더(THE)강한학원,127.0118486,37.5003199
37.4843959,126.9965902,,Point,994,크리에이티브랭귀지컨설팅어학원,126.9965902,37.4843959
37.5013137,127.011089,,Point,995,서초지니엠국어학원,127.011089,37.5013137
37.4878325,126.9864578,,Point,996,허영주수학교습소,126.9864578,37.4878325
37.5058629,127.0217739,,Point,997,수분과열미용학원,127.0217739,37.5058629
37.5021051,127.0109089,,Point,998,알티씨에듀(RTC Edu)학원,127.0109089,37.5021051
37.4862697,127.0158216,,Point,999,이루다스피치온라인강의학원,127.0158216,37.4862697
37.5017583,126.9880452,,Point,1000,엔터스카이학원,126.9880452,37.5017583
37.5007158,127.0096267,,Point,1001,생각하는황소서초학원,127.0096267,37.5007158
37.5066358,127.0139482,,Point,1002,르네드뮤제학원,127.0139482,37.5066358
37.4956234,126.9892362,,Point,1003,201수학교습소,126.9892362,37.4956234
37.4642817,127.0253341,,Point,1004,서초채움학원,127.0253341,37.4642817
37.4945193,127.0196714,,Point,1006,3옥타브장인보컬학원,127.0196714,37.4945193
37.4803025,126.993106,,Point,1007,댄스피버스튜디오학원,126.993106,37.4803025
37.4705513,127.025117,,Point,1008,서일영수전문학원,127.025117,37.4705513
37.4999252,127.0174633,,Point,1009,정인학원,127.0174633,37.4999252
37.4727218,127.0426235,,Point,1010,서리풀(SEORIPUL)학원,127.0426235,37.4727218
37.5007158,127.0096267,,Point,1011,서초라이즈어학원,127.0096267,37.5007158
37.4838799,127.009114,,Point,1012,박지현국어전문국어교습소,127.009114,37.4838799
37.4543375,127.0636548,,Point,1013,뮤직풀(MUSICPOOL)음악교습소,127.0636548,37.4543375
37.4935142,126.9891516,,Point,1014,투디제이(2DJ)댄스학원,126.9891516,37.4935142
37.5074515,127.008056,,Point,1015,비엠지(BMG)학원,127.008056,37.5074515
37.4710827,127.0250988,,Point,1016,오랜지미술교습소,127.0250988,37.4710827
37.4916746,127.0167345,,Point,1017,열린아카데미학원,127.0167345,37.4916746
37.4814056,127.0378996,,Point,1018,지앤와이(G&Y)미술학원,127.0378996,37.4814056
37.4695311,127.0248816,,Point,1019,오픈유어뮤직학원,127.0248816,37.4695311
37.4935605,126.989298,,Point,1020,한수연과학학원,126.989298,37.4935605
37.4951846,126.9874554,,Point,1021,102수학교습소,126.9874554,37.4951846
37.4784589,127.0009546,,Point,1022,플랫나인댄스학원,127.0009546,37.4784589
37.4825699,126.985353,,Point,1023,예술해미술교습소,126.985353,37.4825699
37.4817141,126.9853758,,Point,1024,코어영어학원,126.9853758,37.4817141
37.4948761,127.0279561,,Point,1025,코리아요리아카데미학원,127.0279561,37.4948761
37.4571345,127.0153219,,Point,1026,공터영어서초힐스센터학원,127.0153219,37.4571345
37.4710827,127.0250988,,Point,1027,해법킹스턴영어교습소,127.0250988,37.4710827
37.4568787,127.0159922,,Point,1029,맘스에듀케어서초우솔캠퍼스학원,127.0159922,37.4568787
37.4880161,126.9826559,,Point,1031,이비에스뷰티아카데미학원,126.9826559,37.4880161
37.501994,127.0246405,,Point,1032,코드랩아카데미학원,127.0246405,37.501994
37.5002071,127.0102102,,Point,1033,대한논리독서논술학원,127.0102102,37.5002071
37.506106,127.0034252,,Point,1034,세영학원,127.0034252,37.506106
37.5037543,127.009858,,Point,1035,더큰생각수학학원,127.009858,37.5037543
37.5096033,127.0014445,,Point,1036,두드림박스(dodream box)음악교습소,127.0014445,37.5096033
37.503892,127.0090871,,Point,1037,엔닷어학원,127.0090871,37.503892
37.4963301,127.0142195,,Point,1038,맥스(MACS)입시전략학원,127.0142195,37.4963301
37.4861252,126.9933331,,Point,1039,권쌤쇼호스트학원,126.9933331,37.4861252
37.496656,126.9877635,,Point,1040,아트스튜디오(ART STUDIO)우주미술교습소,126.9877635,37.496656
37.4922553,127.0259319,,Point,1041,지니프라임영어교습소,127.0259319,37.4922553
37.4907433,126.983354,,Point,1042,라온피아노음악교습소,126.983354,37.4907433
37.4842531,127.0291114,,Point,1043,이투스ECI원격학원,127.0291114,37.4842531
37.4786787,126.9844559,,Point,1044,뮤엠영어이수학원,126.9844559,37.4786787
37.4947568,126.9901074,,Point,1045,연기해봄연기교습소,126.9901074,37.4947568
37.4564778,127.0154549,,Point,1046,더매쓰Junior수학전문학원,127.0154549,37.4564778
37.4775552,127.0006388,,Point,1047,스튜디오6120미술교습소,127.0006388,37.4775552
37.4950337,126.9898209,,Point,1048,라라랜드미술교습소,126.9898209,37.4950337
37.4947334,127.0281389,,Point,1049,리드윈학원,127.0281389,37.4947334
37.4807113,126.9829698,,Point,1050,사당건축토목학원,126.9829698,37.4807113
37.4884212,127.0155899,,Point,1051,뉴턴지니어스센터학원,127.0155899,37.4884212
37.4900286,126.9924892,,Point,1052,어나덜미독서실,126.9924892,37.4900286
37.4987574,126.9985694,,Point,1053,이즈(EASE)발레교습소,126.9985694,37.4987574
37.5098542,127.0206473,,Point,1054,배우앤배움키즈센터학원,127.0206473,37.5098542
37.4566871,127.0599746,,Point,1055,수학의달인수학스터디수학교습소,127.0599746,37.4566871
37.484506,127.0357793,,Point,1056,하우솔교육센터학원,127.0357793,37.484506
37.4929899,127.028693,,Point,1057,칼라항공아카데미학원,127.028693,37.4929899
37.5000631,127.0113091,,Point,1058,현문국어학원,127.0113091,37.5000631
37.4977479,126.9858601,,Point,1059,비연성장반포황지원국어논술학원,126.9858601,37.4977479
37.4989425,127.0260939,,Point,1060,사만다아카데미학원,127.0260939,37.4989425
37.4819233,127.0046736,,Point,1061,너나들이국어논술학원,127.0046736,37.4819233
37.4482614,127.0553559,,Point,1062,잉글리시아이영어교습소,127.0553559,37.4482614
37.5010848,127.010651,,Point,1063,서초예음음악학원,127.010651,37.5010848
37.4992204,126.9968555,,Point,1065,비욘드코딩학원,126.9968555,37.4992204
37.4919238,126.9886189,,Point,1066,류샘수학학원,126.9886189,37.4919238
37.4922553,127.0259319,,Point,1067,엘리트학원,127.0259319,37.4922553
37.4872802,126.9861486,,Point,1068,튼튼영어마스터클럽방배초영어교습소,126.9861486,37.4872802
37.4894151,126.982931,,Point,1069,월광서재이수독서실,126.982931,37.4894151
37.4847365,127.0178205,,Point,1070,에스클래스(Sclass)원격학원,127.0178205,37.4847365
37.4923529,127.0148824,,Point,1071,부동산멘토학원,127.0148824,37.4923529
37.4934938,127.0286073,,Point,1073,토다이어학원,127.0286073,37.4934938
37.506106,127.0034252,,Point,1074,디자인블루문미술교습소,127.0034252,37.506106
37.5154139,127.0141834,,Point,1075,더첼로음악교습소,127.0141834,37.5154139
37.4639903,127.0249649,,Point,1076,키즈아트미술학원,127.0249649,37.4639903
37.5152647,127.0146492,,Point,1077,해바라기미술학원,127.0146492,37.5152647
37.5100761,127.0202372,,Point,1078,네온댄스학원,127.0202372,37.5100761
37.5011109,126.9871492,,Point,1079,원패스에듀진학상담.지도교습소,126.9871492,37.5011109
37.4978969,126.9853718,,Point,1080,에이엠비(AMB)수학학원,126.9853718,37.4978969
37.5008109,127.0102248,,Point,1081,인사이트수학학원,127.0102248,37.5008109
37.5035548,127.0097136,,Point,1082,처음과끝학원,127.0097136,37.5035548
37.4566871,127.0599746,,Point,1083,퍼스트학원,127.0599746,37.4566871
37.4955065,126.9892717,,Point,1084,하이팩토수학교습소,126.9892717,37.4955065
37.4709444,127.0247163,,Point,1085,강한학원,127.0247163,37.4709444
37.5002071,127.0102102,,Point,1086,책읽기와글쓰기리딩엠서초학원,127.0102102,37.5002071
37.4913556,126.9948913,,Point,1087,까사데이밤비니학원,126.9948913,37.4913556
37.5007046,127.0104411,,Point,1088,아담리즈수학서초센터학원,127.0104411,37.5007046
37.4938503,126.9852682,,Point,1089,벨칸토성악교습소,126.9852682,37.4938503
37.5107484,127.020907,,Point,1090,파란아카데미미용학원,127.020907,37.5107484
37.4864366,126.9970943,,Point,1091,골목길피아노교습소,126.9970943,37.4864366
37.4813372,127.0142921,,Point,1092,비씨씨주니어어학원,127.0142921,37.4813372
37.4999252,127.0174633,,Point,1093,이샘아카데미영어교습소,127.0174633,37.4999252
37.5197943,127.0143407,,Point,1094,수학돼지잠원관수학교습소,127.0143407,37.5197943
37.5015015,127.0217403,,Point,1095,서초에스(S)과학교습소,127.0217403,37.5015015
37.4938503,126.9852682,,Point,1096,두드림(DoDream)피아노교습소,126.9852682,37.4938503
37.4848696,126.99508,,Point,1097,입시전문코벤트학원,126.99508,37.4848696
37.4948867,126.989495,,Point,1098,수학대장학원,126.989495,37.4948867
37.5010072,127.0110704,,Point,1099,깊은생각서초학원,127.0110704,37.5010072
37.4566024,127.0595123,,Point,1100,대치엠영어?수학학원,127.0595123,37.4566024
37.4947991,126.9897902,,Point,1101,특별한힘을파는가게논술교습소,126.9897902,37.4947991
37.5003622,127.0104456,,Point,1102,수학그이상수플러스수학교습소,127.0104456,37.5003622
37.4952811,127.0181009,,Point,1103,튜튜발레학원,127.0181009,37.4952811
37.498479,127.0190881,,Point,1104,해법영어핸썸클래스영어교습소,127.0190881,37.498479
37.5144676,127.018483,,Point,1105,레슨포케이아트학원,127.018483,37.5144676
37.498479,127.0190881,,Point,1106,원명하연과학교습소,127.0190881,37.498479
37.492759,126.989354,,Point,1107,다온수학교습소,126.989354,37.492759
37.5054735,126.9947134,,Point,1108,연세킬만수학교습소,126.9947134,37.5054735
37.5015015,127.0217403,,Point,1109,더윈영어교습소,127.0217403,37.5015015
37.4705513,127.025117,,Point,1110,아카이브401아트&디자인미술학원,127.025117,37.4705513
37.5010265,127.0112172,,Point,1111,로보티즈코드스튜디오학원,127.0112172,37.5010265
37.4919201,127.0170027,,Point,1112,강남정일학원,127.0170027,37.4919201
37.4827189,126.9954028,,Point,1113,문단비책영어학원,126.9954028,37.4827189
37.4989425,127.0260939,,Point,1114,퍼스트바리스타학원,127.0260939,37.4989425
37.4790935,126.9897529,,Point,1115,프랜시스파커서초어학원,126.9897529,37.4790935
37.5010511,127.0087853,,Point,1116,포레피아노교습소,127.0087853,37.5010511
37.4985613,127.0257595,,Point,1117,해커스경영아카데미학원,127.0257595,37.4985613
37.4947407,127.0279352,,Point,1118,코리아바리스타제과제빵학원,127.0279352,37.4947407
37.5096033,127.0014445,,Point,1119,윤선생잠원영어교습소,127.0014445,37.5096033
37.496656,126.9877635,,Point,1120,제이엔케이(JNK)영어교습소,126.9877635,37.496656
37.491946,127.0288535,,Point,1121,러셀강남별관학원,127.0288535,37.491946
37.4934593,127.0211554,,Point,1122,알록달록공작소미술교습소,127.0211554,37.4934593
37.5010337,127.0099278,,Point,1123,써밋잉글리시아카데미(Summit English Academy)학원,127.0099278,37.5010337
37.4785019,126.9838025,,Point,1124,댄스플사당댄스학원,126.9838025,37.4785019
37.4934593,127.0211554,,Point,1125,잎새음악학원,127.0211554,37.4934593
37.4921253,127.0146027,,Point,1127,코스믹아고라서초점부설학원,127.0146027,37.4921253
37.4710827,127.0250988,,Point,1128,마인드업수학교습소,127.0250988,37.4710827
37.5061397,127.0010156,,Point,1129,슈필렌음악학원,127.0010156,37.5061397
37.4804075,126.9822277,,Point,1130,길(GIL)영어교습소,126.9822277,37.4804075
37.4989324,127.0097068,,Point,1131,파츠앤팬스1관학원,127.0097068,37.4989324
37.4989324,127.0097068,,Point,1132,파츠앤팬스2관학원,127.0097068,37.4989324
37.492074,126.984071,,Point,1133,창작공방문예창작학원,126.984071,37.492074
37.5033568,127.0108133,,Point,1134,4퍼센트수학학원,127.0108133,37.5033568
37.5015015,127.0217403,,Point,1135,아뜰리에달미술교습소,127.0217403,37.5015015
37.4810597,127.0430147,,Point,1136,민트보이스아카데미학원,127.0430147,37.4810597
37.499675,127.0101493,,Point,1137,리틀팍스서초어학원,127.0101493,37.499675
37.4837922,127.0083236,,Point,1138,지엠에스큐학원,127.0083236,37.4837922
37.4796775,126.9822037,,Point,1139,사일연연기학원,126.9822037,37.4796775
37.5154139,127.0141834,,Point,1140,신사음악교습소,127.0141834,37.5154139
37.5154139,127.0141834,,Point,1141,쇼팽피아노교습소,127.0141834,37.5154139
37.4877224,126.9830783,,Point,1142,하늘꿈피아노교습소,126.9830783,37.4877224
37.4805293,127.0420491,,Point,1143,태즈아트학원,127.0420491,37.4805293
37.4790935,126.9897529,,Point,1144,위에듀학원,126.9897529,37.4790935
37.5155648,127.019317,,Point,1145,주액터스연기학원,127.019317,37.5155648
37.4838799,127.009114,,Point,1146,앨더영어교습소,127.009114,37.4838799
37.4786374,127.0007487,,Point,1147,와이와이(YY)스쿨어학원,127.0007487,37.4786374
37.5087904,127.0216678,,Point,1148,투연기학원,127.0216678,37.5087904
37.4564778,127.0154549,,Point,1149,안녕피아노음악교습소,127.0154549,37.4564778
37.5004794,127.0104441,,Point,1150,정석수학학원,127.0104441,37.5004794
37.4828935,127.0075327,,Point,1151,제이케이(J.K)음악교습소,127.0075327,37.4828935
37.506106,127.0034252,,Point,1152,사이언스멘토과학교습소,127.0034252,37.506106
37.4933753,127.0175491,,Point,1154,강남종로교대학원,127.0175491,37.4933753
37.520499,127.0145577,,Point,1155,그림아트스튜디오잠원미술교습소,127.0145577,37.520499
37.4951584,126.9896609,,Point,1156,르빠레트미술교습소,126.9896609,37.4951584
37.5070327,127.006478,,Point,1157,대치명인학원,127.006478,37.5070327
37.5057261,127.0021861,,Point,1158,장의순국어학원,127.0021861,37.5057261
37.4985613,127.0257595,,Point,1159,해커스경영아카데미독서실,127.0257595,37.4985613
37.4642817,127.0253341,,Point,1160,잉크레더블학원,127.0253341,37.4642817
37.506106,127.0034252,,Point,1161,상상이상수학교습소,127.0034252,37.506106
37.4961221,127.0141317,,Point,1162,더피아노프리미엄피아노교습소,127.0141317,37.4961221
37.4843395,126.9963195,,Point,1163,우리가이과다학원,126.9963195,37.4843395
37.5033426,127.0101914,,Point,1164,엠에스씨서초학원,127.0101914,37.5033426
37.4966713,126.9980205,,Point,1165,원더스잉글리시아카데미(Wonders English Academy)학원,126.9980205,37.4966713
37.5057261,127.0021861,,Point,1166,반포세정학원,127.0021861,37.5057261
37.4807113,126.9829698,,Point,1167,비원부동산학원,126.9829698,37.4807113
37.4857295,127.0213015,,Point,1168,팍스뮤직(PARKSMusic)성인전문음악학원,127.0213015,37.4857295
37.4831502,127.0363734,,Point,1169,양재위드피아노학원,127.0363734,37.4831502
37.4870238,127.021997,,Point,1170,벼리엔터테인먼트학원,127.021997,37.4870238
37.4832519,127.0083647,,Point,1171,애니영영어교습소,127.0083647,37.4832519
37.4828718,127.0038922,,Point,1172,포인트수학전문학원,127.0038922,37.4828718
37.5105918,127.0205019,,Point,1173,핑크엠실용음악학원,127.0205019,37.5105918
37.4889423,127.0306564,,Point,1174,엠앤에스(M&S)수학과학전문학원,127.0306564,37.4889423
37.4894835,126.9940796,,Point,1175,뮤직그리다음악학원,126.9940796,37.4894835
37.5011109,126.9871492,,Point,1176,마녀쌤영어3관학원,126.9871492,37.5011109
37.5045405,127.02204,,Point,1177,올바른필름아카데미학원,127.02204,37.5045405
37.5015015,127.0217403,,Point,1178,강남샘(SEM)리딩트리영어학원,127.0217403,37.5015015
37.5070327,127.006478,,Point,1179,안쌤의쉬운과탐교습소,127.006478,37.5070327
37.4564778,127.0154549,,Point,1180,세종피아노교습소,127.0154549,37.4564778
37.5057261,127.0021861,,Point,1181,반포필즈수학교습소,127.0021861,37.5057261
37.4824677,126.9829008,,Point,1182,에이치와이댄스학원,126.9829008,37.4824677
37.5021051,127.0109089,,Point,1183,제이원수학학원,127.0109089,37.5021051
37.4878662,127.0269048,,Point,1184,더올림수학학원,127.0269048,37.4878662
37.4918885,126.9876582,,Point,1185,이우람수학학원,126.9876582,37.4918885
37.4859616,126.9963431,,Point,1186,젬마아트(GEMMA ART)미술교습소,126.9963431,37.4859616
37.5154139,127.0141834,,Point,1187,밍글잉글리쉬학원,127.0141834,37.5154139
37.5015015,127.0217403,,Point,1188,세일학원,127.0217403,37.5015015
37.5034862,127.0101216,,Point,1189,트리즈원(TRIZONE)수학학원,127.0101216,37.5034862
37.5162716,127.0100772,,Point,1190,잠원프라임영어교습소,127.0100772,37.5162716
37.4922553,127.0259319,,Point,1191,서초바움뮤직스튜디오음악교습소,127.0259319,37.4922553
37.4934958,127.0147091,,Point,1192,한국경매학원,127.0147091,37.4934958
37.498479,127.0190881,,Point,1193,더좋은수학교습소,127.0190881,37.498479
37.5057261,127.0021861,,Point,1194,반포해냄2관학원,127.0021861,37.5057261
37.4749978,127.0322158,,Point,1195,독서코칭리드인논술교습소,127.0322158,37.4749978
37.5057261,127.0021861,,Point,1196,반포해냄3관학원,127.0021861,37.5057261
37.5037962,127.0105586,,Point,1197,미대입시창조적소수미술학원,127.0105586,37.5037962
37.5061397,127.0010156,,Point,1198,파인만영재고센터영재관학원,127.0010156,37.5061397
37.4883657,126.9972042,,Point,1199,한국주류안전협회학원,126.9972042,37.4883657
37.4889599,127.0131969,,Point,1200,유달리아트(UDALLY ART)미술교습소,127.0131969,37.4889599
37.4710511,127.024534,,Point,1201,킥스(KICS)프렙스쿨(PrepSchool)학원,127.024534,37.4710511
37.4811214,126.9982734,,Point,1202,하랑국어교습소,126.9982734,37.4811214
37.4922553,127.0259319,,Point,1203,김해람연구소가야금병창교습소,127.0259319,37.4922553
37.4922553,127.0259319,,Point,1204,연세최수학교습소,127.0259319,37.4922553
37.4828935,127.0075327,,Point,1205,마중물3관학원,127.0075327,37.4828935
37.5039668,127.0104885,,Point,1206,헨리영어학원,127.0104885,37.5039668
37.5002071,127.0102102,,Point,1207,이안서가국어교습소,127.0102102,37.5002071
37.5162716,127.0100772,,Point,1208,에스더피아노교습소,127.0100772,37.5162716
37.4993451,126.9977473,,Point,1209,윤선생우리집앞영어교실반포서래영어교습소,126.9977473,37.4993451
37.5057261,127.0021861,,Point,1210,카이수학교습소,127.0021861,37.5057261
37.4850158,127.0320075,,Point,1211,누리나래교육학원,127.0320075,37.4850158
37.4617505,127.0232419,,Point,1212,플러스수학교습소,127.0232419,37.4617505
37.4939156,127.0153481,,Point,1213,솔바이올린교습소,127.0153481,37.4939156
37.5033987,127.009365,,Point,1214,그림아트스튜디오반포점미술교습소,127.009365,37.5033987
37.4720874,127.0455145,,Point,1215,에꼴음악교습소,127.0455145,37.4720874
37.4720874,127.0455145,,Point,1216,에꼴미술교습소,127.0455145,37.4720874
37.4875866,127.0312506,,Point,1218,앤수학서초2관수학교습소,127.0312506,37.4875866
37.4723372,127.046314,,Point,1219,매쓰탑수학전문학원,127.046314,37.4723372
37.4863972,126.9861493,,Point,1220,윤선생우리집앞영어교실방배동부영어교습소,126.9861493,37.4863972
37.5000631,127.0113091,,Point,1221,서초티오티(TOT)반포1관학원,127.0113091,37.5000631
37.4716395,127.0391666,,Point,1222,코너스톤서울(Cornerstone Seoul)학원,127.0391666,37.4716395
37.4825372,127.0048125,,Point,1223,에이스영어서초본점학원,127.0048125,37.4825372
37.5010511,127.0087853,,Point,1224,아르떼미술교습소,127.0087853,37.5010511
37.4926792,127.0161899,,Point,1225,황금대지아카데미학원,127.0161899,37.4926792
37.5027778,127.0105381,,Point,1226,휴몬랩코딩반포학원,127.0105381,37.5027778
37.5072738,127.0072892,,Point,1227,키츠(KEETS)영어교습소,127.0072892,37.5072738
37.4844731,126.9824439,,Point,1229,메이듀수학학원,126.9824439,37.4844731
37.4543375,127.0636548,,Point,1231,윤선생영어교실내곡포레영어교습소,127.0636548,37.4543375
37.5016692,127.0115707,,Point,1232,아자영어학원,127.0115707,37.5016692
37.483339,127.0090872,,Point,1233,유펜영어교습소,127.0090872,37.483339
37.5139774,127.0169623,,Point,1234,카리스연기학원,127.0169623,37.5139774
37.5136766,127.0197942,,Point,1235,레포케영화교습소,127.0197942,37.5136766
37.4956234,126.9892362,,Point,1236,아티스뮤직(Artis Music)음악학원,126.9892362,37.4956234
37.495012,126.9893915,,Point,1237,서래본원와이즈리더영어독서전문학원,126.9893915,37.495012
37.5011109,126.9871492,,Point,1238,참좋은독서실,126.9871492,37.5011109
37.4975191,126.998111,,Point,1239,벨에포크당스발레학원,126.998111,37.4975191
37.4907151,126.9832186,,Point,1240,올리는수학학원,126.9832186,37.4907151
37.5072738,127.0072892,,Point,1241,로직매쓰수학교습소,127.0072892,37.5072738
37.5034862,127.0101216,,Point,1242,서초맑은숲국어논술전문학원,127.0101216,37.5034862
37.5012004,127.0104685,,Point,1243,깊은생각서초2관학원,127.0104685,37.5012004
37.5008109,127.0102248,,Point,1244,미술로생각하기반포학원,127.0102248,37.5008109
37.5067454,127.0055318,,Point,1245,폴리박사영어교습소,127.0055318,37.5067454
37.5152101,127.0102835,,Point,1246,플럼어학원,127.0102835,37.5152101
37.5003622,127.0104456,,Point,1247,수풀림수학과학학원,127.0104456,37.5003622
37.4901386,127.0129891,,Point,1248,엠에스케이학원,127.0129891,37.4901386
37.4996258,126.9979132,,Point,1249,에임하이(AIM HIGHER)영어교습소,126.9979132,37.4996258
37.4846334,126.9959086,,Point,1250,수학대장3관학원,126.9959086,37.4846334
37.4928362,126.9899523,,Point,1251,성적올리는수학영어학원,126.9899523,37.4928362
37.5097803,127.0204333,,Point,1252,포엠플로리스트학원,127.0204333,37.5097803
37.4534599,127.0598003,,Point,1253,러닝어취브영어국어학원,127.0598003,37.4534599
37.4891201,126.9969114,,Point,1254,스키테수과공학교육학원,126.9969114,37.4891201
37.5043898,127.0008014,,Point,1255,아이이(IE)영어교습소,127.0008014,37.5043898
37.4962025,127.0151259,,Point,1256,언어비상날다스카이학원,127.0151259,37.4962025
37.5030941,126.9956953,,Point,1257,수학봄학원,126.9956953,37.5030941
37.4910332,126.9845826,,Point,1258,이루다국어학원,126.9845826,37.4910332
37.4919398,126.9831342,,Point,1259,청출어람국어전문학원,126.9831342,37.4919398
37.4794055,126.9841068,,Point,1260,예도아카데미학원,126.9841068,37.4794055
37.4760883,126.9881427,,Point,1261,알31사운드(R31SOUND)실용음악교습소,126.9881427,37.4760883
37.5058083,127.0012576,,Point,1262,진선생어학원센트럴관학원,127.0012576,37.5058083
37.4718102,127.045778,,Point,1263,원앤온리댄스학원,127.045778,37.4718102
37.4957393,126.9880473,,Point,1264,서래음악교습소,126.9880473,37.4957393
37.487713,126.9861767,,Point,1265,와이제이에뚜왈발레학원,126.9861767,37.487713
37.4752717,127.0370738,,Point,1266,베케스투아(Bekkestua)피아노교습소,127.0370738,37.4752717
37.4865881,127.0140309,,Point,1267,강남메가스터디팀플전문관독서실,127.0140309,37.4865881
37.4723474,127.0408986,,Point,1268,코너스톤아카데미학원,127.0408986,37.4723474
37.4517274,127.0572224,,Point,1269,책읽는루브르아뜰리에내곡센터미술교습소,127.0572224,37.4517274
37.4811214,126.9982734,,Point,1270,이데아미술교습소,126.9982734,37.4811214
37.5018664,127.011455,,Point,1271,광태수학4관학원,127.011455,37.5018664
37.4923488,127.012225,,Point,1272,99스페이스학원,127.012225,37.4923488
37.4866073,126.9864856,,Point,1273,한우리방배4동논술교습소,126.9864856,37.4866073
37.4870081,127.0310319,,Point,1274,씨지페이션스게임학원,127.0310319,37.4870081
37.5013137,127.011089,,Point,1275,헤브론어학원,127.011089,37.5013137
37.5003199,127.0118486,,Point,1276,서초케이원영어학원,127.0118486,37.5003199
37.447922,127.0557219,,Point,1277,기초와창의리얼아이교육학원,127.0557219,37.447922
37.5043898,127.0008014,,Point,1278,수리원교육수학학원,127.0008014,37.5043898
37.5036657,127.0100401,,Point,1279,크레버스영재관서초제2지점학원,127.0100401,37.5036657
37.4961119,127.0194018,,Point,1280,내인생의수학교습소,127.0194018,37.4961119
37.5037644,127.020806,,Point,1281,우디쌤의영화아카데미영화교습소,127.020806,37.5037644
37.5015015,127.0217403,,Point,1282,서초해법영어교습소,127.0217403,37.5015015
37.4999476,127.0256058,,Point,1283,김영플러스여학생전용관학원,127.0256058,37.4999476
37.5067454,127.0055318,,Point,1284,생각하는황소서초3관학원,127.0055318,37.5067454
37.5154139,127.0141834,,Point,1285,선우미술교습소,127.0141834,37.5154139
37.4872619,126.991373,,Point,1286,홍채희꽃과정원아카데미학원,126.991373,37.4872619
37.5007158,127.0096267,,Point,1287,뉴파인반포학원,127.0096267,37.5007158
37.5067454,127.0055318,,Point,1288,기한성수학교습소,127.0055318,37.5067454
37.4929899,127.028693,,Point,1289,루미에피아노강남역센터학원,127.028693,37.4929899
37.5000631,127.0113091,,Point,1290,반포파인만중등특목관학원,127.0113091,37.5000631
37.4806835,126.9839312,,Point,1291,하얀고래미술교습소,126.9839312,37.4806835
37.5087904,127.0216678,,Point,1292,입시조소흙미술교습소,127.0216678,37.5087904
37.4750098,126.9821765,,Point,1293,창작공간바움연기학원,126.9821765,37.4750098
37.4534599,127.0598003,,Point,1294,이화(而貨)큰별음악학원,127.0598003,37.4534599
37.5025816,127.0107782,,Point,1295,배종옥연기학원,127.0107782,37.5025816
37.5021051,127.0109089,,Point,1296,서초티오티(TOT)반포3관학원,127.0109089,37.5021051
37.5071155,127.0098927,,Point,1297,반석수학학원반포관학원,127.0098927,37.5071155
37.4534599,127.0598003,,Point,1298,고릴라홍익미술교습소,127.0598003,37.4534599
37.4818389,126.9852159,,Point,1299,방배이수독서논술교습소,126.9852159,37.4818389
37.4957393,126.9880473,,Point,1300,서래아트미술교습소,126.9880473,37.4957393
37.5058083,127.0012576,,Point,1301,반포파인만고등1관학원,127.0012576,37.5058083
37.4757932,127.0391474,,Point,1302,로비건채식요리학원,127.0391474,37.4757932
37.5087922,127.0035592,,Point,1303,뮤직아이음악교습소,127.0035592,37.5087922
37.5096033,127.0014445,,Point,1304,루카영어교습소,127.0014445,37.5096033
37.5027778,127.0105381,,Point,1305,르메이어발레학원,127.0105381,37.5027778
37.4972486,127.0184822,,Point,1306,배블영어학원,127.0184822,37.4972486
37.4534599,127.0598003,,Point,1307,러닝어취브수학학원,127.0598003,37.4534599
37.4923319,127.0286675,,Point,1308,바이민프랩학원,127.0286675,37.4923319
37.5034862,127.0101216,,Point,1309,리드101서초학원,127.0101216,37.5034862
37.5164762,127.0173142,,Point,1310,본스타보컬학원,127.0173142,37.5164762
37.5162716,127.0100772,,Point,1311,방쌤혜윰수학교습소,127.0100772,37.5162716
37.49059,126.9864884,,Point,1312,비비엘아트미술학원,126.9864884,37.49059
37.4994326,126.9985038,,Point,1313,올탑수학교습소,126.9985038,37.4994326
37.5178575,127.0154635,,Point,1314,나무아트미술교습소,127.0154635,37.5178575
37.4972486,127.0184822,,Point,1315,아인바이올린교습소,127.0184822,37.4972486
37.5029817,127.0101396,,Point,1316,집공자닷컴원격학원,127.0101396,37.5029817
37.5010511,127.0087853,,Point,1317,반포제시카영어교습소,127.0087853,37.5010511
37.5015015,127.0217403,,Point,1318,으뜸국어논술학원,127.0217403,37.5015015
37.4584969,127.0220521,,Point,1319,서초우솔아카데미수학교습소,127.0220521,37.4584969
37.4774407,126.9829915,,Point,1320,조성은면접스피치화술교습소,126.9829915,37.4774407
37.5154139,127.0141834,,Point,1321,타운영어교습소,127.0141834,37.5154139
37.5096033,127.0014445,,Point,1322,수학박사수학교습소,127.0014445,37.5096033
37.5061397,127.0010156,,Point,1323,파인만영재고센터학원,127.0010156,37.5061397
37.492074,126.984071,,Point,1324,창작공방키노게이트학원,126.984071,37.492074
37.4874525,126.9841788,,Point,1325,이상수학학원,126.9841788,37.4874525
37.4961119,127.0194018,,Point,1326,JL바이올린음악교습소,127.0194018,37.4961119
37.5144095,127.0115158,,Point,1327,나무수학교습소,127.0115158,37.5144095
37.4961119,127.0194018,,Point,1328,차이(CHAI)미술교습소,127.0194018,37.4961119
37.5043898,127.0008014,,Point,1329,발레드퍼스티지이화무용학원,127.0008014,37.5043898
37.5007158,127.0096267,,Point,1330,뉴파인영재관학원,127.0096267,37.5007158
37.5043898,127.0008014,,Point,1331,새플링영어교습소,127.0008014,37.5043898
37.4784589,127.0009546,,Point,1332,플랫나인보컬학원,127.0009546,37.4784589
37.5003237,127.0112265,,Point,1333,세인트폴서초학원,127.0112265,37.5003237
37.4635353,127.0200648,,Point,1334,나이스수학교습소,127.0200648,37.4635353
37.4922553,127.0259319,,Point,1335,수학의길학원,127.0259319,37.4922553
37.5061397,127.0010156,,Point,1336,파인만영재고센터금정관학원,127.0010156,37.5061397
37.5003199,127.0118486,,Point,1337,라임잉글리쉬학원,127.0118486,37.5003199
37.4818858,127.0044932,,Point,1338,퍼스트영어학원,127.0044932,37.4818858
37.5057261,127.0021861,,Point,1339,메가매쓰(Mega math)수학교습소,127.0021861,37.5057261
37.4895974,126.9831773,,Point,1340,키스톤영어교습소,126.9831773,37.4895974
37.4860845,127.0228234,,Point,1341,제이엘영어학원,127.0228234,37.4860845
37.5146465,127.0183223,,Point,1342,산연기학원,127.0183223,37.5146465
37.4708599,127.0253957,,Point,1343,우암현수학교습소,127.0253957,37.4708599
37.4708599,127.0253957,,Point,1344,우면현수학교습소,127.0253957,37.4708599
37.4998086,127.0262296,,Point,1345,강남파고다학원5학원,127.0262296,37.4998086
37.4998086,127.0262296,,Point,1346,강남파고다외국어학원6학원,127.0262296,37.4998086
37.4998086,127.0262296,,Point,1347,강남파고다외국어학원7학원,127.0262296,37.4998086
37.4934938,127.0286073,,Point,1348,김영편입의약대전문관학원,127.0286073,37.4934938
37.5001002,127.025536,,Point,1349,해커스어학원강남제4별관학원,127.025536,37.5001002
37.4865881,127.0140309,,Point,1350,제2강남메가스터디학원,127.0140309,37.4865881
37.5021051,127.0109089,,Point,1351,lHH133수학교습소,127.0109089,37.5021051
37.5197943,127.0143407,,Point,1352,샤오나중국어교습소,127.0143407,37.5197943
37.4947334,127.0281389,,Point,1353,물맷돌수학원격학원,127.0281389,37.4947334
37.506106,127.0034252,,Point,1354,클샘수학교습소,127.0034252,37.506106
37.4880141,127.0089237,,Point,1355,프로기원격학원,127.0089237,37.4880141
37.4910536,127.0277116,,Point,1356,리더스원음악학원,127.0277116,37.4910536
37.4824883,127.0043609,,Point,1357,문준영영어학원,127.0043609,37.4824883
37.4933165,127.0148132,,Point,1358,메가스터디대입컨설팅센터학원,127.0148132,37.4933165
37.5137977,127.0073272,,Point,1359,반석수학잠원관학원,127.0073272,37.5137977
37.5018664,127.011455,,Point,1360,반포바른미술학원,127.011455,37.5018664
37.4917331,127.024887,,Point,1361,서초와이즈리더영어독서전문학원,127.024887,37.4917331
37.5023088,127.0104765,,Point,1362,제이케이(JK)영재학원,127.0104765,37.5023088
37.4966695,127.0138644,,Point,1363,디앤엘(DNL)수학학원,127.0138644,37.4966695
37.483339,127.0090872,,Point,1364,예당미술교습소,127.0090872,37.483339
37.4985529,127.0095874,,Point,1365,윤수학학원,127.0095874,37.4985529
37.5057261,127.0021861,,Point,1366,김수정수학교습소,127.0021861,37.5057261
37.5007158,127.0096267,,Point,1367,논술화랑서초학원,127.0096267,37.5007158
37.4911048,126.9834848,,Point,1368,수미사플러스학원,126.9834848,37.4911048
37.4919201,127.0170027,,Point,1369,강남정일라이브러리독서실,127.0170027,37.4919201
37.4860102,126.9851481,,Point,1370,제이엘학원,126.9851481,37.4860102
37.5067454,127.0055318,,Point,1371,피비이씨(PBEC)과학교습소,127.0055318,37.5067454
37.4938697,127.0174069,,Point,1372,이투스투포세븐독서실,127.0174069,37.4938697
37.5012402,127.0250122,,Point,1373,메가스터디게임아카데미학원,127.0250122,37.5012402
37.5012004,127.0104685,,Point,1374,대치메이드반포점학원,127.0104685,37.5012004
37.5025816,127.0107782,,Point,1375,개념상상서초관학원,127.0107782,37.5025816
37.4812486,127.0047957,,Point,1376,최종수학교습소,127.0047957,37.4812486
37.4939156,127.0153481,,Point,1377,솔바이올린학원,127.0153481,37.4939156
37.464536,127.0255795,,Point,1378,웅진씽크빅학습센터우면학원,127.0255795,37.464536
37.4933753,127.0175491,,Point,1379,강남종로교대독서실,127.0175491,37.4933753
37.5012004,127.0104685,,Point,1380,이광희수학교습소,127.0104685,37.5012004
37.4910536,127.0277116,,Point,1381,블리스발레아카데미(BLISS Ballet Academy)학원,127.0277116,37.4910536
37.5072738,127.0072892,,Point,1382,박지용영어학원,127.0072892,37.5072738
37.5152647,127.0146492,,Point,1383,윤소진바이올린교습소,127.0146492,37.5152647
37.5010072,127.0110704,,Point,1384,서초학원3관학원,127.0110704,37.5010072
37.5012907,127.0115643,,Point,1385,반포파인만의치대관학원,127.0115643,37.5012907
37.4834215,127.0135637,,Point,1386,굿스트링아카데미음악학원,127.0135637,37.4834215
37.4925206,127.0144618,,Point,1387,강남대성별관퀀텀라이브러리독서실,127.0144618,37.4925206
37.4922553,127.0259319,,Point,1388,파머스영어학원,127.0259319,37.4922553
37.5057261,127.0021861,,Point,1389,케이플루트음악교습소,127.0021861,37.5057261
37.5012402,127.0250122,,Point,1390,남미숙중국어강남학원,127.0250122,37.5012402
37.4818815,127.0158114,,Point,1391,스루밍아카데미고양이미용학원,127.0158114,37.4818815
37.5030941,126.9956953,,Point,1392,반포래미안해법수학교습소,126.9956953,37.5030941
37.4824649,126.9962655,,Point,1393,브릴란떼창의음악예술학원,126.9962655,37.4824649
37.4880141,127.0089237,,Point,1394,프로기A원격학원,127.0089237,37.4880141
37.4831008,127.0075413,,Point,1395,수학에미친사람들서초1학원,127.0075413,37.4831008
37.4704173,127.0252657,,Point,1396,올리브잉글리쉬영어교습소,127.0252657,37.4704173
37.4823576,127.0386223,,Point,1397,공간가치건축학원,127.0386223,37.4823576
37.4747975,126.9910431,,Point,1398,피엘에이(PLA)수학교습소,126.9910431,37.4747975
37.4872366,126.9842156,,Point,1399,올리브수학교습소,126.9842156,37.4872366
37.4918533,127.0252586,,Point,1400,블루북스리딩서초서이센터학원,127.0252586,37.4918533
37.486975,127.0291892,,Point,1401,에버댄스스포츠아카데미학원,127.0291892,37.486975
37.4826834,126.9922938,,Point,1402,예꼴아트스튜디오(Yeccol Art Studio)학원,126.9922938,37.4826834
37.5140617,127.0184318,,Point,1403,시사저널실무교육센터학원,127.0184318,37.5140617
37.4885896,126.9938654,,Point,1404,RVD입시컨설팅학원,126.9938654,37.4885896
37.5017651,127.0111962,,Point,1405,김소연과학교습소,127.0111962,37.5017651
37.4548242,127.0591276,,Point,1406,스튜디오(STUDIO)선율음악교습소,127.0591276,37.4548242
37.4750098,126.9821765,,Point,1407,한소리국악원교습소,126.9821765,37.4750098
37.4800692,127.0059872,,Point,1408,체리군단영어학원,127.0059872,37.4800692
37.4922553,127.0259319,,Point,1409,서이클라리넷교습소,127.0259319,37.4922553
37.5015015,127.0217403,,Point,1410,이화라엘음악교습소,127.0217403,37.5015015
37.5154139,127.0141834,,Point,1411,그림담미술교습소,127.0141834,37.5154139
37.4910536,127.0277116,,Point,1412,리드101서이영어학원,127.0277116,37.4910536
37.4872576,126.9835143,,Point,1413,에이블수학교습소,126.9835143,37.4872576
37.5015015,127.0217403,,Point,1414,레브빈바이올린스튜디오음악교습소,127.0217403,37.5015015
37.4918533,127.0252586,,Point,1415,티엘영어학원,127.0252586,37.4918533
37.4828718,127.0038922,,Point,1416,서초크라센방배고등관영어학원,127.0038922,37.4828718
37.4642817,127.0253341,,Point,1417,서초발레캐슬아카데미학원,127.0253341,37.4642817
37.4946918,126.9898821,,Point,1418,그림정원미술교습소,126.9898821,37.4946918
37.4848859,127.0217082,,Point,1419,삼성영어서일영어교습소,127.0217082,37.4848859
37.4996258,126.9979132,,Point,1420,한우리독서토론반포4동논술교습소,126.9979132,37.4996258
37.4795094,127.0418359,,Point,1421,조소오픈챙튜디오미술교습소,127.0418359,37.4795094
37.506364,127.0009109,,Point,1422,반포세정스카이관학원,127.0009109,37.506364
37.4910275,126.9839268,,Point,1423,e오일러수학교습소,126.9839268,37.4910275
37.5057261,127.0021861,,Point,1424,박정인영어교습소,127.0021861,37.5057261
37.5043898,127.0008014,,Point,1425,뉴톤제스학원,127.0008014,37.5043898
37.4910536,127.0277116,,Point,1426,두개세개아동미술교습소,127.0277116,37.4910536
37.464536,127.0255795,,Point,1427,리드인서초우면점독서논술교습소,127.0255795,37.464536
37.4655132,127.0217007,,Point,1428,노정현수학교습소,127.0217007,37.4655132
37.5043898,127.0008014,,Point,1429,김대장수학교습소,127.0008014,37.5043898
37.5004858,127.011213,,Point,1430,와이즈만영재입시센터서초학원,127.011213,37.5004858
37.4910536,127.0277116,,Point,1431,라곰플루트교습소,127.0277116,37.4910536
37.4861098,126.9862549,,Point,1432,강한수학학원,126.9862549,37.4861098
37.4566871,127.0599746,,Point,1433,리드인서초내곡포레스타논술교습소,127.0599746,37.4566871
37.4957393,126.9880473,,Point,1434,멘토링영어교습소,126.9880473,37.4957393
37.4910536,127.0277116,,Point,1435,스마트해법서초플래그십학원,127.0277116,37.4910536
37.5023965,127.0101926,,Point,1436,우승희영어학원,127.0101926,37.5023965
37.4868275,127.0211515,,Point,1437,입시왕아카데미학원,127.0211515,37.4868275
37.5052305,127.0226643,,Point,1438,어셔어학원제1별관학원,127.0226643,37.5052305
37.5066358,127.0139482,,Point,1439,에그본학원,127.0139482,37.5066358
37.506106,127.0034252,,Point,1440,아우름영어교습소,127.0034252,37.506106
37.4914078,127.0085396,,Point,1441,메타인프렙입시컨설팅학원,127.0085396,37.4914078
37.5012004,127.0104685,,Point,1442,필즈더클래식서초센터학원,127.0104685,37.5012004
37.464536,127.0255795,,Point,1443,삼성영어셀레나서초우면학습관영어교습소,127.0255795,37.464536
37.5015015,127.0217403,,Point,1444,심포니발레교습소,127.0217403,37.5015015
37.5178575,127.0154635,,Point,1445,반석수학신동관학원,127.0154635,37.5178575
37.5029711,127.0120964,,Point,1446,리베플루트교습소,127.0120964,37.5029711
37.4843395,126.9963195,,Point,1447,피나클(Pinnacle)학원,126.9963195,37.4843395
37.5018941,127.0104593,,Point,1448,큐싸이언스학원,127.0104593,37.5018941
37.4889035,126.9936916,,Point,1449,까사데이밤비니서초학원,126.9936916,37.4889035
37.478119,127.000179,,Point,1450,토토발레교습소,127.000179,37.478119
37.4924074,126.9903878,,Point,1451,발레뜨망학원,126.9903878,37.4924074
37.4770038,126.9824887,,Point,1452,백오클래스학원,126.9824887,37.4770038
37.5061397,127.0010156,,Point,1453,잠원파인만학원,127.0010156,37.5061397
37.5033987,127.009365,,Point,1454,미엘린(MYELIN)학원,127.009365,37.5033987
37.503892,127.0090871,,Point,1455,수학전문짱솔학원,127.0090871,37.503892
37.5020936,127.0106037,,Point,1456,라이프어학원,127.0106037,37.5020936
37.498479,127.0190881,,Point,1457,이영민피아노교습소,127.0190881,37.498479
37.4834499,127.0094136,,Point,1458,로이샘영어교습소,127.0094136,37.4834499
37.5154139,127.0141834,,Point,1459,더국악교습소,127.0141834,37.5154139
37.5057261,127.0021861,,Point,1460,씨리얼영어전문학원,127.0021861,37.5057261
37.4918533,127.0252586,,Point,1461,수학을삼키다강남관학원,127.0252586,37.4918533
37.4778414,127.0003862,,Point,1462,아르떼뮤직음악교습소,127.0003862,37.4778414
37.5065508,127.0048897,,Point,1463,최지연국어논술학원,127.0048897,37.5065508
37.4895923,127.0069353,,Point,1464,서초올마이티수학교습소,127.0069353,37.4895923
37.5030941,126.9956953,,Point,1465,황쌤수학교습소,126.9956953,37.5030941
37.4718308,127.0394242,,Point,1466,코너스톤에듀학원,127.0394242,37.4718308
37.4721802,127.0458525,,Point,1467,연세뮤직아카데미학원,127.0458525,37.4721802
37.4875916,126.9846405,,Point,1468,웨스트민스터영어학원,126.9846405,37.4875916
37.4877773,126.9863228,,Point,1469,수학의탑수학교습소,126.9863228,37.4877773
37.5025816,127.0107782,,Point,1470,빅토리(Victory)학원,127.0107782,37.5025816
37.5074515,127.008056,,Point,1471,제이제이영어학원,127.008056,37.5074515
37.5154139,127.0141834,,Point,1472,오서진플룻교습소,127.0141834,37.5154139
37.506106,127.0034252,,Point,1473,제네시스수학교습소,127.0034252,37.506106
37.4861704,126.9975841,,Point,1474,서초프라임잉글리쉬(Seocho Prime English)영어교습소,126.9975841,37.4861704
37.4823036,127.0048947,,Point,1475,뉴파인서초고등관학원,127.0048947,37.4823036
37.4996258,126.9979132,,Point,1476,허쌤수학1관학원,126.9979132,37.4996258
37.4957393,126.9880473,,Point,1477,조플룻음악교습소,126.9880473,37.4957393
37.482197,127.0040029,,Point,1478,투탑수학관학원,127.0040029,37.482197
37.4710827,127.0250988,,Point,1479,씨드학원,127.0250988,37.4710827
37.4957393,126.9880473,,Point,1480,서래기타음악교습소,126.9880473,37.4957393
37.5067454,127.0055318,,Point,1481,이룸음악교습소,127.0055318,37.5067454
37.4720857,127.0464189,,Point,1482,오쌤국어교습소,127.0464189,37.4720857
37.5035783,127.0092948,,Point,1483,반포한수위수학교습소,127.0092948,37.5035783
37.4714695,127.0448779,,Point,1484,지수학교습소,127.0448779,37.4714695
37.5024548,127.0236958,,Point,1485,퍼스트바리스타제과제빵학원,127.0236958,37.5024548
37.4864978,126.9947642,,Point,1486,원컴퍼니2020학원,126.9947642,37.4864978
37.4710511,127.024534,,Point,1487,필립컬리짓학원,127.024534,37.4710511
37.4932005,126.9882964,,Point,1488,아테네학당논술학원,126.9882964,37.4932005
37.5148039,127.0166687,,Point,1489,JYDMC연기학원,127.0166687,37.5148039
37.4922553,127.0259319,,Point,1490,영렘브란트서초센터학원,127.0259319,37.4922553
37.4857295,127.0213015,,Point,1491,다이노잉글리쉬학원,127.0213015,37.4857295
37.4836932,127.0355523,,Point,1492,더드림댄스스튜디오학원,127.0355523,37.4836932
37.4919398,126.9831342,,Point,1493,한올국어학원,126.9831342,37.4919398
37.5072738,127.0072892,,Point,1494,조스영어(Jo's 영어)교습소,127.0072892,37.5072738
37.4919238,126.9886189,,Point,1495,신나라음악학원,126.9886189,37.4919238
37.4961094,126.9997583,,Point,1496,비욘드코딩2관학원,126.9997583,37.4961094
37.4953698,127.0277348,,Point,1497,라인아트미술학원,127.0277348,37.4953698
37.4910536,127.0277116,,Point,1498,라빈스잉글리쉬프렙(Robin'sEnglishPrep)영어교습소,127.0277116,37.4910536
37.4995082,126.9999844,,Point,1499,반포발레아카데미학원,126.9999844,37.4995082
37.5003622,127.0104456,,Point,1500,자라다남아미술학원,127.0104456,37.5003622
37.485785,127.0324159,,Point,1501,빅클래스원격교습학원,127.0324159,37.485785
37.4880236,127.0274116,,Point,1502,생각하는황소서초4관학원,127.0274116,37.4880236
37.4708711,127.0455299,,Point,1503,엔(N)수학교습소,127.0455299,37.4708711
37.4943965,127.0277135,,Point,1504,상상로스쿨학원,127.0277135,37.4943965
37.4886705,127.0163103,,Point,1505,쌤아카데미원격학원,127.0163103,37.4886705
37.465661,127.0221397,,Point,1506,선별영어학원,127.0221397,37.465661
37.4880236,127.0274116,,Point,1507,중심학원,127.0274116,37.4880236
37.4872409,126.9836728,,Point,1508,미쌤영어교습소,126.9836728,37.4872409
37.4705513,127.025117,,Point,1509,홀가크리스천아카데미학원,127.025117,37.4705513
37.4922553,127.0259319,,Point,1510,베니의키즈잉글리시(Kids English)영어교습소,127.0259319,37.4922553
37.4955065,126.9892717,,Point,1511,아르떼에비뉴영어교습소,126.9892717,37.4955065
37.5052444,127.0221665,,Point,1512,리오베플라워학원,127.0221665,37.5052444
37.5007491,127.0007482,,Point,1513,딥딥잉글리시(DEEPDEEPENGLISH)영어교습소,127.0007482,37.5007491
37.4945614,127.0280393,,Point,1514,베리타스원격학원,127.0280393,37.4945614
37.491083,126.983044,,Point,1515,빅토리아영어교습소,126.983044,37.491083
37.4950395,127.0193819,,Point,1516,림박프랑스어학원,127.0193819,37.4950395
37.4822767,126.9837401,,Point,1517,페이머스댄스학원,126.9837401,37.4822767
37.5029817,127.0101396,,Point,1518,큐매쓰학원,127.0101396,37.5029817
37.4817572,126.9967498,,Point,1519,모스톤(mosTone)보컬아카데미학원,126.9967498,37.4817572
37.5107167,127.019256,,Point,1520,이룸아나운서스피치아카데미학원,127.019256,37.5107167
37.4918533,127.0252586,,Point,1521,책읽기와글쓰기리딩엠서초사임당학원,127.0252586,37.4918533
37.4881152,127.010234,,Point,1522,멘토학원,127.010234,37.4881152
37.4847365,127.0178205,,Point,1523,퍼스트액터스학원,127.0178205,37.4847365
37.4928362,126.9899523,,Point,1524,제이포커스잉글리시방배1관학원,126.9899523,37.4928362
37.5004794,127.0104441,,Point,1525,연세스트링아카데미학원,127.0104441,37.5004794
37.5029711,127.0120964,,Point,1526,아이자라다미술학원,127.0120964,37.5029711
37.4976025,126.9994443,,Point,1527,문네프아뜰리에미술교습소,126.9994443,37.4976025
37.5024309,127.0121487,,Point,1528,칠삼공수학교습소,127.0121487,37.5024309
37.4955992,126.9832768,,Point,1529,마녀쌤영어방배관학원,126.9832768,37.4955992
37.5024548,127.0236958,,Point,1530,모데스트플로리스트학원,127.0236958,37.5024548
37.5000631,127.0113091,,Point,1531,서초압구정국어논술학원,127.0113091,37.5000631
37.5017311,127.0103597,,Point,1532,생각플러스학원,127.0103597,37.5017311
37.4904363,126.9895888,,Point,1533,이루다방배어학원,126.9895888,37.4904363
37.5018138,127.0246315,,Point,1534,올댓뷰티아카데미입시학원,127.0246315,37.5018138
37.5154139,127.0141834,,Point,1535,씨이씨영어학원,127.0141834,37.5154139
37.4929112,126.9892389,,Point,1536,디지털첨단수학교습소,126.9892389,37.4929112
37.5067454,127.0055318,,Point,1537,이지알랩(EGR lab)영어교습소,127.0055318,37.5067454
37.4888227,126.9873943,,Point,1538,밀라노아트스튜디오미술교습소,126.9873943,37.4888227
37.485538,126.9857764,,Point,1539,빅토리영어학원,126.9857764,37.485538
37.5021451,126.9869203,,Point,1540,김선희국어대장국어교습소,126.9869203,37.5021451
37.4963742,126.9832776,,Point,1541,케이튜터반포수학학원,126.9832776,37.4963742
37.5017476,127.0123274,,Point,1542,진수학교습소,127.0123274,37.5017476
37.5035783,127.0092948,,Point,1543,봉프앙프렌치아틀리에학원,127.0092948,37.5035783
37.4864795,126.9852435,,Point,1544,선앤미색채미술학원,126.9852435,37.4864795
37.4987951,127.0094485,,Point,1545,오르다국어교습소,127.0094485,37.4987951
37.4910506,126.9855662,,Point,1546,뉴파인반포서경관학원,126.9855662,37.4910506
37.4873292,126.9845084,,Point,1547,라엘뮤직앤아트전문학원,126.9845084,37.4873292
37.4931648,126.9862387,,Point,1548,딜라이프댄스스포츠(DELife Dance Sports)학원,126.9862387,37.4931648
37.4918533,127.0252586,,Point,1549,페인트박스미술학원,127.0252586,37.4918533
37.5096033,127.0014445,,Point,1550,메종드피아노교습소,127.0014445,37.5096033
37.5149292,127.0187258,,Point,1551,소미끄뷰티더아카데미학원,127.0187258,37.5149292
37.491726,126.9834198,,Point,1552,fx수학교습소,126.9834198,37.491726
37.5074515,127.008056,,Point,1553,즐겁게피아노음악교습소,127.008056,37.5074515
37.4922757,126.988682,,Point,1554,브라가밸리어학원,126.988682,37.4922757
37.4911727,127.0290444,,Point,1555,깊은수학교습소,127.0290444,37.4911727
37.4695497,127.0448006,,Point,1556,가맹거래사협회교육원원격학원,127.0448006,37.4695497
37.4822018,127.0088648,,Point,1557,리드인서초슬기샘신중점독서논술교습소,127.0088648,37.4822018
37.4995585,126.9984682,,Point,1558,김지은이화무용학원,126.9984682,37.4995585
37.5010511,127.0087853,,Point,1559,아인수학교습소,127.0087853,37.5010511
37.5017476,127.0123274,,Point,1560,권선생사회탐구교습소,127.0123274,37.5017476
37.5021451,126.9869203,,Point,1561,류진국어교습소,126.9869203,37.5021451
37.4875916,126.9846405,,Point,1562,키즈브러시미술학원,126.9846405,37.4875916
37.4880236,127.0274116,,Point,1563,키잉글리쉬(키프랩)학원,127.0274116,37.4880236
37.4566871,127.0599746,,Point,1564,내곡스마트해법수학교습소,127.0599746,37.4566871
37.5025816,127.0107782,,Point,1565,와이키즈서초본원학원,127.0107782,37.5025816
37.4658344,127.0224087,,Point,1566,엘학원,127.0224087,37.4658344
37.4918533,127.0252586,,Point,1567,레인보우아트미술학원,127.0252586,37.4918533
37.5066358,127.0139482,,Point,1568,미문수학교습소,127.0139482,37.5066358
37.483339,127.0090872,,Point,1569,랑바이올린교습소,127.0090872,37.483339
37.4796886,127.0057322,,Point,1570,가인서초학종관학원,127.0057322,37.4796886
37.5140746,127.0178094,,Point,1571,키마미술학원,127.0178094,37.5140746
37.4886623,127.0272903,,Point,1572,마이리틀팔레트미술교습소,127.0272903,37.4886623
37.503892,127.0090871,,Point,1573,서초티오티(TOT)반포2관학원,127.0090871,37.503892
37.4925761,127.0092479,,Point,1574,해피맘연기학원,127.0092479,37.4925761
37.506106,127.0034252,,Point,1575,서초한수위수학교습소,127.0034252,37.506106
37.4922553,127.0259319,,Point,1576,서이하연과학교습소,127.0259319,37.4922553
37.4932185,126.9893478,,Point,1577,디엘르발레학원,126.9893478,37.4932185
37.4692144,127.0467946,,Point,1578,소어(soarpiano)피아노교습소,127.0467946,37.4692144
37.4856858,127.0302009,,Point,1579,진논술교습소,127.0302009,37.4856858
37.499675,127.0101493,,Point,1580,리드인지인국어학원,127.0101493,37.499675
37.4933593,126.9889501,,Point,1581,제이포커스잉글리시방배2관학원,126.9889501,37.4933593
37.4554791,127.0610296,,Point,1582,서초이화음악학원,127.0610296,37.4554791
37.464536,127.0255795,,Point,1583,생각하는미술학원,127.0255795,37.464536
37.4852231,127.0408584,,Point,1585,리베라입시전문원격학원,127.0408584,37.4852231
37.4825372,127.0048125,,Point,1586,서울상문수학전문학원,127.0048125,37.4825372
37.5070327,127.006478,,Point,1587,반포새빛가야금교습소,127.006478,37.5070327
37.4646512,127.0275223,,Point,1588,피플음악교습소,127.0275223,37.4646512
37.5074515,127.008056,,Point,1589,등대영어교습소,127.008056,37.5074515
37.4838469,126.9966653,,Point,1590,스마트해법수학영어서초방배스마트플레이스학원,126.9966653,37.4838469
37.4961119,127.0194018,,Point,1591,뻔fun영어교습소,127.0194018,37.4961119
37.4879057,127.0153592,,Point,1592,입시왕아카데미온원격교습학원,127.0153592,37.4879057
37.4906146,126.9925265,,Point,1593,독도원격학원,126.9925265,37.4906146
37.5021451,126.9869203,,Point,1594,현지연영어교습소,126.9869203,37.5021451
37.4970845,127.0236865,,Point,1595,서초베리타스수학학원,127.0236865,37.4970845
37.5067454,127.0055318,,Point,1596,3.1영어독립영어교습소,127.0055318,37.5067454
37.4918533,127.0252586,,Point,1597,닥터정프라임영어학원,127.0252586,37.4918533
37.4932005,126.9882964,,Point,1598,오뜨아뜰리에미술교습소,126.9882964,37.4932005
37.5072738,127.0072892,,Point,1599,최홍국어논술학원,127.0072892,37.5072738
37.5109882,127.0183136,,Point,1600,오엠지댄스학원,127.0183136,37.5109882
37.51457,127.0177916,,Point,1601,왕연기아카데미학원,127.0177916,37.51457
37.4945614,127.0280393,,Point,1602,독한국어원격학원,127.0280393,37.4945614
37.4996258,126.9979132,,Point,1603,이룸융합과학교습소,126.9979132,37.4996258
37.5033987,127.009365,,Point,1604,아이이엠(IEM)잉글리시아카데미학원,127.009365,37.5033987
37.4970845,127.0236865,,Point,1605,그래머에이펙스영어교습소,127.0236865,37.4970845
37.4957393,126.9880473,,Point,1606,매직트리영어교습소,126.9880473,37.4957393
37.4856623,127.0164628,,Point,1607,잼코딩서초학원,127.0164628,37.4856623
37.4934234,127.0233497,,Point,1608,유에스아이에스(USIS)어학원,127.0233497,37.4934234
37.5007491,127.0007482,,Point,1609,움트생각이자라는독서논술교습소,127.0007482,37.5007491
37.487905,127.0272323,,Point,1610,한우리서초2동독서논술교습소,127.0272323,37.487905
37.4807378,126.9997936,,Point,1611,고양이피아노교습소,126.9997936,37.4807378
37.5089457,127.0219259,,Point,1612,윤빌리티강남점학원,127.0219259,37.5089457
37.5010848,127.010651,,Point,1613,레몬수학교습소,127.010651,37.5010848
37.5096033,127.0014445,,Point,1614,개념의신수학교습소,127.0014445,37.5096033
37.4886623,127.0272903,,Point,1615,글그리다미술학원,127.0272903,37.4886623
37.5021051,127.0109089,,Point,1616,스피치마루지반포센터학원,127.0109089,37.5021051
37.4826197,127.0060552,,Point,1617,아이겐수학교습소,127.0060552,37.4826197
37.5036657,127.0100401,,Point,1618,이타적인간의이기적공부법2관학원,127.0100401,37.5036657
37.4771264,126.9852118,,Point,1619,액터스베이스캠프연기아카데미학원,126.9852118,37.4771264
37.4812486,127.0047957,,Point,1620,번잉글리시영어교습소,127.0047957,37.4812486
37.4910536,127.0277116,,Point,1621,그림숲아트미술교습소,127.0277116,37.4910536
37.4978969,126.9853718,,Point,1622,에이엠비(AMB)자기주도센터학원,126.9853718,37.4978969
37.4848696,126.99508,,Point,1623,에이리스트영어학원,126.99508,37.4848696
37.4716056,127.0394271,,Point,1624,코너스톤스팀(Cornerstone STEAM)학원,127.0394271,37.4716056
37.517342,127.0184906,,Point,1625,국제패션디자인학원,127.0184906,37.517342
37.5050565,127.0223273,,Point,1626,365필름아트진학상담지도교습소,127.0223273,37.5050565
37.4861926,127.0141492,,Point,1627,플로잉아카데미학원,127.0141492,37.4861926
37.4961119,127.0194018,,Point,1628,위드미애프터스쿨학원,127.0194018,37.4961119
37.4939546,126.990073,,Point,1629,링키영어방배영어교습소,126.990073,37.4939546
37.5100109,127.0199892,,Point,1630,퍼펙트제이댄스스튜디오(Perfect J studio)학원,127.0199892,37.5100109
37.4886623,127.0272903,,Point,1631,리엘바이올린음악교습소,127.0272903,37.4886623
37.5039668,127.0104885,,Point,1632,이타적인간의이기적공부학원,127.0104885,37.5039668
37.5017311,127.0103597,,Point,1633,반포미술아카데미학원,127.0103597,37.5017311
37.4979488,126.9977886,,Point,1634,멘토영어교습소,126.9977886,37.4979488
37.4840341,127.0375832,,Point,1635,서울유에듀원격학원,127.0375832,37.4840341
37.4922553,127.0259319,,Point,1636,빈음악학원,127.0259319,37.4922553
37.488358,127.0286285,,Point,1637,루즈벨트컬리짓서울학원,127.0286285,37.488358
37.4911727,127.0290444,,Point,1638,세훈학원,127.0290444,37.4911727
37.4886623,127.0272903,,Point,1639,체리쌤창의수학교습소,127.0272903,37.4886623
37.4961119,127.0194018,,Point,1640,독학재수현우혁논술학원,127.0194018,37.4961119
37.4947991,126.9897902,,Point,1641,에이밍영어교습소,126.9897902,37.4947991
37.4716993,127.045429,,Point,1642,제니에듀케이션학원,127.045429,37.4716993
37.4993451,126.9977473,,Point,1643,레벨업수학교습소,126.9977473,37.4993451
37.4934938,127.0286073,,Point,1644,메가스터디컴퓨터아카데미강남학원,127.0286073,37.4934938
37.506106,127.0034252,,Point,1645,올라논술교습소,127.0034252,37.506106
37.506106,127.0034252,,Point,1646,아이엘엠(ILM)수학교습소,127.0034252,37.506106
37.5023513,127.0112563,,Point,1647,매쓰넛수학학원,127.0112563,37.5023513
37.4816486,127.0411868,,Point,1648,어굿스쿨원격학원,127.0411868,37.4816486
37.4834499,127.0094136,,Point,1649,뿅과학교습소,127.0094136,37.4834499
37.503892,127.0090871,,Point,1650,클라디반포관학원,127.0090871,37.503892
37.5029711,127.0120964,,Point,1651,서원하연과학교습소,127.0120964,37.5029711
37.4922553,127.0259319,,Point,1653,리드인국어논술학원,127.0259319,37.4922553
37.4830297,126.9969929,,Point,1654,방배바른미술학원,126.9969929,37.4830297
37.4736986,127.0430746,,Point,1655,해오름달학원,127.0430746,37.4736986
37.5065508,127.0048897,,Point,1656,한라백두수학교습소,127.0048897,37.5065508
37.4723372,127.046314,,Point,1657,탑잉글리쉬학원,127.046314,37.4723372
37.5035548,127.0097136,,Point,1658,파리아트마인서초학원,127.0097136,37.5035548
37.5021181,127.0113838,,Point,1659,기파랑중등관반포학원,127.0113838,37.5021181
37.4824393,127.0060236,,Point,1660,서리풀고등관학원,127.0060236,37.4824393
37.4901386,127.0129891,,Point,1661,얼티밋커리어그룹학원,127.0129891,37.4901386
37.4818114,127.0063598,,Point,1662,세로토닌수학교습소,127.0063598,37.4818114
37.4942678,127.0186909,,Point,1663,비이씨영국에듀학원,127.0186909,37.4942678
37.4999252,127.0174633,,Point,1664,키투러닝(KEY2LEARNING)학원,127.0174633,37.4999252
37.5012004,127.0104685,,Point,1665,토론하는고릴라논술교습소,127.0104685,37.5012004
37.5012004,127.0104685,,Point,1666,필즈더클래식원격학원,127.0104685,37.5012004
37.4981339,127.0252901,,Point,1667,해커스경영아카데미제1별관독서실,127.0252901,37.4981339
37.4817141,126.9853758,,Point,1668,자연수학교습소,126.9853758,37.4817141
37.4956486,127.0135386,,Point,1669,로렌스빌아카데미원격학원,127.0135386,37.4956486
37.4876108,126.9858162,,Point,1670,리드인(방배으뜸점)독서논술교습소,126.9858162,37.4876108
37.4910413,127.0067351,,Point,1671,에스에스아이서초(SSISEOCHO)학원,127.0067351,37.4910413
37.4910413,127.0067351,,Point,1672,에스에스아이서초(SSISEOCHO)주니어학원,127.0067351,37.4910413
37.5034404,127.0197584,,Point,1673,어소트락게임아카데미학원,127.0197584,37.5034404
37.506106,127.0034252,,Point,1674,생각하는두꺼비수학7관학원,127.0034252,37.506106
37.4873868,127.0266736,,Point,1675,에듀코치개별지도서초그랑자이학원,127.0266736,37.4873868
37.5066358,127.0139482,,Point,1676,타이니크리에이터미술학원,127.0139482,37.5066358
37.4932153,127.0287126,,Point,1677,수능선배학원,127.0287126,37.4932153
37.4817615,127.0111546,,Point,1678,음그음악학원,127.0111546,37.4817615
37.4928176,127.0285595,,Point,1679,에이프렙원격학원,127.0285595,37.4928176
37.4946999,127.0143087,,Point,1680,스텝(Step)수학교습소,127.0143087,37.4946999
37.4961099,127.0137474,,Point,1681,미국수학교습소,127.0137474,37.4961099
37.4825886,126.9843803,,Point,1682,우수아아트스튜디오미술교습소,126.9843803,37.4825886
37.4966457,127.0251172,,Point,1683,새봄국어원격학원,127.0251172,37.4966457
37.5043898,127.0008014,,Point,1684,시대인재반포센터5층학원,127.0008014,37.5043898
37.4834499,127.0094136,,Point,1685,큐리수학교습소,127.0094136,37.4834499
37.483339,127.0090872,,Point,1686,윤선생우리집앞영어교실서초영어교습소,127.0090872,37.483339
37.4654114,127.0213742,,Point,1687,랑상블플루트스튜디오음악교습소,127.0213742,37.4654114
37.4861987,127.0224713,,Point,1688,뮤랭아카데미원격학원,127.0224713,37.4861987
37.506106,127.0034252,,Point,1689,스마트보카영어교습소,127.0034252,37.506106
37.5149802,127.0183632,,Point,1690,다락방창작학원,127.0183632,37.5149802
37.5152979,127.0164812,,Point,1691,아이비펜타원격학원,127.0164812,37.5152979
37.5154139,127.0141834,,Point,1692,아이콘수학교습소,127.0141834,37.5154139
37.4787238,126.985518,,Point,1693,아누미술학원,126.985518,37.4787238
37.5010848,127.010651,,Point,1694,뉴파인반포고특별관학원,127.010651,37.5010848
37.4639903,127.0249649,,Point,1695,더와이즈리딩학원,127.0249649,37.4639903
37.4952811,127.0181009,,Point,1696,튜튜발레별관학원,127.0181009,37.4952811
37.4935073,126.9831016,,Point,1697,예종앙볼리발레학원,126.9831016,37.4935073
37.5000631,127.0113091,,Point,1698,겟앤씨어학원,127.0113091,37.5000631
37.4886623,127.0272903,,Point,1699,핀랩(FINNLAB)국제영어교습소,127.0272903,37.4886623
37.496949,126.9862102,,Point,1700,일심수학학원,126.9862102,37.496949
37.506106,127.0034252,,Point,1701,민선생영어학원,127.0034252,37.506106
37.4933165,127.0148132,,Point,1702,서초메가스터디독서실,127.0148132,37.4933165
37.4819233,127.0046736,,Point,1703,신태풍영어학원,127.0046736,37.4819233
37.4783218,127.000719,,Point,1704,키즈엔리딩영어교습소,127.000719,37.4783218
37.4878325,126.9864578,,Point,1705,101영어교습소,126.9864578,37.4878325
37.4910332,126.9845826,,Point,1706,로고스영어전문교습소,126.9845826,37.4910332
37.4743303,127.0431909,,Point,1707,갑뮤지컬연기아카데미학원,127.0431909,37.4743303
37.4966197,127.014374,,Point,1708,오늘의공부학원,127.014374,37.4966197
37.4564778,127.0154549,,Point,1709,위라이크아트미술교습소,127.0154549,37.4564778
37.5027093,127.0217811,,Point,1710,아이비실용음악학원,127.0217811,37.5027093
37.5107308,127.0187921,,Point,1711,미래엔초코원격학원,127.0187921,37.5107308
37.4935073,126.9831016,,Point,1712,비우미술학원,126.9831016,37.4935073
37.4831474,127.0077216,,Point,1713,새샘과학전문학원,127.0077216,37.4831474
37.5021451,126.9869203,,Point,1714,아이겐수학반포수학교습소,126.9869203,37.5021451
37.4976938,126.9985271,,Point,1715,쥬트서래마을아뜰리에학원,126.9985271,37.4976938
37.4889269,126.9827453,,Point,1716,더브릿지학원,126.9827453,37.4889269
37.496656,126.9877635,,Point,1717,수학하다수학교습소,126.9877635,37.496656
37.5121132,127.0192491,,Point,1718,패트릭에듀원격학원,127.0192491,37.5121132
37.5016692,127.0115707,,Point,1719,서초SCE어학원,127.0115707,37.5016692
37.4800029,126.9854668,,Point,1720,리드인방배이수독서논술교습소,126.9854668,37.4800029
37.4770714,127.0009618,,Point,1721,리드인독서논술교습소,127.0009618,37.4770714
37.5154139,127.0141834,,Point,1722,잠원리드인늘품독서논술교습소,127.0141834,37.5154139
37.4598222,127.0724371,,Point,1723,엘에스피어학원,127.0724371,37.4598222
37.5002071,127.0102102,,Point,1724,(주)크레버스청담어학원서초제2지점학원,127.0102102,37.5002071
37.506106,127.0034252,,Point,1725,서초해담해금전문교습소,127.0034252,37.506106
37.4966713,126.9980205,,Point,1726,잉클링스어학원,126.9980205,37.4966713
37.4910154,127.010094,,Point,1727,교대위드피아노학원,127.010094,37.4910154
37.4764308,126.9871092,,Point,1728,서초세종무용학원,126.9871092,37.4764308
37.5113325,127.0196325,,Point,1729,톤연기뮤지컬학원,127.0196325,37.5113325
37.5162716,127.0100772,,Point,1730,연산수학교습소,127.0100772,37.5162716
37.4861704,126.9975841,,Point,1731,희주아트센터미술교습소,126.9975841,37.4861704
37.4847087,126.996292,,Point,1732,아르떼뮤직학원,126.996292,37.4847087
37.5162716,127.0100772,,Point,1733,한우리서초잠원논술교습소,127.0100772,37.5162716
37.4741122,127.034104,,Point,1734,아지트(AZIT)국어교습소,127.034104,37.4741122
37.5059333,127.0011202,,Point,1735,자람영재수학학원,127.0011202,37.5059333
37.4841689,127.0353314,,Point,1737,하우솔교육센터원격학원,127.0353314,37.4841689
37.4961119,127.0194018,,Point,1738,니즈수학교습소,127.0194018,37.4961119
37.491083,126.983044,,Point,1739,꽃필무렵국어교습소,126.983044,37.491083
37.4886705,127.0163103,,Point,1740,머니테라피원격학원,127.0163103,37.4886705
37.4836702,127.0415906,,Point,1741,양재도담수학교습소,127.0415906,37.4836702
37.4771875,126.9870877,,Point,1742,리치스쿨학원,126.9870877,37.4771875
37.4822368,127.0044547,,Point,1743,블루플랜학원,127.0044547,37.4822368
37.4951584,126.9896609,,Point,1744,무지개키즈한자교습소,126.9896609,37.4951584
37.4566024,127.0595123,,Point,1745,수학싸부원격학원,127.0595123,37.4566024
37.5065508,127.0048897,,Point,1746,애플과학학원,127.0048897,37.5065508
37.4929899,127.028693,,Point,1747,쏭즈캠퍼스원격학원,127.028693,37.4929899
37.4764308,126.9871092,,Point,1748,종로기술사사당분원학원,126.9871092,37.4764308
37.5012004,127.0104685,,Point,1750,섭샘수학교습소,127.0104685,37.5012004
37.4922553,127.0259319,,Point,1751,한백학원,127.0259319,37.4922553
37.5108598,127.0191297,,Point,1752,모자이크메이크업아카데미메이크업교습소,127.0191297,37.5108598
37.4853053,127.0310539,,Point,1753,아뜰리에아벡누학원,127.0310539,37.4853053
37.4939546,126.990073,,Point,1754,고릴라수학교습소,126.990073,37.4939546
37.4720874,127.0455145,,Point,1755,옥토퍼스학원,127.0455145,37.4720874
37.475228,127.036136,,Point,1756,온뮤직실용음악학원,127.036136,37.475228
37.5120611,127.0184014,,Point,1757,스피치라운지학원,127.0184014,37.5120611
37.4922553,127.0259319,,Point,1758,아이셀프수학교습소,127.0259319,37.4922553
37.4922553,127.0259319,,Point,1759,리만수학교습소,127.0259319,37.4922553
37.4930379,127.0084389,,Point,1760,투영맨엘셋(LSAT)원격학원,127.0084389,37.4930379
37.4617505,127.0232419,,Point,1761,최쌤수학교습소,127.0232419,37.4617505
37.4816598,127.0129989,,Point,1762,빌리발레스튜디오학원,127.0129989,37.4816598
37.4830734,126.996834,,Point,1763,천년의미소S클래스미술학원,126.996834,37.4830734
37.4852649,127.030523,,Point,1764,어썸보컬학원,127.030523,37.4852649
37.5045113,127.0217689,,Point,1765,오늘발레스튜디오학원,127.0217689,37.5045113
37.4951193,127.0279529,,Point,1766,누나영아카데미원격학원,127.0279529,37.4951193
37.4732525,127.0402878,,Point,1767,아트클라슈학원,127.0402878,37.4732525
37.4957393,126.9880473,,Point,1768,취소,126.9880473,37.4957393
37.4957393,126.9880473,,Point,1769,리드인방배서래초점논술교습소,126.9880473,37.4957393
37.4922553,127.0259319,,Point,1770,상운수학학원,127.0259319,37.4922553
37.5105749,127.0184661,,Point,1771,프리픽스무브먼트학원,127.0184661,37.5105749
37.5105749,127.0184661,,Point,1772,프리픽스무브먼트제2관학원,127.0184661,37.5105749
37.4999252,127.0174633,,Point,1773,메타바둑교습소,127.0174633,37.4999252
37.4886623,127.0272903,,Point,1774,서초사고력수학교습소,127.0272903,37.4886623
37.4903944,127.0134155,,Point,1775,교대기술사학원,127.0134155,37.4903944
37.5037962,127.0105586,,Point,1776,카네기영어창의코딩학원,127.0105586,37.5037962
37.5072738,127.0072892,,Point,1777,수학의답학원,127.0072892,37.5072738
37.5010511,127.0087853,,Point,1778,점프셈주산수학교습소,127.0087853,37.5010511
37.4911727,127.0290444,,Point,1779,원네스트원격학원,127.0290444,37.4911727
37.4873868,127.0266736,,Point,1780,비에프스쿨학원,127.0266736,37.4873868
37.4714695,127.0448779,,Point,1781,마인드영어교습소,127.0448779,37.4714695
37.4981942,126.9864195,,Point,1782,박정규과학연구소원격학원,126.9864195,37.4981942
37.4948005,127.0286243,,Point,1783,어피셜원격학원,127.0286243,37.4948005
37.4923873,126.9943686,,Point,1784,아키차일드학원,126.9943686,37.4923873
37.4860992,127.0191596,,Point,1785,엘리하이키즈원격학원,127.0191596,37.4860992
37.4860992,127.0191596,,Point,1786,엘리하이원격학원,127.0191596,37.4860992
37.4910536,127.0277116,,Point,1787,이메진(IMAGEN)영어교습소,127.0277116,37.4910536
37.4853655,126.9940557,,Point,1788,이지아카데미원격학원,126.9940557,37.4853655
37.5197943,127.0143407,,Point,1789,탑과학교습소,127.0143407,37.5197943
37.4844731,126.9824439,,Point,1790,커뮤니케이션티움학원,126.9824439,37.4844731
37.4930766,126.9906615,,Point,1791,아람국어교습소,126.9906615,37.4930766
37.4886623,127.0272903,,Point,1792,연음뮤직스튜디오음악교습소,127.0272903,37.4886623
37.5029711,127.0120964,,Point,1793,승승장구수학학원,127.0120964,37.5029711
37.5010848,127.010651,,Point,1794,신수학교습소,127.010651,37.5010848
37.4925979,126.9894806,,Point,1795,그로우플래닛영어교습소,126.9894806,37.4925979
37.4945614,127.0280393,,Point,1796,동제편입원격학원,127.0280393,37.4945614
37.4939546,126.990073,,Point,1797,카멜의숲미술학원,126.990073,37.4939546
37.4951769,127.0196515,,Point,1798,열린아카데미원격학원,127.0196515,37.4951769
37.4482614,127.0553559,,Point,1799,잼(JAM)아카데미학원,127.0553559,37.4482614
37.4908178,126.985739,,Point,1800,에쓰디씨1학원,126.985739,37.4908178
37.5007491,127.0007482,,Point,1801,융합인재학원,127.0007482,37.5007491
37.4910127,126.9853518,,Point,1802,에쓰디씨2학원,126.9853518,37.4910127
37.4714695,127.0448779,,Point,1803,사우(師友)국어교습소,127.0448779,37.4714695
37.5030941,126.9956953,,Point,1804,리드인신반포점독서논술교습소,126.9956953,37.5030941
37.5100109,127.0199892,,Point,1805,퍼펙트제이댄스스튜디오글로벌센터학원,127.0199892,37.5100109
37.4873726,127.0315247,,Point,1806,수엑터레슨연기학원,127.0315247,37.4873726
37.487905,127.0272323,,Point,1807,더로사(The Rosa)영어교습소,127.0272323,37.487905
37.4954935,127.0187201,,Point,1808,교대타임독학재수학원,127.0187201,37.4954935
37.5057261,127.0021861,,Point,1809,엠에이치(MH)수학교습소,127.0021861,37.5057261
37.4813372,127.0142921,,Point,1810,에스비씨어학원,127.0142921,37.4813372
37.5072738,127.0072892,,Point,1811,메이커뮤직음악교습소,127.0072892,37.5072738
37.499675,127.0101493,,Point,1812,나비아트폴리오미술학원,127.0101493,37.499675
37.4799656,126.9990577,,Point,1813,더수학교습소,126.9990577,37.4799656
37.5072738,127.0072892,,Point,1814,대치서영우국어교습소,127.0072892,37.5072738
37.5072738,127.0072892,,Point,1815,리드인서초반원초점논술교습소,127.0072892,37.5072738
37.4860471,126.9926218,,Point,1816,오수학교습소,126.9926218,37.4860471
37.4887164,127.0305802,,Point,1817,링크아카데미학원,127.0305802,37.4887164
37.5066358,127.0139482,,Point,1818,연세하모니성악교습소,127.0139482,37.5066358
37.4922553,127.0259319,,Point,1819,비상수학교습소,127.0259319,37.4922553
37.4961216,127.0249318,,Point,1820,당근자판기원격평생직업교육학원,127.0249318,37.4961216
37.4845559,127.0210341,,Point,1821,빅루트아카데미연기학원,127.0210341,37.4845559
37.4972486,127.0184822,,Point,1822,엘로이피아노교습소,127.0184822,37.4972486
37.4812882,127.0389752,,Point,1823,길포드아카데미학원,127.0389752,37.4812882
37.5046509,127.0018385,,Point,1824,비발디음악학원,127.0018385,37.5046509
37.5046509,127.0018385,,Point,1825,매직피아노학원,127.0018385,37.5046509
37.5046509,127.0018385,,Point,1826,반포세빛스즈키바이올린음악학원,127.0018385,37.5046509
37.4751516,127.0422534,,Point,1827,프리매쓰원격학원,127.0422534,37.4751516
37.4947334,127.0281389,,Point,1828,리피치원격학원,127.0281389,37.4947334
37.4783846,126.9837928,,Point,1829,그림화원성인취미미술학원,126.9837928,37.4783846
37.5017311,127.0103597,,Point,1830,오라수학학원,127.0103597,37.5017311
37.4818858,127.0044932,,Point,1831,서초크라센방배고등2관영어학원,127.0044932,37.4818858
37.4912795,127.022326,,Point,1832,레드펭귄미술학원,127.022326,37.4912795
37.4978484,126.9860171,,Point,1833,서초방배소마학원,126.9860171,37.4978484
37.506106,127.0034252,,Point,1834,꼼꼼영어교습소,127.0034252,37.506106
37.5002071,127.0102102,,Point,1835,한선영어학원,127.0102102,37.5002071
37.4722908,127.0461563,,Point,1836,더베스트영어학원,127.0461563,37.4722908
37.5088734,127.0197213,,Point,1837,배우앤배움입시센터학원,127.0197213,37.5088734
37.5088734,127.0197213,,Point,1838,배우앤배움하이틴센터학원,127.0197213,37.5088734
37.518531,127.0130338,,Point,1839,이화아트레브신반포미술교습소,127.0130338,37.518531
37.4962475,126.9979809,,Point,1840,헤세드영재학원,126.9979809,37.4962475
37.506106,127.0034252,,Point,1841,연세수秀과학교습소,127.0034252,37.506106
37.4916404,127.0158756,,Point,1842,시드학원,127.0158756,37.4916404
37.5018941,127.0104593,,Point,1843,진선생제2관영어학원,127.0104593,37.5018941
37.5067454,127.0055318,,Point,1844,아샘수학교습소,127.0055318,37.5067454
37.4936535,126.9938654,,Point,1845,에듀플렉스에듀코치개별지도방배학원,126.9938654,37.4936535
37.4873943,126.9857966,,Point,1846,인벤션음악교습소,126.9857966,37.4873943
37.4862071,126.9871016,,Point,1847,멘토스국어논술학원,126.9871016,37.4862071
37.4885218,126.9838364,,Point,1848,위드유영어(WithUEnglish)전문학원,126.9838364,37.4885218
37.4824689,127.0041915,,Point,1849,김종철국어수학전문학원,127.0041915,37.4824689
37.4877162,126.9928708,,Point,1850,이베스트영어학원,126.9928708,37.4877162
37.5021689,127.012073,,Point,1851,예음음악교습소,127.012073,37.5021689
37.5072738,127.0072892,,Point,1852,이희정영어학원,127.0072892,37.5072738
37.5128242,127.0105073,,Point,1853,반석수학학원,127.0105073,37.5128242
37.5009392,127.0245637,,Point,1854,해커스어학원강남제5별관학원,127.0245637,37.5009392
37.4878662,127.0269048,,Point,1855,피보나치수학교습소,127.0269048,37.4878662
37.4876108,126.9858162,,Point,1856,방배바이올린교습소,126.9858162,37.4876108
37.4819516,126.9857458,,Point,1857,이레음악교습소,126.9857458,37.4819516
37.48556,127.0193362,,Point,1858,엔트런스뮤직실용음악학원,127.0193362,37.48556
37.506106,127.0034252,,Point,1859,테스(TESSEnglish)영어교습소,127.0034252,37.506106
37.5017944,126.9901596,,Point,1860,허쌤수학학원,126.9901596,37.5017944
37.5010511,127.0087853,,Point,1861,더체인지수학교습소,127.0087853,37.5010511
37.5010511,127.0087853,,Point,1862,무토스미술교습소,127.0087853,37.5010511
37.4979957,126.9853365,,Point,1863,엘리스유아전문발레학원,126.9853365,37.4979957
37.4824327,126.9967182,,Point,1864,리더스학원,126.9967182,37.4824327
37.5021689,127.012073,,Point,1865,송윤진피아노교습소,127.012073,37.5021689
37.498479,127.0190881,,Point,1866,그린아이미술교습소,127.0190881,37.498479
37.4998086,127.0262296,,Point,1867,강남파고다외국어학원,127.0262296,37.4998086
37.5018941,127.0104593,,Point,1868,아발론랭콘서초어학학원,127.0104593,37.5018941
37.4868455,126.992204,,Point,1869,춤추는별미술학원,126.992204,37.4868455
37.4999252,127.0174633,,Point,1870,수학페이지학원,127.0174633,37.4999252
37.472493,127.0466399,,Point,1871,애니킴영어수학전문학원,127.0466399,37.472493
37.5010265,127.0112172,,Point,1872,매쓰큐보습학원,127.0112172,37.5010265
37.4879664,127.0086077,,Point,1873,뉴탑보습학원,127.0086077,37.4879664
37.4922553,127.0259319,,Point,1874,장한보습학원,127.0259319,37.4922553
37.4798539,127.0061031,,Point,1875,체리군단국어논술학원,127.0061031,37.4798539
37.5011109,126.9871492,,Point,1876,마녀쌤영어학원,126.9871492,37.5011109
37.5007046,127.0104411,,Point,1877,에스이에이어학학원,127.0104411,37.5007046
37.513207,127.0088734,,Point,1878,아띠화실미술교습소,127.0088734,37.513207
37.4704173,127.0252657,,Point,1879,바우뫼보습학원,127.0252657,37.4704173
37.4979957,126.9853365,,Point,1880,한스영어학원,126.9853365,37.4979957
37.5059333,127.0011202,,Point,1881,상위권수학본원학원,127.0011202,37.5059333
37.5027093,127.0217811,,Point,1882,한뉘수학학원,127.0217811,37.5027093
37.49102,126.9851482,,Point,1883,한동원영어전문학원,126.9851482,37.49102
37.4828481,127.0064253,,Point,1884,카논영어전문학원,127.0064253,37.4828481
37.5014589,126.9888522,,Point,1885,유철환영어전문학원,126.9888522,37.5014589
37.4890683,127.0099953,,Point,1886,이닷스프릿어학학원,127.0099953,37.4890683
37.5059333,127.0011202,,Point,1887,잉코어보습학원,127.0011202,37.5059333
37.5007046,127.0104411,,Point,1888,반포시매쓰학원,127.0104411,37.5007046
37.4972486,127.0184822,,Point,1889,서초대광보습학원,127.0184822,37.4972486
37.4873943,126.9857966,,Point,1890,영수전문지앤지학원,126.9857966,37.4873943
37.5209668,127.0155471,,Point,1891,이화소리숲피아노교습소,127.0155471,37.5209668
37.5058083,127.0012576,,Point,1892,송림학원,127.0012576,37.5058083
37.4873292,126.9845084,,Point,1893,엠코에듀학원,126.9845084,37.4873292
37.4824643,126.9972605,,Point,1894,페르마수학보습학원,126.9972605,37.4824643
37.481554,127.0057527,,Point,1895,김수희과학방배지점학원,127.0057527,37.481554
37.4991335,126.9972299,,Point,1896,발자국소리가큰아이들미술학원,126.9972299,37.4991335
37.4791972,126.9850255,,Point,1897,마스터수학교습소,126.9850255,37.4791972
37.5039668,127.0104885,,Point,1898,이후미술학원,127.0104885,37.5039668
37.4714695,127.0448779,,Point,1899,양재예솔미술교습소,127.0448779,37.4714695
37.5021819,127.0103877,,Point,1900,지엠미술교습소,127.0103877,37.5021819
37.5059333,127.0011202,,Point,1901,오종기수학학원,127.0011202,37.5059333
37.5029817,127.0101396,,Point,1902,와이스톤인터내셔널어학원,127.0101396,37.5029817
37.501994,127.0246405,,Point,1903,이디엠어학원,127.0246405,37.501994
37.503892,127.0090871,,Point,1904,서초에스엘피어학원,127.0090871,37.503892
37.494651,127.0192626,,Point,1905,국제금융회계학원,127.0192626,37.494651
37.4798539,127.0061031,,Point,1906,베리잉글리시(Berry English)학원,127.0061031,37.4798539
37.5059117,127.0233228,,Point,1907,라사라패션디자인학원,127.0233228,37.5059117
37.5096033,127.0014445,,Point,1908,이승희수학교습소,127.0014445,37.5096033
37.4866199,126.9879554,,Point,1909,레몬트리음악교습소,126.9879554,37.4866199
37.498479,127.0190881,,Point,1910,삼성피아노교습소,127.0190881,37.498479
37.4818858,127.0044932,,Point,1912,나무영어교습소,127.0044932,37.4818858
37.5067454,127.0055318,,Point,1913,우듬지오름학원,127.0055318,37.5067454
37.4833459,127.0088271,,Point,1914,아이쥐에스이윤선생서초학원,127.0088271,37.4833459
37.4915062,126.9830157,,Point,1915,반포아카데미학원,126.9830157,37.4915062
37.472493,127.0466399,,Point,1916,프레지던트학원,127.0466399,37.472493
37.4933165,127.0148132,,Point,1917,서초메가스터디학원,127.0148132,37.4933165
37.4999252,127.0174633,,Point,1918,노블영어학원,127.0174633,37.4999252
37.5001002,127.025536,,Point,1919,해커스편입학원,127.025536,37.5001002
37.5007046,127.0104411,,Point,1920,현문학원,127.0104411,37.5007046
37.4911244,127.0112799,,Point,1921,대한건축아카데미학원,127.0112799,37.4911244
37.4923488,127.012225,,Point,1922,카이스건축토목학원,127.012225,37.4923488
37.5070327,127.006478,,Point,1923,대한논리논술학원,127.006478,37.5070327
37.4791972,126.9850255,,Point,1924,아이뮤직음악교습소,126.9850255,37.4791972
37.5010005,127.0102675,,Point,1925,서초청담어학원,127.0102675,37.5010005
37.4747975,126.9910431,,Point,1926,아마데우스음악학원,126.9910431,37.4747975
37.4828718,127.0038922,,Point,1927,엠에스(MS)수학과학전문학원,127.0038922,37.4828718
37.5070327,127.006478,,Point,1928,수리초중수학교습소,127.006478,37.5070327
37.5096033,127.0014445,,Point,1929,집현전국어논술교습소,127.0014445,37.5096033
37.4985529,127.0095874,,Point,1930,디엠아이학원,127.0095874,37.4985529
