latitude,longitude,altitude,geometry,name,lon,lat,uuid
37.49752572,126.9832924,,Point,갯마을앞정류장,126.9832924,37.49752572,0
37.46552892,126.9880015,,Point,남태령역정류장,126.9880015,37.46552892,1
37.47851383,127.0383424,,Point,교육개발원입구정류장,127.0383424,37.47851383,2
37.47776664,127.0386757,,Point,교육개발원입구정류장,127.0386757,37.47776664,3
37.48252188,127.0358473,,Point,양재역.서초문화예술회관정류장,127.0358473,37.48252188,4
37.48187093,127.0368255,,Point,양재역.서초문화예술회관정류장,127.0368255,37.48187093,5
37.48759241,127.0323669,,Point,뱅뱅사거리정류장,127.0323669,37.48759241,6
37.49182345,127.0303402,,Point,래미안아파트.파이낸셜뉴스정류장,127.0303402,37.49182345,7
37.49602648,127.0283494,,Point,신분당선강남역정류장,127.0283494,37.49602648,8
37.50160933,127.0257283,,Point,지하철2호선강남역정류장,127.0257283,37.50160933,9
37.50722032,127.0230119,,Point,논현역정류장,127.0230119,37.50722032,10
37.514627,127.019844,,Point,신사역.푸른저축은행정류장,127.019844,37.514627,11
37.50840125,127.0121019,,Point,반포역정류장,127.0121019,37.50840125,12
37.50790804,127.011038,,Point,반포역정류장,127.011038,37.50790804,13
37.50633499,127.0052627,,Point,고속터미널정류장,127.0052627,37.50633499,14
37.50563712,127.0038415,,Point,고속터미널정류장,127.0038415,37.50563712,15
37.50345516,126.9958083,,Point,신반포역.세화여중고정류장,126.9958083,37.50345516,16
37.50167531,126.9888862,,Point,신반포역.세화여중고정류장,126.9888862,37.50167531,17
37.50204341,126.989993,,Point,구반포역.세화고등학교정류장,126.989993,37.50204341,18
37.501138,126.986551,,Point,구반포역.세화고등학교정류장,126.986551,37.501138,19
37.47879811,127.0091112,,Point,아리랑TV.국립국악원정류장,127.0091112,37.47879811,20
37.46571328,126.9881707,,Point,남태령역정류장,126.9881707,37.46571328,21
37.48233219,126.9820604,,Point,이수역정류장,126.9820604,37.48233219,22
37.475853,126.981733,,Point,사당역정류장,126.981733,37.475853,23
37.48753276,126.9823337,,Point,총신대입구역.남성시장입구앞정류장,126.9823337,37.48753276,24
37.49043764,126.9827296,,Point,경문고등학교정류장,126.9827296,37.49043764,25
37.49325215,126.982818,,Point,정금마을정류장,126.982818,37.49325215,26
37.45129334,127.0582054,,Point,서초포레스타5단지정문정류장,127.0582054,37.45129334,27
37.4585014,127.0414866,,Point,서초종합체육관정류장,127.0414866,37.4585014,28
37.4541411,127.0426836,,Point,서울추모공원정류장,127.0426836,37.4541411,29
37.46003483,127.0367509,,Point,양재동화물터미널정류장,127.0367509,37.46003483,30
37.45988617,127.0374907,,Point,양재동화물터미널정류장,127.0374907,37.45988617,31
37.45422525,127.042802,,Point,서울추모공원정류장,127.042802,37.45422525,32
37.46614898,127.0436919,,Point,한국소비자원정류장,127.0436919,37.46614898,33
37.49177273,127.0140972,,Point,지하철3호선교대역정류장,127.0140972,37.49177273,34
37.48727363,127.0149074,,Point,서울교대사거리정류장,127.0149074,37.48727363,35
37.49402634,127.0151723,,Point,지하철2호선교대역2정류장,127.0151723,37.49402634,36
37.49557573,127.020226,,Point,서초동유원아파트정류장,127.020226,37.49557573,37
37.49051406,127.0213663,,Point,창신교회앞.서리풀노리학교정류장,127.0213663,37.49051406,38
37.4902399,127.0211892,,Point,창신교회.서리풀노리학교정류장,127.0211892,37.4902399,39
37.48886274,127.016244,,Point,서울교대정문앞정류장,127.016244,37.48886274,40
37.488286,127.014658,,Point,서울교대정문앞정류장,127.014658,37.488286,41
37.483277,127.0173128,,Point,남부터미널정류장,127.0173128,37.483277,42
37.48299285,127.0224066,,Point,서울시인재개발원입구정류장,127.0224066,37.48299285,43
37.48271309,127.02159,,Point,서울시인재개발원.한우리문화센터정류장,127.02159,37.48271309,44
37.48642334,127.0213559,,Point,서일초등학교정류장,127.0213559,37.48642334,45
37.48619534,127.0210584,,Point,서일초등학교정류장,127.0210584,37.48619534,46
37.49673319,127.0239661,,Point,롯데칠성정류장,127.0239661,37.49673319,47
37.49505458,127.025145,,Point,롯데칠성정류장,127.025145,37.49505458,48
37.45545073,127.063013,,Point,서초포레스타2단지 앞정류장,127.063013,37.45545073,49
37.49318659,127.0260354,,Point,래미안에스티지에스정류장,127.0260354,37.49318659,50
37.49301633,127.0260102,,Point,래미안에스티지정류장,127.0260102,37.49301633,51
37.49263309,127.0285876,,Point,서초청소년도서관정류장,127.0285876,37.49263309,52
37.49264329,127.0289422,,Point,서초청소년도서관정류장,127.0289422,37.49264329,53
37.49167319,127.0255496,,Point,서초동신동아아파트정류장,127.0255496,37.49167319,54
37.49160979,127.0256283,,Point,서초2동주민센터서이초등학교정류장,127.0256283,37.49160979,55
37.49017927,127.0274259,,Point,래미안리더스원아파트정류장,127.0274259,37.49017927,56
37.45825928,127.0390224,,Point,추모공원입구정류장,127.0390224,37.45825928,57
37.48892626,127.0293732,,Point,뱅뱅사거리정류장,127.0293732,37.48892626,58
37.48892239,127.0298426,,Point,뱅뱅사거리정류장,127.0298426,37.48892239,59
37.48807529,127.0266067,,Point,서초동무지개아파트정류장,127.0266067,37.48807529,60
37.48774409,127.025996,,Point,서초동무지개아파트정류장,127.025996,37.48774409,61
37.48420925,127.0309471,,Point,서초구청정류장,127.0309471,37.48420925,62
37.48402746,127.0308742,,Point,서초구청정류장,127.0308742,37.48402746,63
37.49338614,127.0296161,,Point,수협서초지점정류장,127.0296161,37.49338614,64
37.48806521,127.0321452,,Point,서초문화예술정보학교정류장,127.0321452,37.48806521,65
37.49647906,127.0129906,,Point,법조단지정류장,127.0129906,37.49647906,66
37.49352556,127.0130354,,Point,교대역3정류장,127.0130354,37.49352556,67
37.49288245,127.0072658,,Point,서초역.서울중앙지법등기국정류장,127.0072658,37.49288245,68
37.49204748,127.0086431,,Point,서초역1번출구정류장,127.0086431,37.49204748,69
37.49466052,127.0063908,,Point,서울중앙지방검찰청정류장,127.0063908,37.49466052,70
37.49440121,127.0063341,,Point,서울중앙지방검찰청대검찰청정류장,127.0063341,37.49440121,71
37.48568073,127.0106825,,Point,서초아트자이아파트정류장,127.0106825,37.48568073,72
37.48861741,127.0092871,,Point,서초동삼성아파트정류장,127.0092871,37.48861741,73
37.48549832,127.0105605,,Point,서초유스센터.서초아트자이정류장,127.0105605,37.48549832,74
37.48855577,127.0091105,,Point,서초동삼성아파트정류장,127.0091105,37.48855577,75
37.48315521,127.0117198,,Point,서초3동주민센터정류장,127.0117198,37.48315521,76
37.48318784,127.0119717,,Point,서초3동주민센터정류장,127.0119717,37.48318784,77
37.4816391,127.012734,,Point,서초동예술의전당정류장,127.012734,37.4816391,78
37.48354401,127.0085568,,Point,서초중학교정류장,127.0085568,37.48354401,79
37.48346218,127.0087823,,Point,서초중학교정류장,127.0087823,37.48346218,80
37.48287296,127.0050175,,Point,서울고등학교정류장,127.0050175,37.48287296,81
37.48283169,127.005553,,Point,서울고등학교정류장,127.005553,37.48283169,82
37.48191615,127.0047616,,Point,상문고교정류장,127.0047616,37.48191615,83
37.47942885,127.0107815,,Point,서초동예술의전당정류장,127.0107815,37.47942885,84
37.47966234,127.0108317,,Point,서초동예술의전당정류장,127.0108317,37.47966234,85
37.48185234,127.0169147,,Point,남부터미널.기쁨병원정류장,127.0169147,37.48185234,86
37.48186117,127.0175441,,Point,남부터미널.기쁨병원정류장,127.0175441,37.48186117,87
37.48408977,127.0166984,,Point,남부터미널정류장,127.0166984,37.48408977,88
37.48465728,127.0142415,,Point,남부터미널.한일시멘트정류장,127.0142415,37.48465728,89
37.48476839,127.0154564,,Point,남부터미널정류장,127.0154564,37.48476839,90
37.48739871,127.0147509,,Point,서울교대사거리정류장,127.0147509,37.48739871,91
37.48800647,127.0133631,,Point,서울교대사거리정류장,127.0133631,37.48800647,92
37.48779638,127.012948,,Point,서울교대사거리정류장,127.012948,37.48779638,93
37.49183999,127.013968,,Point,지하철3호선교대역정류장,127.013968,37.49183999,94
37.50310822,127.0196772,,Point,KCC사옥정류장,127.0196772,37.50310822,95
37.50118109,127.0221156,,Point,서초푸르지오써밋정류장,127.0221156,37.50118109,96
37.50145557,127.0221001,,Point,서초푸르지오써밋.롯데캐슬클래식정류장,127.0221001,37.50145557,97
37.49773373,127.0237379,,Point,진흥아파트정류장,127.0237379,37.49773373,98
37.49754139,127.0239501,,Point,진흥아파트정류장,127.0239501,37.49754139,99
37.49773261,127.0266305,,Point,강남역.강남역사거리정류장,127.0266305,37.49773261,100
37.49651673,127.0228061,,Point,서초동진흥아파트정류장,127.0228061,37.49651673,101
37.49554491,127.0196603,,Point,서초동유원아파트정류장,127.0196603,37.49554491,102
37.49438915,127.015879,,Point,지하철2호선교대역4출구정류장,127.015879,37.49438915,103
37.49627195,127.01316,,Point,법조단지정류장,127.01316,37.49627195,104
37.50287594,127.025122,,Point,신논현역.구교보타워사거리정류장,127.025122,37.50287594,105
37.50011553,127.0264252,,Point,강남역정류장,127.0264252,37.50011553,106
37.51652001,127.0100577,,Point,잠원한신아파트정류장,127.0100577,37.51652001,107
37.5195473,127.0138276,,Point,래미안신반포리오센트아파트정류장,127.0138276,37.5195473,108
37.51999528,127.0144289,,Point,신반포18차아파트정류장,127.0144289,37.51999528,109
37.51970316,127.015498,,Point,롯데캐슬아파트정류장,127.015498,37.51970316,110
37.51994036,127.0155146,,Point,롯데캐슬아파트정류장,127.0155146,37.51994036,111
37.51679059,127.0144127,,Point,신반포13차아파트정류장,127.0144127,37.51679059,112
37.51712271,127.014474,,Point,신반포13차아파트정류장,127.014474,37.51712271,113
37.51554876,127.0131925,,Point,신동중학교정류장,127.0131925,37.51554876,114
37.51562931,127.0128629,,Point,신동중학교정류장,127.0128629,37.51562931,115
37.51049952,127.0192933,,Point,논현사거리.논현역5번출구정류장,127.0192933,37.51049952,116
37.51505363,127.0197132,,Point,신사역4번출구정류장,127.0197132,37.51505363,117
37.51673207,127.0192263,,Point,신사역5번출구정류장,127.0192263,37.51673207,118
37.51047358,127.0196567,,Point,논현사거리.논현역4번출구정류장,127.0196567,37.51047358,119
37.50914456,127.0220696,,Point,논현역정류장,127.0220696,37.50914456,120
37.50648678,127.0233711,,Point,반포동정류장,127.0233711,37.50648678,121
37.50439506,127.023835,,Point,신논현역.구교보타워사거리정류장,127.023835,37.50439506,122
37.50340675,127.020382,,Point,제일약품사옥정류장,127.020382,37.50340675,123
37.50473497,127.0140485,,Point,사평역정류장,127.0140485,37.50473497,124
37.50404851,127.0154369,,Point,사평역정류장,127.0154369,37.50404851,125
37.49988507,127.0122739,,Point,삼호가든3차아파트정류장,127.0122739,37.49988507,126
37.50277886,127.011525,,Point,삼호가든사거리.반포도서관정류장,127.011525,37.50277886,127
37.50267058,126.9953354,,Point,삼성래미안정류장,126.9953354,37.50267058,128
37.49830299,126.9906076,,Point,서초구민체육센터.심산문화센터정류장,126.9906076,37.49830299,129
37.51673713,127.0100772,,Point,잠원한신아파트정류장,127.0100772,37.51673713,130
37.51368173,127.0069218,,Point,잠원성당.아크로리버뷰아파트정류장,127.0069218,37.51368173,131
37.51349354,127.0069296,,Point,잠원성당정류장,127.0069296,37.51349354,132
37.50924761,127.0078725,,Point,뉴코아아울렛정류장,127.0078725,37.50924761,133
37.50945099,127.0079277,,Point,신반포자이아파트정류장,127.0079277,37.50945099,134
37.50629479,127.0094438,,Point,고속터미널정류장,127.0094438,37.50629479,135
37.50440784,127.0012883,,Point,서울지방조달청.서울성모병원정류장,127.0012883,37.50440784,136
37.50330978,127.0062506,,Point,센트럴시티정류장,127.0062506,37.50330978,137
37.50076372,127.0039508,,Point,서울지방조달청.서울성모병원정류장,127.0039508,37.50076372,138
37.50288199,127.00555,,Point,서울성모병원정류장,127.00555,37.50288199,139
37.49786652,126.9910942,,Point,서초구민체육센터.심산문화센터정류장,126.9910942,37.49786652,140
37.50172062,127.0117073,,Point,반포미도아파트앞정류장,127.0117073,37.50172062,141
37.50654888,127.0067659,,Point,고속터미널경부선정류장,127.0067659,37.50654888,142
37.50539877,127.0030561,,Point,고속터미널호남선정류장,127.0030561,37.50539877,143
37.49680497,126.9877512,,Point,삼호아파트정류장,126.9877512,37.49680497,144
37.49305197,126.9902861,,Point,방배사이길정류장,126.9902861,37.49305197,145
37.49631312,126.9882455,,Point,방배동삼호아파트정류장,126.9882455,37.49631312,146
37.49339821,126.9898911,,Point,가야메디컬센터정류장,126.9898911,37.49339821,147
37.498224,126.984314,,Point,이수교정류장,126.984314,37.498224,148
37.49727077,126.9851855,,Point,롯데캐슬헤론아파트정류장,126.9851855,37.49727077,149
37.48223736,127.0017235,,Point,방배동신동아아파트정류장,127.0017235,37.48223736,150
37.48339621,126.9964099,,Point,방배역.방배서리풀이편한세상정류장,126.9964099,37.48339621,151
37.48672753,126.9942653,,Point,내방역2번출구정류장,126.9942653,37.48672753,152
37.4866505,126.9941608,,Point,내방역정류장,126.9941608,37.4866505,153
37.48348007,126.9962225,,Point,방배1동주민센터.방배아크로타워정류장,126.9962225,37.48348007,154
37.48126723,126.9966259,,Point,지하철2호선방배역정류장,126.9966259,37.48126723,155
37.4766992,126.9862074,,Point,서울교통공사정류장,126.9862074,37.4766992,156
37.47864179,126.9890955,,Point,종로교회정류장,126.9890955,37.47864179,157
37.48020993,126.9933627,,Point,대우효령아파트정류장,126.9933627,37.48020993,158
37.48091563,126.9930644,,Point,이수중학교정류장,126.9930644,37.48091563,159
37.48407122,126.9910402,,Point,방배브라운가아파트정류장,126.9910402,37.48407122,160
37.47888124,126.9818669,,Point,사당역정류장,126.9818669,37.47888124,161
37.47442903,126.9820336,,Point,사당역3번출구정류장,126.9820336,37.47442903,162
37.47698042,127.0006235,,Point,경남임광아파트정류장,127.0006235,37.47698042,163
37.47708893,127.0003801,,Point,방배동경남아파트정류장,127.0003801,37.47708893,164
37.47999829,126.9986553,,Point,서울지방법무사회정류장,126.9986553,37.47999829,165
37.47985958,126.9985537,,Point,현대멤피스2차아파트정류장,126.9985537,37.47985958,166
37.48213158,127.0018489,,Point,신동아아파트앞정류장,127.0018489,37.48213158,167
37.48109712,126.9965518,,Point,방배역.백석예술대학교정류장,126.9965518,37.48109712,168
37.48034672,126.994236,,Point,방배동대우효령아파트앞정류장,126.994236,37.48034672,169
37.47824114,126.9885907,,Point,종로교회앞정류장,126.9885907,37.47824114,170
37.4763592,126.9862634,,Point,서울교통공사정류장,126.9862634,37.4763592,171
37.47729045,127.0060734,,Point,방배동래미안아트힐.국립국악원정류장,127.0060734,37.47729045,172
37.47481306,127.0008963,,Point,방배동경남아파트정류장,127.0008963,37.47481306,173
37.47371366,126.9946257,,Point,성뒤마을.교육연수원정류장,126.9946257,37.47371366,174
37.4746325,126.9905678,,Point,방배동래미안타워정류장,126.9905678,37.4746325,175
37.47560783,126.9870922,,Point,대항병원.연세사랑병원정류장,126.9870922,37.47560783,176
37.47549996,126.9868156,,Point,대항병원.연세사랑병원정류장,126.9868156,37.47549996,177
37.47439951,126.9907066,,Point,방배동래미안타워.동덕여중고정류장,126.9907066,37.47439951,178
37.4734548,126.9969045,,Point,성뒤마을.교육연수원정류장,126.9969045,37.4734548,179
37.47490877,127.0015678,,Point,방배동경남아파트정류장,127.0015678,37.47490877,180
37.47729451,127.0065428,,Point,방배동래미안아트힐.국립국악원정류장,127.0065428,37.47729451,181
37.49105794,126.98693,,Point,서문여고입구정류장,126.98693,37.49105794,182
37.48685892,126.9892561,,Point,방배동고개정류장,126.9892561,37.48685892,183
37.48057,127.0131,,Point,예술의전당정류장,127.0131,37.48057,184
37.49044839,126.9919194,,Point,방배열린문화센터(방배4동주민센터)정류장,126.9919194,37.49044839,185
37.49063005,126.9916348,,Point,방배열린문화센터(방배4동주민센터)정류장,126.9916348,37.49063005,186
37.4833296,127.0421251,,Point,양재노인종합복지관정류장,127.0421251,37.4833296,187
37.48013767,127.0411792,,Point,블랙야크양재사옥정류장,127.0411792,37.48013767,188
37.47618353,127.0355874,,Point,현대빌라.에코맘코리아정류장,127.0355874,37.47618353,189
37.47641114,127.0360524,,Point,현대빌라.에코맘코리아정류장,127.0360524,37.47641114,190
37.47457095,127.0319393,,Point,우성아파트.양재초등학교정류장,127.0319393,37.47457095,191
37.47485987,127.0330257,,Point,우성아파트.양재초등학교정류장,127.0330257,37.47485987,192
37.47235218,127.0279842,,Point,코오롱아파트.양재1동주민센터정류장,127.0279842,37.47235218,193
37.47215479,127.0279833,,Point,우면코오롱아파트정류장,127.0279833,37.47215479,194
37.47080292,127.0255938,,Point,우면주공아파트.우면한라아파트정류장,127.0255938,37.47080292,195
37.47075244,127.0258272,,Point,우면주공아파트.양재1동주민센터정류장,127.0258272,37.47075244,196
37.4674662,127.0279296,,Point,서울시품질시험소한국교원단체총연합회정류장,127.0279296,37.4674662,197
37.46755,127.028102,,Point,서울시품질시험소한국교원단체총연합회정류장,127.028102,37.46755,198
37.46533909,127.0262057,,Point,네이처힐3.4단지정류장,127.0262057,37.46533909,199
37.46537344,127.0250805,,Point,성촌마을입구정류장,127.0250805,37.46537344,200
37.45900235,127.0179374,,Point,서초힐스아파트정류장,127.0179374,37.45900235,201
37.45864917,127.0176784,,Point,서초힐스아파트정류장,127.0176784,37.45864917,202
37.45747754,127.0127168,,Point,식유촌우면성당.서초호반써밋정류장,127.0127168,37.45747754,203
37.45741948,127.0142815,,Point,식유촌우면성당.서초호반써밋정류장,127.0142815,37.45741948,204
37.483382,127.0349993,,Point,양재역정류장,127.0349993,37.483382,205
37.483395,127.035321,,Point,양재역정류장,127.035321,37.483395,206
37.47886958,127.0382491,,Point,일동제약사거리정류장,127.0382491,37.47886958,207
37.47943613,127.0383697,,Point,일동제약사거리정류장,127.0383697,37.47943613,208
37.46949997,127.0392083,,Point,양재2동주민센터.양재꽃시장정류장,127.0392083,37.46949997,209
37.473713,127.038365,,Point,시민의숲정류장,127.038365,37.473713,210
37.4732828,127.0386338,,Point,언남고교정류장,127.0386338,37.4732828,211
37.47082408,127.038469,,Point,시민의숲.양재꽃시장정류장,127.038469,37.47082408,212
37.47116622,127.0386778,,Point,시민의숲.양재꽃시장정류장,127.0386778,37.47116622,213
37.468533,127.039557,,Point,AT센터.양재꽃시장정류장,127.039557,37.468533,214
37.46044966,127.0352832,,Point,양곡도매시장정류장,127.0352832,37.46044966,215
37.46022806,127.035175,,Point,양곡도매시장정류장,127.035175,37.46022806,216
37.4639685,127.0446172,,Point,하나로마트.코트라정류장,127.0446172,37.4639685,217
37.463517,127.045401,,Point,코트라정류장,127.045401,37.463517,218
37.47375739,127.0483894,,Point,구룡사정류장,127.0483894,37.47375739,219
37.47212027,127.0501694,,Point,구룡사입구정류장,127.0501694,37.47212027,220
37.47663728,127.0453802,,Point,동원산업앞정류장,127.0453802,37.47663728,221
37.4720799,127.0458014,,Point,언남고포이성당앞정류장,127.0458014,37.4720799,222
37.46949822,127.0410262,,Point,양재119안전센터앞정류장,127.0410262,37.46949822,223
37.47000522,127.0416463,,Point,소방서앞정류장,127.0416463,37.47000522,224
37.46056767,127.0463635,,Point,꽃마을정류장,127.0463635,37.46056767,225
37.46042221,127.046547,,Point,꽃마을정류장,127.046547,37.46042221,226
37.45745522,127.0476502,,Point,개나리골입구정류장,127.0476502,37.45745522,227
37.45699692,127.048308,,Point,개나리골입구정류장,127.048308,37.45699692,228
37.45429389,127.050715,,Point,새원마을정류장,127.050715,37.45429389,229
37.45446543,127.0507602,,Point,새원마을정류장,127.0507602,37.45446543,230
37.45328338,127.0512463,,Point,본마을정류장,127.0512463,37.45328338,231
37.45330406,127.0513711,,Point,본마을정류장,127.0513711,37.45330406,232
37.44446506,127.057735,,Point,청계산.원터골정류장,127.057735,37.44446506,233
37.4448807,127.0576299,,Point,청계산.원터골정류장,127.0576299,37.4448807,234
37.43732457,127.0632448,,Point,관현사입구정류장,127.0632448,37.43732457,235
37.43685704,127.0638928,,Point,관현사입구정류장,127.0638928,37.43685704,236
37.43484442,127.0658214,,Point,새쟁이마을정류장,127.0658214,37.43484442,237
37.43479359,127.0660472,,Point,새쟁이마을정류장,127.0660472,37.43479359,238
37.43077966,127.0707719,,Point,옛골정류장,127.0707719,37.43077966,239
37.46166565,127.0489854,,Point,염곡마을정류장,127.0489854,37.46166565,240
37.46181149,127.0490286,,Point,염곡마을정류장,127.0490286,37.46181149,241
37.45849195,127.0565126,,Point,탑성마을정류장,127.0565126,37.45849195,242
37.45943433,127.0546666,,Point,탑성마을정류장,127.0546666,37.45943433,243
37.45546807,127.0639663,,Point,안골마을정류장,127.0639663,37.45546807,244
37.45620139,127.0623339,,Point,안골마을정류장,127.0623339,37.45620139,245
37.45699896,127.0704494,,Point,서울특별시어린이병원.강동-송파예비군정류장,127.0704494,37.45699896,246
37.45760454,127.071817,,Point,서울특별시어린이병원.강동-송파예비군정류장,127.071817,37.45760454,247
37.4598669,127.0794518,,Point,헌인릉.강남서초예비군훈련장정류장,127.0794518,37.4598669,248
37.46106371,127.0827095,,Point,헌인릉.강남서초예비군훈련장정류장,127.0827095,37.46106371,249
37.46155315,127.0846902,,Point,헌인농장정류장,127.0846902,37.46155315,250
37.46372113,127.0914111,,Point,헌인마을.서울농업기술센터정류장,127.0914111,37.46372113,251
37.46320952,127.0893535,,Point,헌인마을.서울농업기술센터정류장,127.0893535,37.46320952,252
37.49825197,126.9925999,,Point,KT반포지사정류장,126.9925999,37.49825197,253
37.49762415,127.0267962,,Point,강남역정류장,127.0267962,37.49762415,254
37.47464694,126.9905196,,Point,방배동래미안타워.동덕여중고정류장,126.9905196,37.47464694,255
37.45972936,127.0868844,,Point,헌인가구단지정류장,127.0868844,37.45972936,256
37.48808193,126.9947345,,Point,내방역8번출구정류장,126.9947345,37.48808193,257
37.49387978,127.0146976,,Point,교대역5번출구정류장,127.0146976,37.49387978,258
37.4579365,127.016667,,Point,서초힐스아파트정류장,127.016667,37.4579365,259
37.4969872,127.0278937,,Point,강남역하나은행정류장,127.0278937,37.4969872,260
37.4617508,127.0491735,,Point,염곡마을.내곡동주민센터정류장,127.0491735,37.4617508,261
37.45844838,127.0566171,,Point,탑성마을정류장,127.0566171,37.45844838,262
37.45940572,127.054735,,Point,탑성마을정류장,127.054735,37.45940572,263
37.45616301,127.0624258,,Point,안골마을정류장,127.0624258,37.45616301,264
37.4569229,127.0702184,,Point,서울특별시어린이병원.강동-송파예비군정류장,127.0702184,37.4569229,265
37.45764354,127.0719356,,Point,서울특별시어린이병원.강동-송파예비군정류장,127.0719356,37.45764354,266
37.47630849,126.9827262,,Point,사당역1번출구정류장,126.9827262,37.47630849,267
37.49507672,126.9858179,,Point,남부시장정류장,126.9858179,37.49507672,268
37.49084727,126.9831344,,Point,강남의림한방병원정류장,126.9831344,37.49084727,269
37.46852722,127.0471527,,Point,염곡동구룡사정류장,127.0471527,37.46852722,270
37.48522033,127.0177863,,Point,국제전자센터정류장,127.0177863,37.48522033,271
37.46847949,127.046962,,Point,염곡동구룡사정류장,127.046962,37.46847949,272
37.46350689,127.0216787,,Point,형촌마을입구(서초네이처힐1.2단지)정류장,127.0216787,37.46350689,273
37.48534796,127.0177867,,Point,국제전자센터정류장,127.0177867,37.48534796,274
37.46637597,127.0442313,,Point,도로교통공단서울지부.코트라정류장,127.0442313,37.46637597,275
37.49084731,127.0080245,,Point,서초역3번출구정류장,127.0080245,37.49084731,276
37.49831518,126.9903055,,Point,서초구민체육센터정류장,126.9903055,37.49831518,277
37.50762076,126.9996164,,Point,반포대교남단 한강시민공원입구정류장,126.9996164,37.50762076,278
37.50689335,127.000223,,Point,반포대교남단 한강시민공원입구정류장,127.000223,37.50689335,279
37.4615396,127.0901333,,Point,헌인마을정류장,127.0901333,37.4615396,280
37.46201686,127.0366805,,Point,하이브랜드정류장,127.0366805,37.46201686,281
37.48563375,126.9844295,,Point,이수역정류장,126.9844295,37.48563375,282
37.48588003,126.9867079,,Point,방배초등학교정류장,126.9867079,37.48588003,283
37.48660835,126.9902492,,Point,방배고개정류장,126.9902492,37.48660835,284
37.48680133,126.9940608,,Point,내방역3번출구정류장,126.9940608,37.48680133,285
37.48574395,126.9948928,,Point,방일초교정류장,126.9948928,37.48574395,286
37.4874608,126.9926506,,Point,내방역정류장,126.9926506,37.4874608,287
37.48629366,126.988853,,Point,방배고개정류장,126.988853,37.48629366,288
37.48577786,126.9847861,,Point,이수역정류장,126.9847861,37.48577786,289
37.48150813,126.9982092,,Point,방배역정류장,126.9982092,37.48150813,290
37.48190164,126.9973934,,Point,방배역정류장,126.9973934,37.48190164,291
37.50577112,126.98057,,Point,동작대교전망카페정류장,126.98057,37.50577112,292
37.4572143,127.0599311,,Point,서초포레스타입구정류장,127.0599311,37.4572143,293
37.45691011,127.0602651,,Point,서초포레스타입구정류장,127.0602651,37.45691011,294
37.49503888,127.0184579,,Point,삼성래미안아파트정류장,127.0184579,37.49503888,295
37.44862052,127.0542118,,Point,청계산입구역정류장,127.0542118,37.44862052,296
37.44942362,127.0535601,,Point,청계산입구역정류장,127.0535601,37.44942362,297
37.44729572,127.0557865,,Point,서초포레스타7단지정류장,127.0557865,37.44729572,298
37.51210298,126.9975825,,Point,반포한강공원.세빛섬정류장,126.9975825,37.51210298,299
37.51088677,126.9984501,,Point,반포한강공원.세빛섬정류장,126.9984501,37.51088677,300
37.50111254,127.0259648,,Point,신논현역.주류성빌딩정류장,127.0259648,37.50111254,301
37.50133812,127.0258568,,Point,신논현역.BSX빌딩정류장,127.0258568,37.50133812,302
37.50158853,127.0257369,,Point,신논현역.유화빌딩정류장,127.0257369,37.50158853,303
37.50179725,127.025637,,Point,신논현역.금강빌딩정류장,127.025637,37.50179725,304
37.50205397,127.0255148,,Point,신논현역.우신빌딩정류장,127.0255148,37.50205397,305
37.50222856,127.0254312,,Point,신논현역.인터파크정류장,127.0254312,37.50222856,306
37.50243391,127.0253329,,Point,신논현역.영신빌딩정류장,127.0253329,37.50243391,307
37.50282318,127.0251458,,Point,신논현역.씨티은행정류장,127.0251458,37.50282318,308
37.47308527,127.0386297,,Point,양재시민의숲정류장,127.0386297,37.47308527,309
37.47411871,126.9924508,,Point,동덕여중고정류장,126.9924508,37.47411871,310
37.49366803,126.986218,,Point,유경약국정류장,126.986218,37.49366803,311
37.48477868,127.0155177,,Point,남부터미널정류장,127.0155177,37.48477868,312
37.49809735,126.9880597,,Point,동부센트레빌2정류장,126.9880597,37.49809735,313
37.46313935,127.0891355,,Point,헌인마을.서울농업기술센터정류장,127.0891355,37.46313935,314
37.46344498,127.0351133,,Point,잔디마을정류장,127.0351133,37.46344498,315
37.48525148,126.995076,,Point,방일초등학교정류장,126.995076,37.48525148,316
37.46333629,127.0238782,,Point,네이처힐5단지정류장,127.0238782,37.46333629,317
37.47950391,127.0383486,,Point,교육개발원입구사거리정류장,127.0383486,37.47950391,318
37.47457301,126.9907798,,Point,방배래미안타워정류장,126.9907798,37.47457301,319
37.48560432,126.9841607,,Point,이수역5번출구정류장,126.9841607,37.48560432,320
37.49221547,126.9888913,,Point,이수중앙시장정류장,126.9888913,37.49221547,321
37.4851785,127.0175898,,Point,국제전자센터정류장,127.0175898,37.4851785,322
37.49785585,126.9916891,,Point,방배신삼호아파트정류장,126.9916891,37.49785585,323
37.46102752,127.0825991,,Point,헌인릉.꽃시장정류장,127.0825991,37.46102752,324
37.46534412,127.0341232,,Point,더케이호텔후문정류장,127.0341232,37.46534412,325
37.48343664,126.9962492,,Point,방배1동주민센터.방배아크로타워정류장,126.9962492,37.48343664,326
37.49221257,127.0207951,,Point,삼성레포츠정류장,127.0207951,37.49221257,327
37.48328105,127.0422642,,Point,원불교정류장,127.0422642,37.48328105,328
37.48365718,127.0350604,,Point,양재역7번출구.프라자약국정류장,127.0350604,37.48365718,329
37.47630827,126.9862455,,Point,연세사랑병원정류장,126.9862455,37.47630827,330
37.48585195,126.9864443,,Point,방배초등학교정류장,126.9864443,37.48585195,331
37.49313359,126.9912013,,Point,함지박사거리정류장,126.9912013,37.49313359,332
37.48616473,127.0209613,,Point,KEB하나은행정류장,127.0209613,37.48616473,333
37.49794821,126.993379,,Point,이수화학정류장,126.993379,37.49794821,334
37.45553456,127.0807463,,Point,예비군훈련장정류장,127.0807463,37.45553456,335
37.468237,127.0340074,,Point,더케이호텔정문정류장,127.0340074,37.468237,336
37.48153473,126.998443,,Point,방배역1번출구정류장,126.998443,37.48153473,337
37.49042696,127.0208382,,Point,대림약국정류장,127.0208382,37.49042696,338
37.50094051,127.0120146,,Point,반포래미안아이파크아파트정류장,127.0120146,37.50094051,339
37.48633277,126.9893577,,Point,방배고개정류장,126.9893577,37.48633277,340
37.49227058,126.9905979,,Point,함지박사거리정류장,126.9905979,37.49227058,341
37.49525971,126.9889053,,Point,서래초교정류장,126.9889053,37.49525971,342
37.49372447,126.9936045,,Point,방배성당앞정류장,126.9936045,37.49372447,343
37.48696066,127.0234695,,Point,현대아파트.한국상담대학원대학교정류장,127.0234695,37.48696066,344
37.49856383,126.9955029,,Point,한국회관.ROTC중앙회정류장,126.9955029,37.49856383,345
37.4586099,127.0816834,,Point,신흥마을입구정류장,127.0816834,37.4586099,346
37.46991487,127.0324119,,Point,예술공원정류장,127.0324119,37.46991487,347
37.48211214,127.0017572,,Point,신동아아파트정문정류장,127.0017572,37.48211214,348
37.477089,126.982671,,Point,사당역13번출구정류장,126.982671,37.477089,349
37.50273708,127.0124543,,Point,서초구립반포도서관.반포리체정류장,127.0124543,37.50273708,350
37.48668352,127.0290975,,Point,서초문화예술정보학교후문정류장,127.0290975,37.48668352,351
37.48511383,126.9903726,,Point,장자터빌딩정류장,126.9903726,37.48511383,352
37.49760255,126.9873768,,Point,동부센트레빌1정류장,126.9873768,37.49760255,353
37.4940362,126.9958473,,Point,필리핀대사관정류장,126.9958473,37.4940362,354
37.48783968,127.0262997,,Point,무지개아파트정류장,127.0262997,37.48783968,355
37.50263929,126.9953793,,Point,삼성래미안정류장,126.9953793,37.50263929,356
37.47162907,127.0307875,,Point,kt연구소정류장,127.0307875,37.47162907,357
37.48215661,127.0046458,,Point,상문고등학교정류장,127.0046458,37.48215661,358
37.50240543,127.0140206,,Point,반포리체정류장,127.0140206,37.50240543,359
37.47927524,126.9909637,,Point,백산빌딩정류장,126.9909637,37.47927524,360
37.48411825,126.99101,,Point,방배브라운가아파트정류장,126.99101,37.48411825,361
37.48937563,126.9924232,,Point,방배열린문화센터.가야치과병원정류장,126.9924232,37.48937563,362
37.49538969,126.9980919,,Point,방배중학교정류장,126.9980919,37.49538969,363
37.50461922,127.0003806,,Point,반포래미안정류장,127.0003806,37.50461922,364
37.47477858,127.0327908,,Point,우성아파트정류장,127.0327908,37.47477858,365
37.48003819,127.0056558,,Point,삼환아파트정류장,127.0056558,37.48003819,366
37.50213358,127.0145893,,Point,반포래미안아이파크아파트후문정류장,127.0145893,37.50213358,367
37.50162521,127.0158198,,Point,반포고교정류장,127.0158198,37.50162521,368
37.48802013,127.0321697,,Point,서초문화예술정보학교.강남연세샘치과정류장,127.0321697,37.48802013,369
37.46748578,127.0280572,,Point,교총회관정류장,127.0280572,37.46748578,370
37.48008758,126.9934297,,Point,대우효령아파트정류장,126.9934297,37.48008758,371
37.48291057,126.9917829,,Point,동문빌라정류장,126.9917829,37.48291057,372
37.4962279,126.9982386,,Point,효성빌라정류장,126.9982386,37.4962279,373
37.45538849,127.0591759,,Point,서초포레스타3단지정문정류장,127.0591759,37.45538849,374
37.50544757,127.0032182,,Point,호남고속터미널정류장,127.0032182,37.50544757,375
37.4553828,127.0597064,,Point,서초포레스타3단지정문정류장,127.0597064,37.4553828,376
37.47636888,127.0359931,,Point,현대빌라정류장,127.0359931,37.47636888,377
37.47828578,127.0064916,,Point,방배빌딩.방배아트힐아파트정문정류장,127.0064916,37.47828578,378
37.50135616,127.0161919,,Point,반포고교정류장,127.0161919,37.50135616,379
37.50244086,127.0141431,,Point,반포리체정류장,127.0141431,37.50244086,380
37.45428027,127.0614188,,Point,언남초등학교정류장,127.0614188,37.45428027,381
37.49162068,127.025389,,Point,서초2동주민센터정류장,127.025389,37.49162068,382
37.46931271,127.0268444,,Point,삽준네마을정류장,127.0268444,37.46931271,383
37.4811283,126.9966477,,Point,방배역.백석대정류장,126.9966477,37.4811283,384
37.48185977,126.9924557,,Point,이수중학교정류장,126.9924557,37.48185977,385
37.49790039,126.9983651,,Point,서래마을.서래글로벌빌리지센터정류장,126.9983651,37.49790039,386
37.4544632,127.0616063,,Point,언남초등학교정류장,127.0616063,37.4544632,387
37.50656992,127.0068289,,Point,경부고속터미널정류장,127.0068289,37.50656992,388
37.45436376,127.0634204,,Point,서초더샵포레정류장,127.0634204,37.45436376,389
37.47708307,126.9896418,,Point,정자정류장,126.9896418,37.47708307,390
37.50099434,127.0170378,,Point,반포센트럴푸르지오써밋아파트정류장,127.0170378,37.50099434,391
37.45462988,127.0642848,,Point,서초더샵포레정류장,127.0642848,37.45462988,392
37.46931938,127.0377532,,Point,양재시민의숲매헌역입구정류장,127.0377532,37.46931938,393
37.48031901,126.9941518,,Point,대우효령아파트정류장,126.9941518,37.48031901,394
37.49917303,126.9984091,,Point,서래마을입구정류장,126.9984091,37.49917303,395
37.49770903,127.0265568,,Point,강남역.9번출구정류장,127.0265568,37.49770903,396
37.50622629,127.0094795,,Point,반포자이아파트정류장,127.0094795,37.50622629,397
37.47582328,127.0030234,,Point,임광아파트후문정류장,127.0030234,37.47582328,398
37.47632657,126.9892633,,Point,방현초교정류장,126.9892633,37.47632657,399
37.48254178,126.9874673,,Point,세탁소정류장,126.9874673,37.48254178,400
37.50064345,127.0180344,,Point,현대4차아파트정류장,127.0180344,37.50064345,401
37.50559375,127.0100307,,Point,반포자이아파트정류장,127.0100307,37.50559375,402
37.4895452,127.0184907,,Point,서초1동주민센터정류장,127.0184907,37.4895452,403
37.47291036,127.0383584,,Point,양재시민의숲정류장,127.0383584,37.47291036,404
37.49997835,126.9984241,,Point,서래마을입구정류장,126.9984241,37.49997835,405
37.50061052,127.0000257,,Point,팔래스호텔정류장,127.0000257,37.50061052,406
37.50185359,127.0116748,,Point,반포미도아파트앞정류장,127.0116748,37.50185359,407
37.45256613,127.055934,,Point,여의3교정류장,127.055934,37.45256613,408
37.47653133,127.0009305,,Point,임광아파트정문정류장,127.0009305,37.47653133,409
37.48347661,126.9868912,,Point,대성유니드아파트정류장,126.9868912,37.48347661,410
37.50037934,127.0187846,,Point,서초래미안아파트정문정류장,127.0187846,37.50037934,411
37.50928864,127.008015,,Point,뉴코아백화점정류장,127.008015,37.50928864,412
37.48890917,127.0163947,,Point,서울교대정문정류장,127.0163947,37.48890917,413
37.47745646,127.0374964,,Point,일동제약정류장,127.0374964,37.47745646,414
37.4997253,127.0229163,,Point,롯데캐슬클래식.사랑의교회정류장,127.0229163,37.4997253,415
37.50015664,127.0120896,,Point,반포래미안아이파크아파트정류장,127.0120896,37.50015664,416
37.47199459,127.0457357,,Point,언남중고교정류장,127.0457357,37.47199459,417
37.47835052,126.999708,,Point,방배3동주민센터정류장,126.999708,37.47835052,418
37.48465775,126.9861644,,Point,우리수퍼정류장,126.9861644,37.48465775,419
37.49742359,127.0203557,,Point,서초래미안아파트남문정류장,127.0203557,37.49742359,420
37.51192983,127.00951,,Point,경원중학교정류장,127.00951,37.51192983,421
37.48792307,127.0130776,,Point,청호나이스정류장,127.0130776,37.48792307,422
37.4798279,126.9922051,,Point,구름다리정류장,126.9922051,37.4798279,423
37.4994942,127.0040074,,Point,서울지방조달청.서울성모병원정류장,127.0040074,37.4994942,424
37.49806206,127.0126025,,Point,아크로비스타.미도아파트정류장,127.0126025,37.49806206,425
37.48094798,126.9980238,,Point,방배(백석예술대)역정류장,126.9980238,37.48094798,426
37.5129696,127.0117164,,Point,잠원역정류장,127.0117164,37.5129696,427
37.47867895,126.9891713,,Point,주택단지정류장,126.9891713,37.47867895,428
37.49795623,127.0045251,,Point,국립중앙도서관정류장,127.0045251,37.49795623,429
37.504381,127.020458,,Point,반포1동성당정류장,127.020458,37.504381,430
37.45230773,127.0555489,,Point,여의3교정류장,127.0555489,37.45230773,431
37.48219316,126.9972005,,Point,방배(백석예술대)역.서초프라자약국정류장,126.9972005,37.48219316,432
37.47454216,126.9929113,,Point,동덕여고정류장,126.9929113,37.47454216,433
37.48554488,126.9828873,,Point,이수역4번출구정류장,126.9828873,37.48554488,434
37.51530627,127.0196357,,Point,신사역정류장,127.0196357,37.51530627,435
37.49543754,127.0178315,,Point,유원아파트정류장,127.0178315,37.49543754,436
37.49127231,127.0080559,,Point,서초역2번출구정류장,127.0080559,37.49127231,437
37.47831974,127.0085899,,Point,국립국악원정류장,127.0085899,37.47831974,438
37.47812867,126.9880961,,Point,종로교회정류장,126.9880961,37.47812867,439
37.50198276,127.0217384,,Point,서초푸르지오써밋정류장,127.0217384,37.50198276,440
37.48098086,127.0419441,,Point,원불교정류장,127.0419441,37.48098086,441
37.47722593,127.0370105,,Point,일동제약정류장,127.0370105,37.47722593,442
37.4857972,126.9948579,,Point,방일초등학교정류장,126.9948579,37.4857972,443
37.510252,127.021527,,Point,논현역정류장,127.021527,37.510252,444
37.51360132,127.0130493,,Point,매일상가정류장,127.0130493,37.51360132,445
37.44906728,127.0552806,,Point,청계산입구역정류장,127.0552806,37.44906728,446
37.4806956,127.013496,,Point,예술의전당정류장,127.013496,37.4806956,447
37.47743161,126.9868682,,Point,서울교통공사정류장,126.9868682,37.47743161,448
37.51147449,127.0068325,,Point,경원중학교정류장,127.0068325,37.51147449,449
37.49155305,127.006517,,Point,대법원정류장,127.006517,37.49155305,450
37.50051916,127.0224257,,Point,롯데캐슬클래식정류장,127.0224257,37.50051916,451
37.44874132,127.0554112,,Point,청계산입구역정류장,127.0554112,37.44874132,452
37.48680319,126.9942165,,Point,내방역정류장,126.9942165,37.48680319,453
37.49477522,127.0289421,,Point,강남역도시에빛정류장,127.0289421,37.49477522,454
37.47262395,127.029738,,Point,KT삼거리정류장,127.029738,37.47262395,455
37.47055154,127.0300614,,Point,KT연구개발센터정문정류장,127.0300614,37.47055154,456
37.46248005,127.0226231,,Point,형촌마을입구정류장,127.0226231,37.46248005,457
37.4575697,127.0146461,,Point,서초호반써밋정류장,127.0146461,37.4575697,458
37.4601382,127.0253699,,Point,LH서초아파트정류장,127.0253699,37.4601382,459
37.45124677,127.0582967,,Point,서초포레스타5단지정문정류장,127.0582967,37.45124677,460
37.45635887,127.0151999,,Point,서초호반써밋정류장,127.0151999,37.45635887,461
37.45358046,127.0594664,,Point,서초포레스타3단지후문정류장,127.0594664,37.45358046,462
37.456285,127.019194,,Point,서초힐스아파트정류장,127.019194,37.456285,463
37.45796273,127.0228714,,Point,LH3.4단지정류장,127.0228714,37.45796273,464
37.50602489,127.0235965,,Point,교보사거리정류장,127.0235965,37.50602489,465
37.49653924,127.0281051,,Point,강남역서초현대타워앞정류장,127.0281051,37.49653924,466
37.49566389,127.0285205,,Point,강남역우리은행정류장,127.0285205,37.49566389,467
37.49468552,127.0289856,,Point,강남역티월드정류장,127.0289856,37.49468552,468
37.45945897,127.0240826,,Point,LH5단지정류장,127.0240826,37.45945897,469
37.45798232,127.0227583,,Point,LH3.4단지정류장,127.0227583,37.45798232,470
37.45608463,127.0173746,,Point,서초힐스아파트정류장,127.0173746,37.45608463,471
37.46476798,127.0252095,,Point,성촌마을입구정류장,127.0252095,37.46476798,472
37.49406836,127.0145718,,Point,2호선교대역7번출구정류장,127.0145718,37.49406836,473
37.49565217,127.0058992,,Point,서초경찰서정류장,127.0058992,37.49565217,474
37.48342154,127.0420829,,Point,원불교정류장,127.0420829,37.48342154,475
37.48192739,127.0177694,,Point,남부터미널.기쁨병원정류장,127.0177694,37.48192739,476
37.47987374,127.0379506,,Point,일동제약사거리정류장,127.0379506,37.47987374,477
37.46589235,127.022689,,Point,삼성전자서울R&D정류장,127.022689,37.46589235,478
37.47706254,126.9831137,,Point,대교방송정류장,126.9831137,37.47706254,479
37.47048506,127.0301238,,Point,KT연구개발센터정류장,127.0301238,37.47048506,480
37.46033777,127.0239328,,Point,네이처힐.LH서초아파트정류장,127.0239328,37.46033777,481
37.45641032,127.0153001,,Point,서초호반써밋정류장,127.0153001,37.45641032,482
37.51206287,127.0052307,,Point,한신2차후문정류장,127.0052307,37.51206287,483
37.48508911,127.0109671,,Point,서초아트자이아파트정류장,127.0109671,37.48508911,484
37.47825329,126.989529,,Point,방배반딧불센터정류장,126.989529,37.47825329,485
37.51775197,127.0189676,,Point,신사동.더리버사이드호텔정류장,127.0189676,37.51775197,486
37.49418271,127.0156756,,Point,교대역정류장,127.0156756,37.49418271,487
37.48926052,127.0045331,,Point,서초고후문정류장,127.0045331,37.48926052,488
37.47459611,127.032012,,Point,우성아파트정류장,127.032012,37.47459611,489
37.48807001,126.9949939,,Point,내방역1번출구정류장,126.9949939,37.48807001,490
37.50324888,127.0249422,,Point,교보타워앞정류장,127.0249422,37.50324888,491
37.51293612,127.0115159,,Point,잠원역정류장,127.0115159,37.51293612,492
37.47658753,127.0454282,,Point,동원산업정류장,127.0454282,37.47658753,493
37.48272257,127.021662,,Point,서울시인재개발원정류장,127.021662,37.48272257,494
37.50858055,127.0030088,,Point,한신2차정문정류장,127.0030088,37.50858055,495
37.48620379,127.0040271,,Point,미켈란아파트정류장,127.0040271,37.48620379,496
37.49541808,127.0248549,,Point,롯데칠성정류장,127.0248549,37.49541808,497
37.47168148,127.0306111,,Point,kt연구소정류장,127.0306111,37.47168148,498
37.48860096,126.9968192,,Point,오거리정류장,126.9968192,37.48860096,499
37.47650103,126.9827358,,Point,사당역정류장,126.9827358,37.47650103,500
37.49980287,127.026569,,Point,강남역.서초초교앞정류장,127.026569,37.49980287,501
37.47666333,126.9829132,,Point,사당역14번출구정류장,126.9829132,37.47666333,502
37.51190999,127.0093463,,Point,경원중학교정류장,127.0093463,37.51190999,503
37.48397456,127.0305037,,Point,외교안보연구원.서초구청정류장,127.0305037,37.48397456,504
37.5057468,127.0033421,,Point,호남고속.신세계정류장,127.0033421,37.5057468,505
37.48306577,127.0042229,,Point,서울고사거리정류장,127.0042229,37.48306577,506
37.47012586,127.0320862,,Point,문화예술공원정류장,127.0320862,37.47012586,507
37.49701244,127.0278812,,Point,강남역.삼성전자정류장,127.0278812,37.49701244,508
37.50039559,126.996461,,Point,반포종합운동장정류장,126.996461,37.50039559,509
37.49938121,126.9962557,,Point,반포종합운동장정류장,126.9962557,37.49938121,510
37.4720362,127.0456725,,Point,언남중고교정류장,127.0456725,37.4720362,511
37.48423692,127.032365,,Point,서초구청정류장,127.032365,37.48423692,512
37.50463178,126.9998548,,Point,경남상가정류장,126.9998548,37.50463178,513
37.48225754,127.0018175,,Point,제약회관정류장,127.0018175,37.48225754,514
37.49649075,127.0227218,,Point,진흥아파트정류장,127.0227218,37.49649075,515
37.46772908,127.0343723,,Point,더케이호텔정문정류장,127.0343723,37.46772908,516
37.48919876,126.9985479,,Point,황실자이아파트정류장,126.9985479,37.48919876,517
37.49366364,127.0294803,,Point,우성아파트사거리정류장,127.0294803,37.49366364,518
37.49149367,127.0067758,,Point,서초역4번출구정류장,127.0067758,37.49149367,519
37.47049586,127.0422487,,Point,매헌초교정류장,127.0422487,37.47049586,520
37.50395678,126.9970089,,Point,반포2동주민센터정류장,126.9970089,37.50395678,521
37.48065623,126.9980266,,Point,방배(백석예술대)역2번출구정류장,126.9980266,37.48065623,522
37.48940367,127.0276681,,Point,무지개아파트후문정류장,127.0276681,37.48940367,523
37.49562949,127.019711,,Point,유원아파트정류장,127.019711,37.49562949,524
37.46534497,127.0340191,,Point,더케이호텔후문정류장,127.0340191,37.46534497,525
37.48875451,126.9970312,,Point,오거리정류장,126.9970312,37.48875451,526
37.49095823,127.0307566,,Point,현대렉시온오피스텔.파이낸셜뉴스정류장,127.0307566,37.49095823,527
37.49111714,127.0078969,,Point,서초역.3번출구정류장,127.0078969,37.49111714,528
37.47243621,127.041478,,Point,양재근린공원정류장,127.041478,37.47243621,529
37.47889896,126.9991879,,Point,방배누리시아웨딩홀정류장,126.9991879,37.47889896,530
37.48805334,127.0265406,,Point,무지개아파트정문정류장,127.0265406,37.48805334,531
37.49925537,127.0264184,,Point,강남역.10번출구정류장,127.0264184,37.49925537,532
37.48921641,127.0303124,,Point,뱅뱅사거리정류장,127.0303124,37.48921641,533
37.47364929,127.0432953,,Point,언남고정류장,127.0432953,37.47364929,534
37.48187604,127.0169997,,Point,남부터미널.기쁨병원정류장,127.0169997,37.48187604,535
37.4771494,127.0003403,,Point,경남아파트정류장,127.0003403,37.4771494,536
37.48720399,127.0238598,,Point,풍림아이원정류장,127.0238598,37.48720399,537
37.46235518,127.0361648,,Point,하이브랜드.코스트코.이마트정류장,127.0361648,37.46235518,538
37.48619157,127.0102265,,Point,서초유스센터정류장,127.0102265,37.48619157,539
37.48104239,127.0140682,,Point,예술의전당정류장,127.0140682,37.48104239,540
37.49416012,127.0136534,,Point,교대역6번출구정류장,127.0136534,37.49416012,541
37.47960889,127.0107264,,Point,신중초등학교정류장,127.0107264,37.47960889,542
37.47401497,126.9929333,,Point,동덕여고정류장,126.9929333,37.47401497,543
37.48537946,127.0179388,,Point,국제전자센터정류장,127.0179388,37.48537946,544
37.48272369,127.0356473,,Point,양재역9번출구정류장,127.0356473,37.48272369,545
37.47793435,127.0073884,,Point,국립국악원정류장,127.0073884,37.47793435,546
37.4917168,127.0303886,,Point,래미안아파트.파이낸셜뉴스정류장,127.0303886,37.4917168,547
37.49735209,126.9873957,,Point,삼호아파트정류장,126.9873957,37.49735209,548
37.47387,126.99267,,Point,성지마을입구정류장,126.99267,37.47387,549
37.48469042,127.0144161,,Point,남부터미널.한일시멘트정류장,127.0144161,37.48469042,550
37.48262948,127.0357402,,Point,양재역엘타워빌딩정류장,127.0357402,37.48262948,551
37.49034865,127.0196536,,Point,서초1동사무소정류장,127.0196536,37.49034865,552
37.46937835,127.0376391,,Point,양재시민의숲매헌역입구정류장,127.0376391,37.46937835,553
37.47811406,127.0066737,,Point,방배빌딩정류장,127.0066737,37.47811406,554
37.49575506,126.9884202,,Point,서래초등학교정류장,126.9884202,37.49575506,555
37.49162673,127.0167122,,Point,복지관정류장,127.0167122,37.49162673,556
37.47997968,127.0057881,,Point,삼환아파트정류장,127.0057881,37.47997968,557
37.51054769,126.9980502,,Point,세빛섬정류장,126.9980502,37.51054769,558
37.50870744,126.9945842,,Point,세빛섬정류장,126.9945842,37.50870744,559
37.48291203,127.0354617,,Point,양재역커피빈앞정류장,127.0354617,37.48291203,560
37.47828291,127.0394173,,Point,교육개발원입구사거리정류장,127.0394173,37.47828291,561
37.49329677,127.0127842,,Point,교대역.법원검찰청정류장,127.0127842,37.49329677,562
37.48938589,127.0046592,,Point,서초고후문정류장,127.0046592,37.48938589,563
37.48182845,127.0049105,,Point,상문고등학교.수표교교회정류장,127.0049105,37.48182845,564
37.49233164,126.9890027,,Point,빛교회.이수중앙시장정류장,126.9890027,37.49233164,565
37.47977306,127.0409961,,Point,현대캐피탈정류장,127.0409961,37.47977306,566
37.45371948,127.0542431,,Point,본마을노인복지센터정류장,127.0542431,37.45371948,567
37.45402055,127.0544918,,Point,본마을노인복지센터정류장,127.0544918,37.45402055,568
37.48911269,126.9927571,,Point,방배열린문화센터.가야치과병원정류장,126.9927571,37.48911269,569
37.4916518,126.9872941,,Point,카페골목입구정류장,126.9872941,37.4916518,570
37.48149371,127.0425654,,Point,원불교정류장,127.0425654,37.48149371,571
37.4903426,126.9919842,,Point,신한은행정류장,126.9919842,37.4903426,572
37.48944118,126.9872029,,Point,노인정정류장,126.9872029,37.48944118,573
37.50723879,127.0080776,,Point,뉴코아백화점정류장,127.0080776,37.50723879,574
37.4915455,126.9912295,,Point,하나은행정류장,126.9912295,37.4915455,575
37.48777741,127.0128808,,Point,청호나이스정류장,127.0128808,37.48777741,576
37.4723874,127.0280446,,Point,코오롱아파트정류장,127.0280446,37.4723874,577
37.48721975,126.9823182,,Point,이수역2번출구정류장,126.9823182,37.48721975,578
37.48232264,127.0121304,,Point,HCN서초방송정류장,127.0121304,37.48232264,579
37.45370579,127.0593917,,Point,서초포레스타3단지후문정류장,127.0593917,37.45370579,580
37.4887642,127.0162017,,Point,서울교대정류장,127.0162017,37.4887642,581
37.49752854,127.0264512,,Point,삼성딜라이트정류장,127.0264512,37.49752854,582
37.4936224,126.9863116,,Point,유경약국정류장,126.9863116,37.4936224,583
37.5044273,127.0013229,,Point,고속터미널정류장,127.0013229,37.5044273,584
37.50018571,127.0038776,,Point,서래마을정류장,127.0038776,37.50018571,585
37.48960936,127.019231,,Point,서초1동주민센터정류장,127.019231,37.48960936,586
37.46921992,127.0267622,,Point,삽준네마을정류장,127.0267622,37.46921992,587
37.49538221,126.9858365,,Point,남부시장정류장,126.9858365,37.49538221,588
37.46741933,127.027897,,Point,교총회관정류장,127.027897,37.46741933,589
37.49732421,126.9853154,,Point,롯데캐슬헤론아파트정류장,126.9853154,37.49732421,590
37.49916396,126.9983274,,Point,서래마을입구정류장,126.9983274,37.49916396,591
37.49792258,126.9982808,,Point,서래마을.서래글로벌빌리지센터정류장,126.9982808,37.49792258,592
37.48668277,127.0289868,,Point,서초문화예술정보학교후문정류장,127.0289868,37.48668277,593
37.45896925,127.0178449,,Point,송동마을.서초힐스아파트정류장,127.0178449,37.45896925,594
37.49628532,126.998154,,Point,효성빌라정류장,126.998154,37.49628532,595
37.49492781,126.9974513,,Point,방배중학교정류장,126.9974513,37.49492781,596
37.49407593,126.9957632,,Point,필리핀대사관정류장,126.9957632,37.49407593,597
37.48893018,127.0045847,,Point,서초고후문정류장,127.0045847,37.48893018,598
37.49376764,126.993531,,Point,방배4동성당정류장,126.993531,37.49376764,599
37.49316685,126.9911152,,Point,함지박사거리정류장,126.9911152,37.49316685,600
37.47175986,127.050561,,Point,구룡사입구정류장,127.050561,37.47175986,601
37.4843,127.0159,,Point,서울남부터미널정류장,127.0159,37.4843,602
37.48745523,126.9848837,,Point,서문여고정류장,126.9848837,37.48745523,603
37.49156108,126.9872539,,Point,카페골목입구정류장,126.9872539,37.49156108,604
37.50036913,126.996474,,Point,반포종합운동장정류장,126.996474,37.50036913,605
37.47740893,126.9871009,,Point,서울교통공사정류장,126.9871009,37.47740893,606
37.48416185,127.030607,,Point,서초구청맞은편정류장,127.030607,37.48416185,607
37.48121887,126.9964838,,Point,방배(백석에술대)역 3번출구정류장,126.9964838,37.48121887,608
37.49613599,127.019703,,Point,서초롯데캐슬프레지던트아파트정류장,127.019703,37.49613599,609
37.49448592,127.0062918,,Point,대검찰청.서초경찰서정류장,127.0062918,37.49448592,610
37.47450085,127.0002022,,Point,불교TV.서초어린이집정류장,127.0002022,37.47450085,611
37.47399115,127.0481394,,Point,구룡사거리정류장,127.0481394,37.47399115,612
37.49116792,127.0268532,,Point,서이초등학교정류장,127.0268532,37.49116792,613
37.48320205,127.004274,,Point,서울고사거리정류장,127.004274,37.48320205,614
37.47784126,126.9818045,,Point,사당역12번출구정류장,126.9818045,37.47784126,615
37.50440784,127.0012883,,Point,삼성래미안.이수역방향정류장,127.0012883,37.50440784,616
37.485572,127.0040265,,Point,더미켈란아파트정류장,127.0040265,37.485572,617
37.50033855,127.0040276,,Point,서울성모병원.서울지방조달청정류장,127.0040276,37.50033855,618
37.49800738,127.012734,,Point,아크로비스타정류장,127.012734,37.49800738,619
37.49329123,127.0213172,,Point,서초성당정류장,127.0213172,37.49329123,620
37.49586859,127.0284233,,Point,강남역나라빌딩앞정류장,127.0284233,37.49586859,621
37.48299638,127.0353785,,Point,양재역신한은행앞정류장,127.0353785,37.48299638,622
37.48350402,127.0421643,,Point,원불교앞정류장,127.0421643,37.48350402,623
37.47183935,127.0506326,,Point,구룡사입구정류장,127.0506326,37.47183935,624
37.47440407,127.047859,,Point,국악고교사거리정류장,127.047859,37.47440407,625
37.4771186,127.045055,,Point,삼호물산정류장,127.045055,37.4771186,626
37.52428981,127.0158197,,Point,한남대교전망카페정류장,127.0158197,37.52428981,627
37.478635,127.038325,,Point,교육개발원입구정류장,127.038325,37.478635,628
37.477586,127.038926,,Point,교육개발원입구정류장,127.038926,37.477586,629
37.482648,127.035679,,Point,양재역.서초문화예술회관정류장,127.035679,37.482648,630
37.482396,127.036573,,Point,양재역.서초문화예술회관정류장,127.036573,37.482396,631
37.487384,127.032422,,Point,뱅뱅사거리정류장,127.032422,37.487384,632
37.491677,127.030394,,Point,래미안아파트파이낸셜뉴스정류장,127.030394,37.491677,633
37.50769,127.022802,,Point,논현역정류장,127.022802,37.50769,634
37.508458,127.011955,,Point,반포역정류장,127.011955,37.508458,635
37.508257,127.012378,,Point,반포역정류장,127.012378,37.508257,636
37.506413,127.004811,,Point,고속터미널정류장,127.004811,37.506413,637
37.505672,127.003631,,Point,고속터미널정류장,127.003631,37.505672,638
37.503434,126.995472,,Point,신반포역.세화여중고정류장,126.995472,37.503434,639
37.501663,126.988039,,Point,구반포역.세화고등학교정류장,126.988039,37.501663,640
37.484267,127.030634,,Point,서초구청정류장,127.030634,37.484267,641
37.49207,127.00875,,Point,서초역1번출구정류장,127.00875,37.49207,642
37.488725,127.00946,,Point,서초동삼성아파트정류장,127.00946,37.488725,643
37.509435,126.998196,,Point,반포대교남단(미정차)정류장,126.998196,37.509435,644
37.501103,126.983547,,Point,이수교차로(미정차)정류장,126.983547,37.501103,645
37.460538,127.020695,,Point,선암IC(미정차)정류장,127.020695,37.460538,646
37.458625,127.017909,,Point,서초힐스아파트정류장,127.017909,37.458625,647
37.483388,127.034872,,Point,양재역정류장,127.034872,37.483388,648
37.4708,127.038491,,Point,시민의숲.양재꽃시장정류장,127.038491,37.4708,649
37.471481,127.039004,,Point,시민의숲.양재꽃시장정류장,127.039004,37.471481,650
37.460282,127.034906,,Point,양곡도매시장정류장,127.034906,37.460282,651
37.485892,127.010805,,Point,서초아트자이아파트정류장,127.010805,37.485892,652
37.496661,127.028028,,Point,강남역서초현대타워앞정류장,127.028028,37.496661,653
37.463952,127.040215,,Point,양재IC(미정차)정류장,127.040215,37.463952,654
37.494178,127.015909,,Point,교대역정류장,127.015909,37.494178,655
37.494827,127.028977,,Point,강남역도시에빛정류장,127.028977,37.494827,656
37.501813,127.02547,,Point,신논현역.우신빌딩정류장,127.02547,37.501813,657
37.459137,127.017934,,Point,송동마을.서초힐스아파트정류장,127.017934,37.459137,658
